KEY	ZipCode	City	District	Street	HouseNr	X_Coordinate	Y_Coordinate	Flag_Coordinates	Version	House_ID	Image	Random
1461200000000130	1067	Dresden	Friedrichstadt	Berliner Str.	1	13,718404	51,0542331	1	20170201	100000098	http://maps.google.com/maps/api/staticmap?center=51.0542331,13.718404&zoom=16&size=100x100&maptype=satellite&sensor=false&language=&markers:none|label:none|51.0542331,13.718404	94
1461200000000250	1067	Dresden	Wilsdruffer Vorstadt/Seevorstadt-West	Ermischstr.	14	13,7260909	51,0522823	1	20170201	100000207	http://maps.google.com/maps/api/staticmap?center=51.0522823,13.7260909&zoom=16&size=100x100&maptype=satellite&sensor=false&language=&markers:none|label:none|51.0522823,13.7260909	0
1461200000000300	1067	Dresden	Wilsdruffer Vorstadt/Seevorstadt-West	Freiberger Str.	11	13,728013	51,0505461	1	20170201	100000249	http://maps.google.com/maps/api/staticmap?center=51.0505461,13.728013&zoom=16&size=100x100&maptype=satellite&sensor=false&language=&markers:none|label:none|51.0505461,13.728013	60
1461200000000470	1067	Dresden	Wilsdruffer Vorstadt/Seevorstadt-West	Jakobsgasse	18	13,7282733	51,0480879	1	20170201	100000382	http://maps.google.com/maps/api/staticmap?center=51.0480879,13.7282733&zoom=16&size=100x100&maptype=satellite&sensor=false&language=&markers:none|label:none|51.0480879,13.7282733	19
1461200000001040	1067	Dresden	Innere Altstadt	Jüdenhof	1	13,7393494	51,0513407	1	20170201	100000857	http://maps.google.com/maps/api/staticmap?center=51.0513407,13.7393494&zoom=16&size=100x100&maptype=satellite&sensor=false&language=&markers:none|label:none|51.0513407,13.7393494	16
1461200000001180	1069	Dresden	Südvorstadt-Ost	Andreas-Schubert-Str.	35E	13,7358584	51,0349967	1	20170201	100000926	http://maps.google.com/maps/api/staticmap?center=51.0349967,13.7358584&zoom=16&size=100x100&maptype=satellite&sensor=false&language=&markers:none|label:none|51.0349967,13.7358584	47
1461200000001480	1069	Dresden	Südvorstadt-Ost	Egon-Erwin-Kisch-Str.	6	13,7408292	51,031157	1	20170201	100001183	http://maps.google.com/maps/api/staticmap?center=51.031157,13.7408292&zoom=16&size=100x100&maptype=satellite&sensor=false&language=&markers:none|label:none|51.031157,13.7408292	82
1461200000001600	1069	Dresden	Südvorstadt-West	Fritz-Löffler-Str.	24	13,7304755	51,0332811	1	20170201	100001295	http://maps.google.com/maps/api/staticmap?center=51.0332811,13.7304755&zoom=16&size=100x100&maptype=satellite&sensor=false&language=&markers:none|label:none|51.0332811,13.7304755	15
1461200000001830	1069	Dresden	Wilsdruffer Vorstadt/Seevorstadt-West	Josephinenstr.	19	13,729204	51,046035	1	20170201	100001514	http://maps.google.com/maps/api/staticmap?center=51.046035,13.729204&zoom=16&size=100x100&maptype=satellite&sensor=false&language=&markers:none|label:none|51.046035,13.729204	22
1461200000001830	1069	Dresden	Wilsdruffer Vorstadt/Seevorstadt-West	Josephinenstr.	25	13,7301739	51,0452459	1	20170201	100001519	http://maps.google.com/maps/api/staticmap?center=51.0452459,13.7301739&zoom=16&size=100x100&maptype=satellite&sensor=false&language=&markers:none|label:none|51.0452459,13.7301739	81
1461200000002060	1069	Dresden	Pirnaische Vorstadt	Pestalozzistr.	15	13,7567904	51,0519348	1	20170201	100001738	http://maps.google.com/maps/api/staticmap?center=51.0519348,13.7567904&zoom=16&size=100x100&maptype=satellite&sensor=false&language=&markers:none|label:none|51.0519348,13.7567904	38
1461200000002160	1069	Dresden	Wilsdruffer Vorstadt/Seevorstadt-West	Reitbahnstr.	26	13,7320951	51,0437069	2	20170201	100001827	http://maps.google.com/maps/api/staticmap?center=51.0437069,13.7320951&zoom=16&size=100x100&maptype=satellite&sensor=false&language=&markers:none|label:none|51.0437069,13.7320951	52
1461200000002200	1069	Dresden	Südvorstadt-Ost	Rohlfsstr.	11	13,7375901	51,0320817	1	20170201	100001865	http://maps.google.com/maps/api/staticmap?center=51.0320817,13.7375901&zoom=16&size=100x100&maptype=satellite&sensor=false&language=&markers:none|label:none|51.0320817,13.7375901	40
1461200000002240	1069	Dresden	Südvorstadt-West	Rugestr.	7	13,7276067	51,0337404	1	20170201	100001898	http://maps.google.com/maps/api/staticmap?center=51.0337404,13.7276067&zoom=16&size=100x100&maptype=satellite&sensor=false&language=&markers:none|label:none|51.0337404,13.7276067	55
1461200000002950	1097	Dresden	Leipziger Vorstadt	Fichtenstr.	1	13,7488586	51,0748254	1	20170201	100002529	http://maps.google.com/maps/api/staticmap?center=51.0748254,13.7488586&zoom=16&size=100x100&maptype=satellite&sensor=false&language=&markers:none|label:none|51.0748254,13.7488586	76
1461200000003130	1097	Dresden	Innere Neustadt	Hainstr.	5	13,7399786	51,063721	1	20170201	100002705	http://maps.google.com/maps/api/staticmap?center=51.063721,13.7399786&zoom=16&size=100x100&maptype=satellite&sensor=false&language=&markers:none|label:none|51.063721,13.7399786	69
1461200000003170	1097	Dresden	Leipziger Vorstadt	Hansastr.	46	13,7395124	51,0736258	1	20170201	100002742	http://maps.google.com/maps/api/staticmap?center=51.0736258,13.7395124&zoom=16&size=100x100&maptype=satellite&sensor=false&language=&markers:none|label:none|51.0736258,13.7395124	72
1461200000003330	1097	Dresden	Leipziger Vorstadt	Helgolandstr.	3	13,7430778	51,0718497	1	20170201	100002889	http://maps.google.com/maps/api/staticmap?center=51.0718497,13.7430778&zoom=16&size=100x100&maptype=satellite&sensor=false&language=&markers:none|label:none|51.0718497,13.7430778	29
1461200000003760	1097	Dresden	Äußere Neustadt	Schwepnitzer Str.	5	13,7475427	51,0694666	1	20170201	100003261	http://maps.google.com/maps/api/staticmap?center=51.0694666,13.7475427&zoom=16&size=100x100&maptype=satellite&sensor=false&language=&markers:none|label:none|51.0694666,13.7475427	25
1461200000003800	1097	Dresden	Innere Neustadt	Theresienstr.	14	13,742802	51,0626898	1	20170201	100003295	http://maps.google.com/maps/api/staticmap?center=51.0626898,13.742802&zoom=16&size=100x100&maptype=satellite&sensor=false&language=&markers:none|label:none|51.0626898,13.742802	42
1461200000003980	1099	Dresden	Äußere Neustadt	Alaunstr.	95	13,7547024	51,0700837	1	20170201	100003457	http://maps.google.com/maps/api/staticmap?center=51.0700837,13.7547024&zoom=16&size=100x100&maptype=satellite&sensor=false&language=&markers:none|label:none|51.0700837,13.7547024	22
1461200000004060	1099	Dresden	Albertstadt	Am Lagerplatz	10	13,7673935	51,0834137	1	20170201	100003520	http://maps.google.com/maps/api/staticmap?center=51.0834137,13.7673935&zoom=16&size=100x100&maptype=satellite&sensor=false&language=&markers:none|label:none|51.0834137,13.7673935	24
1461200000004340	1099	Dresden	Radeberger Vorstadt	Bautzner Str.	189	13,7888357	51,0671814	4	20170201	100003766	http://maps.google.com/maps/api/staticmap?center=51.0671814,13.7888357&zoom=16&size=100x100&maptype=satellite&sensor=false&language=&markers:none|label:none|51.0671814,13.7888357	53
1461200000004430	1099	Dresden	Radeberger Vorstadt	Bettinastr.	17	13,7826421	51,0685607	1	20170201	100003844	http://maps.google.com/maps/api/staticmap?center=51.0685607,13.7826421&zoom=16&size=100x100&maptype=satellite&sensor=false&language=&markers:none|label:none|51.0685607,13.7826421	46
1461200000004490	1099	Dresden	Radeberger Vorstadt	Bischofswerder Str.	10	13,7620923	51,0718679	1	20170201	100003905	http://maps.google.com/maps/api/staticmap?center=51.0718679,13.7620923&zoom=16&size=100x100&maptype=satellite&sensor=false&language=&markers:none|label:none|51.0718679,13.7620923	80
1461200000004600	1099	Dresden	Radeberger Vorstadt	Fischhausstr.	11	13,7869551	51,0691707	1	20170201	100004011	http://maps.google.com/maps/api/staticmap?center=51.0691707,13.7869551&zoom=16&size=100x100&maptype=satellite&sensor=false&language=&markers:none|label:none|51.0691707,13.7869551	71
1461200000004610	1099	Dresden	Radeberger Vorstadt	Fischhausstr.	12B	13,7906533	51,0717248	1	20170201	100004014	http://maps.google.com/maps/api/staticmap?center=51.0717248,13.7906533&zoom=16&size=100x100&maptype=satellite&sensor=false&language=&markers:none|label:none|51.0717248,13.7906533	34
1461200000004690	1099	Dresden	Äußere Neustadt	Görlitzer Str.	18	13,7548731	51,067708	1	20170201	100004093	http://maps.google.com/maps/api/staticmap?center=51.067708,13.7548731&zoom=16&size=100x100&maptype=satellite&sensor=false&language=&markers:none|label:none|51.067708,13.7548731	41
1461200000004720	1099	Dresden	Äußere Neustadt	Görlitzer Str.	43	13,7555084	51,0690076	1	20170201	100004122	http://maps.google.com/maps/api/staticmap?center=51.0690076,13.7555084&zoom=16&size=100x100&maptype=satellite&sensor=false&language=&markers:none|label:none|51.0690076,13.7555084	35
1461200000004750	1099	Dresden	Innere Neustadt	Glacisstr.	44	13,74905	51,0628833	1	20170201	100004149	http://maps.google.com/maps/api/staticmap?center=51.0628833,13.74905&zoom=16&size=100x100&maptype=satellite&sensor=false&language=&markers:none|label:none|51.0628833,13.74905	86
1461200000005220	1099	Dresden	Radeberger Vorstadt	Löbauer Str.	14	13,7669884	51,0683431	1	20170201	100004506	http://maps.google.com/maps/api/staticmap?center=51.0683431,13.7669884&zoom=16&size=100x100&maptype=satellite&sensor=false&language=&markers:none|label:none|51.0683431,13.7669884	11
1461200000005250	1099	Dresden	Innere Neustadt	Löwenstr.	5A	13,7577332	51,0621046	1	20170201	100004533	http://maps.google.com/maps/api/staticmap?center=51.0621046,13.7577332&zoom=16&size=100x100&maptype=satellite&sensor=false&language=&markers:none|label:none|51.0621046,13.7577332	9
1461200000005260	1099	Dresden	Innere Neustadt	Löwenstr.	6B	13,7585305	51,0616914	1	20170201	100004538	http://maps.google.com/maps/api/staticmap?center=51.0616914,13.7585305&zoom=16&size=100x100&maptype=satellite&sensor=false&language=&markers:none|label:none|51.0616914,13.7585305	26
1461200000005360	1099	Dresden	Äußere Neustadt	Louisenstr.	81B	13,7572516	51,0655519	1	20170201	100004639	http://maps.google.com/maps/api/staticmap?center=51.0655519,13.7572516&zoom=16&size=100x100&maptype=satellite&sensor=false&language=&markers:none|label:none|51.0655519,13.7572516	16
1461200000005470	1099	Dresden	Albertstadt	Meschwitzstr.	8	13,7656642186	51,0837627389	0	20170201	100004723	http://maps.google.com/maps/api/staticmap?center=51.0837627389,13.7656642186&zoom=16&size=100x100&maptype=satellite&sensor=false&language=&markers:none|label:none|51.0837627389,13.7656642186	67
1461200000005570	1099	Dresden	Äußere Neustadt	Prießnitzstr.	46	13,7604628	51,0668496	1	20170201	100004820	http://maps.google.com/maps/api/staticmap?center=51.0668496,13.7604628&zoom=16&size=100x100&maptype=satellite&sensor=false&language=&markers:none|label:none|51.0668496,13.7604628	20
1461200000005580	1099	Dresden	Äußere Neustadt	Prießnitzstr.	59	13,7615116	51,0690246	1	20170201	100004834	http://maps.google.com/maps/api/staticmap?center=51.0690246,13.7615116&zoom=16&size=100x100&maptype=satellite&sensor=false&language=&markers:none|label:none|51.0690246,13.7615116	70
1461200000005840	1099	Dresden	Äußere Neustadt	Sebnitzer Str.	47	13,758965	51,0679371	1	20170201	100005061	http://maps.google.com/maps/api/staticmap?center=51.0679371,13.758965&zoom=16&size=100x100&maptype=satellite&sensor=false&language=&markers:none|label:none|51.0679371,13.758965	93
1461200000006120	1099	Dresden	Radeberger Vorstadt	Wilhelminenstr.	7	13,7884298	51,0675394	1	20170201	100005259	http://maps.google.com/maps/api/staticmap?center=51.0675394,13.7884298&zoom=16&size=100x100&maptype=satellite&sensor=false&language=&markers:none|label:none|51.0675394,13.7884298	92
1461200000006410	1108	Dresden	Weixdorf	An den Birken	36	13,7904496	51,1334987	1	20170201	100005468	http://maps.google.com/maps/api/staticmap?center=51.1334987,13.7904496&zoom=16&size=100x100&maptype=satellite&sensor=false&language=&markers:none|label:none|51.1334987,13.7904496	75
1461200000006510	1108	Dresden	Weixdorf	An den Teichen	67	13,8077322	51,1450915	1	20170201	100005563	http://maps.google.com/maps/api/staticmap?center=51.1450915,13.8077322&zoom=16&size=100x100&maptype=satellite&sensor=false&language=&markers:none|label:none|51.1450915,13.8077322	64
1461200000006540	1108	Dresden	Weixdorf	An der Heide	7	13,7991196	51,1359327	1	20170201	100005587	http://maps.google.com/maps/api/staticmap?center=51.1359327,13.7991196&zoom=16&size=100x100&maptype=satellite&sensor=false&language=&markers:none|label:none|51.1359327,13.7991196	54
1461200000006620	1108	Dresden	Weixdorf	Bergsiedlung	31A	13,8171601	51,1480965	1	20170201	100005658	http://maps.google.com/maps/api/staticmap?center=51.1480965,13.8171601&zoom=16&size=100x100&maptype=satellite&sensor=false&language=&markers:none|label:none|51.1480965,13.8171601	84
1461200000007030	1108	Dresden	Weixdorf	Privatstr.	27A	13,7987166	51,1451068	1	20170201	100006037	http://maps.google.com/maps/api/staticmap?center=51.1451068,13.7987166&zoom=16&size=100x100&maptype=satellite&sensor=false&language=&markers:none|label:none|51.1451068,13.7987166	25
1461200000007060	1108	Dresden	Weixdorf	Rathenaustr.	15	13,8030167	51,1434492	1	20170201	100006067	http://maps.google.com/maps/api/staticmap?center=51.1434492,13.8030167&zoom=16&size=100x100&maptype=satellite&sensor=false&language=&markers:none|label:none|51.1434492,13.8030167	34
1461200000007080	1108	Dresden	Weixdorf	Rotkehlchenweg	18	13,7958837	51,1449441	1	20170201	100006091	http://maps.google.com/maps/api/staticmap?center=51.1449441,13.7958837&zoom=16&size=100x100&maptype=satellite&sensor=false&language=&markers:none|label:none|51.1449441,13.7958837	79
1461200000007440	1108	Dresden	Weixdorf	Kügelgenweg	40	13,8066758	51,1556938	1	20170201	100006405	http://maps.google.com/maps/api/staticmap?center=51.1556938,13.8066758&zoom=16&size=100x100&maptype=satellite&sensor=false&language=&markers:none|label:none|51.1556938,13.8066758	4
1461200000007450	1108	Dresden	Weixdorf	Lehngutstr.	10	13,7961288	51,1423508	1	20170201	100006415	http://maps.google.com/maps/api/staticmap?center=51.1423508,13.7961288&zoom=16&size=100x100&maptype=satellite&sensor=false&language=&markers:none|label:none|51.1423508,13.7961288	88
1461200000007620	1108	Dresden	Weixdorf	Seifzerteichstr.	3	13,7872451	51,1318629	1	20170201	100006556	http://maps.google.com/maps/api/staticmap?center=51.1318629,13.7872451&zoom=16&size=100x100&maptype=satellite&sensor=false&language=&markers:none|label:none|51.1318629,13.7872451	49
1461200000007650	1108	Dresden	Weixdorf	Radeburger Landstr.	16	13,7950151	51,1517549	2	20170201	100006581	http://maps.google.com/maps/api/staticmap?center=51.1517549,13.7950151&zoom=16&size=100x100&maptype=satellite&sensor=false&language=&markers:none|label:none|51.1517549,13.7950151	72
1461200000007890	1108	Dresden	Weixdorf	Altfriedersdorf	24	13,809804	51,1450828	1	20170201	100006807	http://maps.google.com/maps/api/staticmap?center=51.1450828,13.809804&zoom=16&size=100x100&maptype=satellite&sensor=false&language=&markers:none|label:none|51.1450828,13.809804	73
1461200000007970	1108	Dresden	Weixdorf	Altweixdorf	17	13,7971436	51,1473843	1	20170201	100006884	http://maps.google.com/maps/api/staticmap?center=51.1473843,13.7971436&zoom=16&size=100x100&maptype=satellite&sensor=false&language=&markers:none|label:none|51.1473843,13.7971436	94
1461200000008040	1108	Dresden	Weixdorf	Gomlitzer Höhe	3	13,7870652	51,1521702	1	20170201	100006949	http://maps.google.com/maps/api/staticmap?center=51.1521702,13.7870652&zoom=16&size=100x100&maptype=satellite&sensor=false&language=&markers:none|label:none|51.1521702,13.7870652	68
1461200000008420	1109	Dresden	Klotzsche	Alexander-Herzen-Str.	47	13,7889737	51,1222802	1	20170201	100007197	http://maps.google.com/maps/api/staticmap?center=51.1222802,13.7889737&zoom=16&size=100x100&maptype=satellite&sensor=false&language=&markers:none|label:none|51.1222802,13.7889737	16
1461200000008470	1109	Dresden	Klotzsche	Altklotzsche	69	13,7620583	51,1153779	1	20170201	100007247	http://maps.google.com/maps/api/staticmap?center=51.1153779,13.7620583&zoom=16&size=100x100&maptype=satellite&sensor=false&language=&markers:none|label:none|51.1153779,13.7620583	49
1461200000008570	1109	Dresden	Klotzsche	Am Feldgehölz	11	13,7763117	51,1217789	1	20170201	100007332	http://maps.google.com/maps/api/staticmap?center=51.1217789,13.7763117&zoom=16&size=100x100&maptype=satellite&sensor=false&language=&markers:none|label:none|51.1217789,13.7763117	51
1461200000008680	1109	Dresden	Hellerau/Wilschdorf	Am Grünen Zipfel	58	13,7618815	51,1072919	1	20170201	100007433	http://maps.google.com/maps/api/staticmap?center=51.1072919,13.7618815&zoom=16&size=100x100&maptype=satellite&sensor=false&language=&markers:none|label:none|51.1072919,13.7618815	77
1461200000009030	1109	Dresden	Klotzsche	Am Steinacker	27	13,7639148	51,1197664	1	20170201	100007773	http://maps.google.com/maps/api/staticmap?center=51.1197664,13.7639148&zoom=16&size=100x100&maptype=satellite&sensor=false&language=&markers:none|label:none|51.1197664,13.7639148	73
1461200000009070	1109	Dresden	Klotzsche	Am Steinacker	50B	13,7682567	51,1218788	1	20170201	100007809	http://maps.google.com/maps/api/staticmap?center=51.1218788,13.7682567&zoom=16&size=100x100&maptype=satellite&sensor=false&language=&markers:none|label:none|51.1218788,13.7682567	78
1461200000009130	1109	Dresden	Hellerau/Wilschdorf	Am Torfmoor	14	13,7420492	51,1153824	1	20170201	100007863	http://maps.google.com/maps/api/staticmap?center=51.1153824,13.7420492&zoom=16&size=100x100&maptype=satellite&sensor=false&language=&markers:none|label:none|51.1153824,13.7420492	38
1461200000009220	1109	Dresden	Klotzsche	Am Trobischberg	9	13,7758097	51,1190818	1	20170201	100007955	http://maps.google.com/maps/api/staticmap?center=51.1190818,13.7758097&zoom=16&size=100x100&maptype=satellite&sensor=false&language=&markers:none|label:none|51.1190818,13.7758097	35
1461200000009280	1109	Dresden	Hellerau/Wilschdorf	Am Winkel	9A	13,7189995	51,120852	1	20170201	100008009	http://maps.google.com/maps/api/staticmap?center=51.120852,13.7189995&zoom=16&size=100x100&maptype=satellite&sensor=false&language=&markers:none|label:none|51.120852,13.7189995	69
1461200000009530	1109	Dresden	Hellerau/Wilschdorf	Beckerstr.	20	13,734386	51,1156632	1	20170201	100008245	http://maps.google.com/maps/api/staticmap?center=51.1156632,13.734386&zoom=16&size=100x100&maptype=satellite&sensor=false&language=&markers:none|label:none|51.1156632,13.734386	46
1461200000009710	1109	Dresden	Klotzsche	Boltenhagener Str.	57	13,7721644	51,1186399	1	20170201	100008411	http://maps.google.com/maps/api/staticmap?center=51.1186399,13.7721644&zoom=16&size=100x100&maptype=satellite&sensor=false&language=&markers:none|label:none|51.1186399,13.7721644	44
1461200000009850	1109	Dresden	Klotzsche	Dörnichtweg	67	13,7782711	51,1226797	1	20170201	100008529	http://maps.google.com/maps/api/staticmap?center=51.1226797,13.7782711&zoom=16&size=100x100&maptype=satellite&sensor=false&language=&markers:none|label:none|51.1226797,13.7782711	44
1461200000010000	1109	Dresden	Klotzsche	Georg-Estler-Str.	9	13,7847847	51,1143317	1	20170201	100008672	http://maps.google.com/maps/api/staticmap?center=51.1143317,13.7847847&zoom=16&size=100x100&maptype=satellite&sensor=false&language=&markers:none|label:none|51.1143317,13.7847847	58
1461200000010010	1109	Dresden	Klotzsche	Gertrud-Caspari-Str.	2	13,7821721	51,1135944	1	20170201	100008679	http://maps.google.com/maps/api/staticmap?center=51.1135944,13.7821721&zoom=16&size=100x100&maptype=satellite&sensor=false&language=&markers:none|label:none|51.1135944,13.7821721	57
1461200000010670	1109	Dresden	Klotzsche	Königsbrück Landstr	5C	13,772743	51,1076616	1	20170201	100009279	http://maps.google.com/maps/api/staticmap?center=51.1076616,13.772743&zoom=16&size=100x100&maptype=satellite&sensor=false&language=&markers:none|label:none|51.1076616,13.772743	18
1461200000010680	1109	Dresden	Klotzsche	Königsbrück Landstr	61	13,7823273	51,1135827	1	20170201	100009281	http://maps.google.com/maps/api/staticmap?center=51.1135827,13.7823273&zoom=16&size=100x100&maptype=satellite&sensor=false&language=&markers:none|label:none|51.1135827,13.7823273	3
1461200000010690	1109	Dresden	Klotzsche	Königsbrück Landstr	69	13,7839813	51,1143508	1	20170201	100009290	http://maps.google.com/maps/api/staticmap?center=51.1143508,13.7839813&zoom=16&size=100x100&maptype=satellite&sensor=false&language=&markers:none|label:none|51.1143508,13.7839813	75
1461200000010790	1109	Dresden	Klotzsche	Karl-Marx-Str.	20	13,7741011	51,1128618	1	20170201	100009387	http://maps.google.com/maps/api/staticmap?center=51.1128618,13.7741011&zoom=16&size=100x100&maptype=satellite&sensor=false&language=&markers:none|label:none|51.1128618,13.7741011	81
1461200000011080	1109	Dresden	Klotzsche	Klotzscher Hauptstr.	21	13,7703627	51,1095729	1	20170201	100009663	http://maps.google.com/maps/api/staticmap?center=51.1095729,13.7703627&zoom=16&size=100x100&maptype=satellite&sensor=false&language=&markers:none|label:none|51.1095729,13.7703627	47
1461200000011100	1109	Dresden	Klotzsche	Klotzscher Hauptstr.	7	13,772012	51,1086819	1	20170201	100009684	http://maps.google.com/maps/api/staticmap?center=51.1086819,13.772012&zoom=16&size=100x100&maptype=satellite&sensor=false&language=&markers:none|label:none|51.1086819,13.772012	52
1461200000011270	1109	Dresden	Hellerau/Wilschdorf	Leeraue	91M	13,7218843	51,1097199	1	20170201	100009836	http://maps.google.com/maps/api/staticmap?center=51.1097199,13.7218843&zoom=16&size=100x100&maptype=satellite&sensor=false&language=&markers:none|label:none|51.1097199,13.7218843	70
1461200000011380	1109	Dresden	Hellerau/Wilschdorf	Ludwig-Kossuth-Str.	61A	13,7457972	51,1160549	2	20170201	100009947	http://maps.google.com/maps/api/staticmap?center=51.1160549,13.7457972&zoom=16&size=100x100&maptype=satellite&sensor=false&language=&markers:none|label:none|51.1160549,13.7457972	30
1461200000011390	1109	Dresden	Hellerau/Wilschdorf	Ludwig-Kossuth-Str.	7	13,7333136	51,1183342	1	20170201	100009952	http://maps.google.com/maps/api/staticmap?center=51.1183342,13.7333136&zoom=16&size=100x100&maptype=satellite&sensor=false&language=&markers:none|label:none|51.1183342,13.7333136	57
1461200000011420	1109	Dresden	Klotzsche	Max-Hünig-Str.	1	13,7712528	51,108914	1	20170201	100009979	http://maps.google.com/maps/api/staticmap?center=51.108914,13.7712528&zoom=16&size=100x100&maptype=satellite&sensor=false&language=&markers:none|label:none|51.108914,13.7712528	48
1461200000011480	1109	Dresden	Hellerau/Wilschdorf	Moritzburger Weg	28A	13,7502048	51,1124454	1	20170201	100010037	http://maps.google.com/maps/api/staticmap?center=51.1124454,13.7502048&zoom=16&size=100x100&maptype=satellite&sensor=false&language=&markers:none|label:none|51.1124454,13.7502048	54
1461200000011490	1109	Dresden	Hellerau/Wilschdorf	Moritzburger Weg	38A	13,7507826	51,1115149	1	20170201	100010047	http://maps.google.com/maps/api/staticmap?center=51.1115149,13.7507826&zoom=16&size=100x100&maptype=satellite&sensor=false&language=&markers:none|label:none|51.1115149,13.7507826	60
1461200000011720	1109	Dresden	Klotzsche	Rostocker Str.	8	13,7829718	51,1172825	1	20170201	100010255	http://maps.google.com/maps/api/staticmap?center=51.1172825,13.7829718&zoom=16&size=100x100&maptype=satellite&sensor=false&language=&markers:none|label:none|51.1172825,13.7829718	46
1461200000011830	1109	Dresden	Klotzsche	Schänkenweg	4	13,7752641	51,1169273	1	20170201	100010359	http://maps.google.com/maps/api/staticmap?center=51.1169273,13.7752641&zoom=16&size=100x100&maptype=satellite&sensor=false&language=&markers:none|label:none|51.1169273,13.7752641	83
1461200000011850	1109	Dresden	Klotzsche	Selliner Str.	17	13,786005	51,1203836	1	20170201	100010373	http://maps.google.com/maps/api/staticmap?center=51.1203836,13.786005&zoom=16&size=100x100&maptype=satellite&sensor=false&language=&markers:none|label:none|51.1203836,13.786005	83
1461200000012010	1109	Dresden	Hellerau/Wilschdorf	Urnenfeldweg	6	13,7497046	51,1135091	1	20170201	100010520	http://maps.google.com/maps/api/staticmap?center=51.1135091,13.7497046&zoom=16&size=100x100&maptype=satellite&sensor=false&language=&markers:none|label:none|51.1135091,13.7497046	1
1461200000012090	1109	Dresden	Hellerau/Wilschdorf	Warnemünder Str.	5A	13,7187265	51,1212908	1	20170201	100010589	http://maps.google.com/maps/api/staticmap?center=51.1212908,13.7187265&zoom=16&size=100x100&maptype=satellite&sensor=false&language=&markers:none|label:none|51.1212908,13.7187265	11
1461200000012320	1109	Dresden	Klotzsche	Am Wasserwerk	21A	13,7945467	51,1222278	1	20170201	100010791	http://maps.google.com/maps/api/staticmap?center=51.1222278,13.7945467&zoom=16&size=100x100&maptype=satellite&sensor=false&language=&markers:none|label:none|51.1222278,13.7945467	58
1461200000012420	1109	Dresden	Hellerau/Wilschdorf	An der Jungen Heide	8A	13,7117986	51,1149621	1	20170201	100010847	http://maps.google.com/maps/api/staticmap?center=51.1149621,13.7117986&zoom=16&size=100x100&maptype=satellite&sensor=false&language=&markers:none|label:none|51.1149621,13.7117986	82
1461200000012440	1109	Dresden	Hellerau/Wilschdorf	Am Schulfeld	18	13,761884	51,1142604	1	20170201	100010862	http://maps.google.com/maps/api/staticmap?center=51.1142604,13.761884&zoom=16&size=100x100&maptype=satellite&sensor=false&language=&markers:none|label:none|51.1142604,13.761884	23
1461200000012460	1109	Dresden	Hellerau/Wilschdorf	Am Schulfeld	33	13,7617484	51,1144882	1	20170201	100010879	http://maps.google.com/maps/api/staticmap?center=51.1144882,13.7617484&zoom=16&size=100x100&maptype=satellite&sensor=false&language=&markers:none|label:none|51.1144882,13.7617484	98
1461200000012580	1109	Dresden	Klotzsche	Rudolf-Nehmer-Str.	7	13,7703465	51,1233247	1	20170201	100010950	http://maps.google.com/maps/api/staticmap?center=51.1233247,13.7703465&zoom=16&size=100x100&maptype=satellite&sensor=false&language=&markers:none|label:none|51.1233247,13.7703465	13
1461200000013190	1127	Dresden	Pieschen-Süd	Leipziger Str.	28	13,7284254	51,0710538	1	20170201	100011433	http://maps.google.com/maps/api/staticmap?center=51.0710538,13.7284254&zoom=16&size=100x100&maptype=satellite&sensor=false&language=&markers:none|label:none|51.0710538,13.7284254	3
1461200000013220	1127	Dresden	Pieschen-Süd	Leipziger Str.	68	13,7242979	51,0737441	1	20170201	100011459	http://maps.google.com/maps/api/staticmap?center=51.0737441,13.7242979&zoom=16&size=100x100&maptype=satellite&sensor=false&language=&markers:none|label:none|51.0737441,13.7242979	44
1461200000013250	1127	Dresden	Pieschen-Süd	Leisniger Platz	4	13,7241044	51,0805316	1	20170201	100011484	http://maps.google.com/maps/api/staticmap?center=51.0805316,13.7241044&zoom=16&size=100x100&maptype=satellite&sensor=false&language=&markers:none|label:none|51.0805316,13.7241044	9
1461200000013400	1127	Dresden	Pieschen-Süd	Mohnstr.	20A	13,7219795	51,0792238	1	20170201	100011632	http://maps.google.com/maps/api/staticmap?center=51.0792238,13.7219795&zoom=16&size=100x100&maptype=satellite&sensor=false&language=&markers:none|label:none|51.0792238,13.7219795	70
1461200000013580	1127	Dresden	Pieschen-Süd	Oschatzer Str.	49	13,725961	51,0783847	1	20170201	100011804	http://maps.google.com/maps/api/staticmap?center=51.0783847,13.725961&zoom=16&size=100x100&maptype=satellite&sensor=false&language=&markers:none|label:none|51.0783847,13.725961	54
1461200000013590	1127	Dresden	Pieschen-Süd	Oschatzer Str.	8	13,7235617	51,0751141	1	20170201	100011811	http://maps.google.com/maps/api/staticmap?center=51.0751141,13.7235617&zoom=16&size=100x100&maptype=satellite&sensor=false&language=&markers:none|label:none|51.0751141,13.7235617	19
1461200000013600	1127	Dresden	Pieschen-Süd	Osterbergstr.	13B	13,7248602	51,0785435	1	20170201	100011818	http://maps.google.com/maps/api/staticmap?center=51.0785435,13.7248602&zoom=16&size=100x100&maptype=satellite&sensor=false&language=&markers:none|label:none|51.0785435,13.7248602	36
1461200000013730	1127	Dresden	Pieschen-Süd	Robert-Matzke-Str.	1	13,7240075	51,080548	1	20170201	100011948	http://maps.google.com/maps/api/staticmap?center=51.080548,13.7240075&zoom=16&size=100x100&maptype=satellite&sensor=false&language=&markers:none|label:none|51.080548,13.7240075	82
1461200000013770	1127	Dresden	Pieschen-Süd	Robert-Matzke-Str.	50	13,7157707	51,0794562	1	20170201	100011984	http://maps.google.com/maps/api/staticmap?center=51.0794562,13.7157707&zoom=16&size=100x100&maptype=satellite&sensor=false&language=&markers:none|label:none|51.0794562,13.7157707	39
1461200000013950	1127	Dresden	Pieschen-Süd	Wurzener Str.	33	13,7157211	51,0805226	1	20170201	100012147	http://maps.google.com/maps/api/staticmap?center=51.0805226,13.7157211&zoom=16&size=100x100&maptype=satellite&sensor=false&language=&markers:none|label:none|51.0805226,13.7157211	55
1461200000013960	1127	Dresden	Leipziger Vorstadt	Würschnitzer Weg	2	13,7436797	51,0810117	1	20170201	100012163	http://maps.google.com/maps/api/staticmap?center=51.0810117,13.7436797&zoom=16&size=100x100&maptype=satellite&sensor=false&language=&markers:none|label:none|51.0810117,13.7436797	94
1461200000014010	1129	Dresden	Trachau	Aachener Str.	23	13,7117221	51,0938529	1	20170201	100012207	http://maps.google.com/maps/api/staticmap?center=51.0938529,13.7117221&zoom=16&size=100x100&maptype=satellite&sensor=false&language=&markers:none|label:none|51.0938529,13.7117221	83
1461200000014070	1129	Dresden	Trachau	Abbestr.	7	13,7069214	51,0924559	1	20170201	100012266	http://maps.google.com/maps/api/staticmap?center=51.0924559,13.7069214&zoom=16&size=100x100&maptype=satellite&sensor=false&language=&markers:none|label:none|51.0924559,13.7069214	59
1461200000014120	1129	Dresden	Trachau	Böttgerstr.	43	13,7135627	51,0945075	1	20170201	100012319	http://maps.google.com/maps/api/staticmap?center=51.0945075,13.7135627&zoom=16&size=100x100&maptype=satellite&sensor=false&language=&markers:none|label:none|51.0945075,13.7135627	53
1461200000014140	1129	Dresden	Trachau	Böttgerstr.	58C	13,7142514	51,0959008	1	20170201	100012334	http://maps.google.com/maps/api/staticmap?center=51.0959008,13.7142514&zoom=16&size=100x100&maptype=satellite&sensor=false&language=&markers:none|label:none|51.0959008,13.7142514	75
1461200000014560	1129	Dresden	Pieschen-Nord/Trachenberge	Duckwitzstr.	29	13,7243389	51,0947194	1	20170201	100012728	http://maps.google.com/maps/api/staticmap?center=51.0947194,13.7243389&zoom=16&size=100x100&maptype=satellite&sensor=false&language=&markers:none|label:none|51.0947194,13.7243389	99
1461200000014560	1129	Dresden	Pieschen-Nord/Trachenberge	Duckwitzstr.	33	13,7245208	51,0949997	1	20170201	100012737	http://maps.google.com/maps/api/staticmap?center=51.0949997,13.7245208&zoom=16&size=100x100&maptype=satellite&sensor=false&language=&markers:none|label:none|51.0949997,13.7245208	74
1461200000014570	1129	Dresden	Pieschen-Nord/Trachenberge	Duckwitzstr.	35	13,7246118	51,0951398	1	20170201	100012740	http://maps.google.com/maps/api/staticmap?center=51.0951398,13.7246118&zoom=16&size=100x100&maptype=satellite&sensor=false&language=&markers:none|label:none|51.0951398,13.7246118	67
1461200000014800	1129	Dresden	Trachau	Gustav-Richter-Str.	9	13,7078043	51,0933221	1	20170201	100012960	http://maps.google.com/maps/api/staticmap?center=51.0933221,13.7078043&zoom=16&size=100x100&maptype=satellite&sensor=false&language=&markers:none|label:none|51.0933221,13.7078043	84
1461200000014800	1129	Dresden	Trachau	Halleystr.	17	13,7069432	51,0921724	1	20170201	100012966	http://maps.google.com/maps/api/staticmap?center=51.0921724,13.7069432&zoom=16&size=100x100&maptype=satellite&sensor=false&language=&markers:none|label:none|51.0921724,13.7069432	82
1461200000014910	1129	Dresden	Pieschen-Nord/Trachenberge	Hubertusstr.	29	13,7239241	51,0904425	2	20170201	100013063	http://maps.google.com/maps/api/staticmap?center=51.0904425,13.7239241&zoom=16&size=100x100&maptype=satellite&sensor=false&language=&markers:none|label:none|51.0904425,13.7239241	82
1461200000014910	1129	Dresden	Pieschen-Nord/Trachenberge	Hubertusstr.	31D	13,7241357	51,0907159	1	20170201	100013068	http://maps.google.com/maps/api/staticmap?center=51.0907159,13.7241357&zoom=16&size=100x100&maptype=satellite&sensor=false&language=&markers:none|label:none|51.0907159,13.7241357	43
1461200000015010	1129	Dresden	Trachau	Industriestr.	65	13,7032225	51,0904182	1	20170201	100013164	http://maps.google.com/maps/api/staticmap?center=51.0904182,13.7032225&zoom=16&size=100x100&maptype=satellite&sensor=false&language=&markers:none|label:none|51.0904182,13.7032225	99
1461200000015060	1129	Dresden	Trachau	Kopernikusstr.	19	13,7149009	51,0906452	1	20170201	100013217	http://maps.google.com/maps/api/staticmap?center=51.0906452,13.7149009&zoom=16&size=100x100&maptype=satellite&sensor=false&language=&markers:none|label:none|51.0906452,13.7149009	66
1461200000015520	1129	Dresden	Trachau	Schedlichstr.	5	13,7153247	51,0990071	1	20170201	100013658	http://maps.google.com/maps/api/staticmap?center=51.0990071,13.7153247&zoom=16&size=100x100&maptype=satellite&sensor=false&language=&markers:none|label:none|51.0990071,13.7153247	46
1461200000015750	1129	Dresden	Trachau	Stephanstr.	89	13,7163844	51,0965416	1	20170201	100013879	http://maps.google.com/maps/api/staticmap?center=51.0965416,13.7163844&zoom=16&size=100x100&maptype=satellite&sensor=false&language=&markers:none|label:none|51.0965416,13.7163844	100
1461200000015820	1129	Dresden	Pieschen-Nord/Trachenberge	Trachenberger Str.	70	13,7315577	51,0901894	1	20170201	100013944	http://maps.google.com/maps/api/staticmap?center=51.0901894,13.7315577&zoom=16&size=100x100&maptype=satellite&sensor=false&language=&markers:none|label:none|51.0901894,13.7315577	32
1461200000015840	1129	Dresden	Trachau	Trentzschweg	6	13,7088909	51,0927902	1	20170201	100013963	http://maps.google.com/maps/api/staticmap?center=51.0927902,13.7088909&zoom=16&size=100x100&maptype=satellite&sensor=false&language=&markers:none|label:none|51.0927902,13.7088909	27
1461200000016030	1129	Dresden	Pieschen-Nord/Trachenberge	Weixdorfer Str.	2	13,7187619	51,0878923	1	20170201	100014147	http://maps.google.com/maps/api/staticmap?center=51.0878923,13.7187619&zoom=16&size=100x100&maptype=satellite&sensor=false&language=&markers:none|label:none|51.0878923,13.7187619	65
1461200000016180	1139	Dresden	Kaditz	Altkaditz	17	13,6720771	51,0825724	1	20170201	100014281	http://maps.google.com/maps/api/staticmap?center=51.0825724,13.6720771&zoom=16&size=100x100&maptype=satellite&sensor=false&language=&markers:none|label:none|51.0825724,13.6720771	100
1461200000016210	1139	Dresden	Mickten	Altmickten	11	13,7004029	51,0739188	1	20170201	100014303	http://maps.google.com/maps/api/staticmap?center=51.0739188,13.7004029&zoom=16&size=100x100&maptype=satellite&sensor=false&language=&markers:none|label:none|51.0739188,13.7004029	24
1461200000016270	1139	Dresden	Kaditz	Am Kaditzer Tännicht	1	13,6823101	51,0876751	1	20170201	100014354	http://maps.google.com/maps/api/staticmap?center=51.0876751,13.6823101&zoom=16&size=100x100&maptype=satellite&sensor=false&language=&markers:none|label:none|51.0876751,13.6823101	11
1461200000016520	1139	Dresden	Kaditz	Dungerstr.	4	13,6947619	51,0897496	1	20170201	100014600	http://maps.google.com/maps/api/staticmap?center=51.0897496,13.6947619&zoom=16&size=100x100&maptype=satellite&sensor=false&language=&markers:none|label:none|51.0897496,13.6947619	26
1461200000016730	1139	Dresden	Kaditz	Gleinaer Str.	78	13,6794699	51,0917303	1	20170201	100014798	http://maps.google.com/maps/api/staticmap?center=51.0917303,13.6794699&zoom=16&size=100x100&maptype=satellite&sensor=false&language=&markers:none|label:none|51.0917303,13.6794699	7
1461200000016910	1139	Dresden	Mickten	Kötzschenbroder Str.	10	13,7145441	51,0775698	2	20170201	100014968	http://maps.google.com/maps/api/staticmap?center=51.0775698,13.7145441&zoom=16&size=100x100&maptype=satellite&sensor=false&language=&markers:none|label:none|51.0775698,13.7145441	62
1461200000017110	1139	Dresden	Mickten	Leipziger Str.	153	13,7096683	51,084068	4	20170201	100015156	http://maps.google.com/maps/api/staticmap?center=51.084068,13.7096683&zoom=16&size=100x100&maptype=satellite&sensor=false&language=&markers:none|label:none|51.084068,13.7096683	70
1461200000017200	1139	Dresden	Mickten	Leipziger Str.	270	13,7096683	51,084068	4	20170201	100015244	http://maps.google.com/maps/api/staticmap?center=51.084068,13.7096683&zoom=16&size=100x100&maptype=satellite&sensor=false&language=&markers:none|label:none|51.084068,13.7096683	80
1461200000017220	1139	Dresden	Kaditz	Leuckartstr.	5	13,7004248	51,0864287	1	20170201	100015264	http://maps.google.com/maps/api/staticmap?center=51.0864287,13.7004248&zoom=16&size=100x100&maptype=satellite&sensor=false&language=&markers:none|label:none|51.0864287,13.7004248	71
1461200000017280	1139	Dresden	Mickten	Lommatzscher Str.	50	13,7014078	51,081581	4	20170201	100015326	http://maps.google.com/maps/api/staticmap?center=51.081581,13.7014078&zoom=16&size=100x100&maptype=satellite&sensor=false&language=&markers:none|label:none|51.081581,13.7014078	23
1461200000017310	1139	Dresden	Mickten	Lommatzscher Str.	72	13,6999936	51,0822159	2	20170201	100015357	http://maps.google.com/maps/api/staticmap?center=51.0822159,13.6999936&zoom=16&size=100x100&maptype=satellite&sensor=false&language=&markers:none|label:none|51.0822159,13.6999936	5
1461200000017330	1139	Dresden	Mickten	Lommatzscher Str.	93	13,7014078	51,081581	4	20170201	100015373	http://maps.google.com/maps/api/staticmap?center=51.081581,13.7014078&zoom=16&size=100x100&maptype=satellite&sensor=false&language=&markers:none|label:none|51.081581,13.7014078	83
1461200000017430	1139	Dresden	Mickten	Overbeckstr.	43	13,6866746	51,0737054	1	20170201	100015461	http://maps.google.com/maps/api/staticmap?center=51.0737054,13.6866746&zoom=16&size=100x100&maptype=satellite&sensor=false&language=&markers:none|label:none|51.0737054,13.6866746	7
1461200000017550	1139	Dresden	Mickten	Rethelstr.	26	13,6989632	51,0714478	2	20170201	100015573	http://maps.google.com/maps/api/staticmap?center=51.0714478,13.6989632&zoom=16&size=100x100&maptype=satellite&sensor=false&language=&markers:none|label:none|51.0714478,13.6989632	78
1461200000017600	1139	Dresden	Mickten	Rietzstr.	32	13,7120167	51,0830262	1	20170201	100015620	http://maps.google.com/maps/api/staticmap?center=51.0830262,13.7120167&zoom=16&size=100x100&maptype=satellite&sensor=false&language=&markers:none|label:none|51.0830262,13.7120167	43
1461200000017810	1139	Dresden	Kaditz	Serkowitzer Str.	118	13,6637262	51,0914456	1	20170201	100015810	http://maps.google.com/maps/api/staticmap?center=51.0914456,13.6637262&zoom=16&size=100x100&maptype=satellite&sensor=false&language=&markers:none|label:none|51.0914456,13.6637262	10
1461200000017940	1139	Dresden	Mickten	Tichatscheckstr.	36	13,7136224	51,0837959	1	20170201	100015926	http://maps.google.com/maps/api/staticmap?center=51.0837959,13.7136224&zoom=16&size=100x100&maptype=satellite&sensor=false&language=&markers:none|label:none|51.0837959,13.7136224	62
1461200000017980	1139	Dresden	Mickten	Veteranenstr.	2	13,7044813	51,0870459	1	20170201	100015962	http://maps.google.com/maps/api/staticmap?center=51.0870459,13.7044813&zoom=16&size=100x100&maptype=satellite&sensor=false&language=&markers:none|label:none|51.0870459,13.7044813	42
1461200000017990	1139	Dresden	Mickten	Wöhlerstr.	18	13,7063913	51,0834426	1	20170201	100015972	http://maps.google.com/maps/api/staticmap?center=51.0834426,13.7063913&zoom=16&size=100x100&maptype=satellite&sensor=false&language=&markers:none|label:none|51.0834426,13.7063913	0
1461200000018080	1139	Dresden	Mickten	Winterstr.	9	13,7104811	51,0799244	1	20170201	100016053	http://maps.google.com/maps/api/staticmap?center=51.0799244,13.7104811&zoom=16&size=100x100&maptype=satellite&sensor=false&language=&markers:none|label:none|51.0799244,13.7104811	46
1461200000018220	1139	Dresden	Mickten	An der Flutrinne	29A	13,6952622	51,0771625	1	20170201	100016179	http://maps.google.com/maps/api/staticmap?center=51.0771625,13.6952622&zoom=16&size=100x100&maptype=satellite&sensor=false&language=&markers:none|label:none|51.0771625,13.6952622	88
1461200000018410	1156	Dresden	Oberwartha	Zur Schäferei	11	13,6012473	51,0767796	1	20170201	100016326	http://maps.google.com/maps/api/staticmap?center=51.0767796,13.6012473&zoom=16&size=100x100&maptype=satellite&sensor=false&language=&markers:none|label:none|51.0767796,13.6012473	18
1461200000018460	1156	Dresden	Pennrich	Bäckerweg	5	13,6305456	51,0429068	1	20170201	100016370	http://maps.google.com/maps/api/staticmap?center=51.0429068,13.6305456&zoom=16&size=100x100&maptype=satellite&sensor=false&language=&markers:none|label:none|51.0429068,13.6305456	34
1461200000018670	1156	Dresden	Gompitz	Kesselsdorfer Str.	318	13,6414808	51,0395678	1	20170201	100016561	http://maps.google.com/maps/api/staticmap?center=51.0395678,13.6414808&zoom=16&size=100x100&maptype=satellite&sensor=false&language=&markers:none|label:none|51.0395678,13.6414808	50
1461200000019230	1156	Dresden	Mobschatz	Am Tummelsgrund	6	13,6446531	51,0776748	1	20170201	100016941	http://maps.google.com/maps/api/staticmap?center=51.0776748,13.6446531&zoom=16&size=100x100&maptype=satellite&sensor=false&language=&markers:none|label:none|51.0776748,13.6446531	29
1461200000019450	1156	Dresden	Ockerwitz	Zschonerblick	36	13,6458142	51,0571029	1	20170201	100017130	http://maps.google.com/maps/api/staticmap?center=51.0571029,13.6458142&zoom=16&size=100x100&maptype=satellite&sensor=false&language=&markers:none|label:none|51.0571029,13.6458142	97
1461200000019530	1156	Dresden	Pennrich	Podemuser Str.	40	13,6230294	51,0434377	1	20170201	100017197	http://maps.google.com/maps/api/staticmap?center=51.0434377,13.6230294&zoom=16&size=100x100&maptype=satellite&sensor=false&language=&markers:none|label:none|51.0434377,13.6230294	47
1461200000019820	1156	Dresden	Gompitz	Ockerwitzer Allee	129	13,6428974	51,0432946	1	20170201	100017447	http://maps.google.com/maps/api/staticmap?center=51.0432946,13.6428974&zoom=16&size=100x100&maptype=satellite&sensor=false&language=&markers:none|label:none|51.0432946,13.6428974	29
1461200000020060	1156	Dresden	Mobschatz	Altmobschatz	3	13,6438976	51,075944	1	20170201	100017623	http://maps.google.com/maps/api/staticmap?center=51.075944,13.6438976&zoom=16&size=100x100&maptype=satellite&sensor=false&language=&markers:none|label:none|51.075944,13.6438976	29
1461200000021520	1157	Dresden	Briesnitz	Alte Meißner Landstr.	43	13,6744696	51,0647799	1	20170201	100017790	http://maps.google.com/maps/api/staticmap?center=51.0647799,13.6744696&zoom=16&size=100x100&maptype=satellite&sensor=false&language=&markers:none|label:none|51.0647799,13.6744696	1
1461200000021530	1157	Dresden	Briesnitz	Alte Meißner Landstr.	51E	13,6730824	51,0654279	1	20170201	100017799	http://maps.google.com/maps/api/staticmap?center=51.0654279,13.6730824&zoom=16&size=100x100&maptype=satellite&sensor=false&language=&markers:none|label:none|51.0654279,13.6730824	37
1461200000021560	1157	Dresden	Briesnitz	Altleutewitz	2	13,6686858	51,0592213	1	20170201	100017825	http://maps.google.com/maps/api/staticmap?center=51.0592213,13.6686858&zoom=16&size=100x100&maptype=satellite&sensor=false&language=&markers:none|label:none|51.0592213,13.6686858	35
1461200000021560	1157	Dresden	Briesnitz	Altleutewitz	7	13,6693643	51,058646	1	20170201	100017828	http://maps.google.com/maps/api/staticmap?center=51.058646,13.6693643&zoom=16&size=100x100&maptype=satellite&sensor=false&language=&markers:none|label:none|51.058646,13.6693643	44
1461200000021610	1157	Dresden	Briesnitz	Am Hang	24	13,6524094	51,0789941	1	20170201	100017874	http://maps.google.com/maps/api/staticmap?center=51.0789941,13.6524094&zoom=16&size=100x100&maptype=satellite&sensor=false&language=&markers:none|label:none|51.0789941,13.6524094	53
1461200000021640	1157	Dresden	Briesnitz	Am Kirchberg	20	13,6694517	51,0705745	1	20170201	100017895	http://maps.google.com/maps/api/staticmap?center=51.0705745,13.6694517&zoom=16&size=100x100&maptype=satellite&sensor=false&language=&markers:none|label:none|51.0705745,13.6694517	69
1461200000021760	1157	Dresden	Briesnitz	Am Urnenfeld	35	13,6504035	51,0806331	2	20170201	100017998	http://maps.google.com/maps/api/staticmap?center=51.0806331,13.6504035&zoom=16&size=100x100&maptype=satellite&sensor=false&language=&markers:none|label:none|51.0806331,13.6504035	28
1461200000021790	1157	Dresden	Briesnitz	Auf dem Eigen	23	13,6685496	51,0666863	1	20170201	100018034	http://maps.google.com/maps/api/staticmap?center=51.0666863,13.6685496&zoom=16&size=100x100&maptype=satellite&sensor=false&language=&markers:none|label:none|51.0666863,13.6685496	51
1461200000021860	1157	Dresden	Cotta	Birkenhainer Str.	2	13,6906147	51,052944	1	20170201	100018101	http://maps.google.com/maps/api/staticmap?center=51.052944,13.6906147&zoom=16&size=100x100&maptype=satellite&sensor=false&language=&markers:none|label:none|51.052944,13.6906147	26
1461200000021880	1157	Dresden	Briesnitz	Borngraben	14	13,668308	51,0651856	1	20170201	100018112	http://maps.google.com/maps/api/staticmap?center=51.0651856,13.668308&zoom=16&size=100x100&maptype=satellite&sensor=false&language=&markers:none|label:none|51.0651856,13.668308	37
1461200000021900	1157	Dresden	Briesnitz	Borngraben	36	13,6712887	51,0657809	1	20170201	100018136	http://maps.google.com/maps/api/staticmap?center=51.0657809,13.6712887&zoom=16&size=100x100&maptype=satellite&sensor=false&language=&markers:none|label:none|51.0657809,13.6712887	8
1461200000021940	1157	Dresden	Briesnitz	Brentanostr.	10	13,660375	51,059672	1	20170201	100018176	http://maps.google.com/maps/api/staticmap?center=51.059672,13.660375&zoom=16&size=100x100&maptype=satellite&sensor=false&language=&markers:none|label:none|51.059672,13.660375	82
1461200000022060	1157	Dresden	Briesnitz	Droste-Hülshoff-Str.	4	13,6669892	51,059654	1	20170201	100018286	http://maps.google.com/maps/api/staticmap?center=51.059654,13.6669892&zoom=16&size=100x100&maptype=satellite&sensor=false&language=&markers:none|label:none|51.059654,13.6669892	74
1461200000022110	1157	Dresden	Briesnitz	Felix-Dahn-Weg	7	13,6743503	51,0624547	1	20170201	100018337	http://maps.google.com/maps/api/staticmap?center=51.0624547,13.6743503&zoom=16&size=100x100&maptype=satellite&sensor=false&language=&markers:none|label:none|51.0624547,13.6743503	37
1461200000022520	1157	Dresden	Cotta	Grillparzerplatz	6	13,6824296	51,0555425	1	20170201	100018699	http://maps.google.com/maps/api/staticmap?center=51.0555425,13.6824296&zoom=16&size=100x100&maptype=satellite&sensor=false&language=&markers:none|label:none|51.0555425,13.6824296	11
1461200000022920	1157	Dresden	Cotta	Klopstockstr.	43	13,6904752	51,0495262	1	20170201	100019059	http://maps.google.com/maps/api/staticmap?center=51.0495262,13.6904752&zoom=16&size=100x100&maptype=satellite&sensor=false&language=&markers:none|label:none|51.0495262,13.6904752	59
1461200000023080	1157	Dresden	Briesnitz	Martin-Opitz-Str.	8	13,6612512	51,0600122	1	20170201	100019217	http://maps.google.com/maps/api/staticmap?center=51.0600122,13.6612512&zoom=16&size=100x100&maptype=satellite&sensor=false&language=&markers:none|label:none|51.0600122,13.6612512	23
1461200000023300	1157	Dresden	Briesnitz	Meßweg	5	13,6700078	51,0613185	1	20170201	100019428	http://maps.google.com/maps/api/staticmap?center=51.0613185,13.6700078&zoom=16&size=100x100&maptype=satellite&sensor=false&language=&markers:none|label:none|51.0613185,13.6700078	90
1461200000023310	1157	Dresden	Briesnitz	Miltitzer Str.	8A	13,6553928	51,0823554	1	20170201	100019440	http://maps.google.com/maps/api/staticmap?center=51.0823554,13.6553928&zoom=16&size=100x100&maptype=satellite&sensor=false&language=&markers:none|label:none|51.0823554,13.6553928	73
1461200000023380	1157	Dresden	Cotta	Ockerwitzer Str.	1	13,6840722	51,058682	1	20170201	100019482	http://maps.google.com/maps/api/staticmap?center=51.058682,13.6840722&zoom=16&size=100x100&maptype=satellite&sensor=false&language=&markers:none|label:none|51.058682,13.6840722	28
1461200000023530	1157	Dresden	Cotta	Pennricher Str.	26	13,6922308	51,0490159	2	20170201	100019611	http://maps.google.com/maps/api/staticmap?center=51.0490159,13.6922308&zoom=16&size=100x100&maptype=satellite&sensor=false&language=&markers:none|label:none|51.0490159,13.6922308	30
1461200000023680	1157	Dresden	Cotta	Rudolf-Renner-Str.	18	13,6916589	51,0509284	4	20170201	100019744	http://maps.google.com/maps/api/staticmap?center=51.0509284,13.6916589&zoom=16&size=100x100&maptype=satellite&sensor=false&language=&markers:none|label:none|51.0509284,13.6916589	1
1461200000023690	1157	Dresden	Löbtau-Nord	Rudolf-Renner-Str.	23	13,6923268	51,0486005	1	20170201	100019749	http://maps.google.com/maps/api/staticmap?center=51.0486005,13.6923268&zoom=16&size=100x100&maptype=satellite&sensor=false&language=&markers:none|label:none|51.0486005,13.6923268	44
1461200000023850	1157	Dresden	Briesnitz	Seegärten	85	13,6502954	51,0801382	1	20170201	100019908	http://maps.google.com/maps/api/staticmap?center=51.0801382,13.6502954&zoom=16&size=100x100&maptype=satellite&sensor=false&language=&markers:none|label:none|51.0801382,13.6502954	8
1461200000023880	1157	Dresden	Briesnitz	Sonnenlehne	2	13,6648979	51,0650669	1	20170201	100019935	http://maps.google.com/maps/api/staticmap?center=51.0650669,13.6648979&zoom=16&size=100x100&maptype=satellite&sensor=false&language=&markers:none|label:none|51.0650669,13.6648979	97
1461200000024020	1157	Dresden	Briesnitz	Warthaer Str.	106	13,6604511	51,0588136	1	20170201	100020077	http://maps.google.com/maps/api/staticmap?center=51.0588136,13.6604511&zoom=16&size=100x100&maptype=satellite&sensor=false&language=&markers:none|label:none|51.0588136,13.6604511	0
1461200000024070	1157	Dresden	Briesnitz	Warthaer Str.	42	13,6723495	51,0600232	1	20170201	100020122	http://maps.google.com/maps/api/staticmap?center=51.0600232,13.6723495&zoom=16&size=100x100&maptype=satellite&sensor=false&language=&markers:none|label:none|51.0600232,13.6723495	16
1461200000024140	1157	Dresden	Briesnitz	Warthaer Str.	98	13,6615835	51,0589867	1	20170201	100020181	http://maps.google.com/maps/api/staticmap?center=51.0589867,13.6615835&zoom=16&size=100x100&maptype=satellite&sensor=false&language=&markers:none|label:none|51.0589867,13.6615835	14
1461200000024200	1157	Dresden	Cotta	Weidentalstr.	72	13,6756018	51,0509635	1	20170201	100020247	http://maps.google.com/maps/api/staticmap?center=51.0509635,13.6756018&zoom=16&size=100x100&maptype=satellite&sensor=false&language=&markers:none|label:none|51.0509635,13.6756018	53
1461200000024230	1157	Dresden	Briesnitz	Weistropper Str.	8	13,676023	51,0612999	1	20170201	100020269	http://maps.google.com/maps/api/staticmap?center=51.0612999,13.676023&zoom=16&size=100x100&maptype=satellite&sensor=false&language=&markers:none|label:none|51.0612999,13.676023	88
1461200000024270	1157	Dresden	Briesnitz	Weststr.	22	13,6642966	51,058624	1	20170201	100020307	http://maps.google.com/maps/api/staticmap?center=51.058624,13.6642966&zoom=16&size=100x100&maptype=satellite&sensor=false&language=&markers:none|label:none|51.058624,13.6642966	21
1461200000024310	1157	Dresden	Briesnitz	Wilhelm-Müller-Str.	12	13,6691877	51,0614185	1	20170201	100020340	http://maps.google.com/maps/api/staticmap?center=51.0614185,13.6691877&zoom=16&size=100x100&maptype=satellite&sensor=false&language=&markers:none|label:none|51.0614185,13.6691877	27
1461200000024340	1157	Dresden	Briesnitz	Wilhelm-Raabe-Str.	15	13,6726514	51,0624594	1	20170201	100020366	http://maps.google.com/maps/api/staticmap?center=51.0624594,13.6726514&zoom=16&size=100x100&maptype=satellite&sensor=false&language=&markers:none|label:none|51.0624594,13.6726514	53
1461200000024460	1157	Dresden	Cotta	Zöllmener Str.	28	13,680791	51,0503957	1	20170201	100020464	http://maps.google.com/maps/api/staticmap?center=51.0503957,13.680791&zoom=16&size=100x100&maptype=satellite&sensor=false&language=&markers:none|label:none|51.0503957,13.680791	53
1461200000024560	1157	Dresden	Briesnitz	Zschonergrundstr.	40	13,662859	51,0686851	1	20170201	100020561	http://maps.google.com/maps/api/staticmap?center=51.0686851,13.662859&zoom=16&size=100x100&maptype=satellite&sensor=false&language=&markers:none|label:none|51.0686851,13.662859	5
1461200000024800	1159	Dresden	Naußlitz	Alfred-Thiele-Str.	18	13,6868527	51,0333819	1	20170201	100020692	http://maps.google.com/maps/api/staticmap?center=51.0333819,13.6868527&zoom=16&size=100x100&maptype=satellite&sensor=false&language=&markers:none|label:none|51.0333819,13.6868527	0
1461200000024820	1159	Dresden	Naußlitz	Alfred-Thiele-Str.	35	13,6878104	51,0316561	1	20170201	100020712	http://maps.google.com/maps/api/staticmap?center=51.0316561,13.6878104&zoom=16&size=100x100&maptype=satellite&sensor=false&language=&markers:none|label:none|51.0316561,13.6878104	3
1461200000024940	1159	Dresden	Friedrichstadt	Altonaer Str.	19	13,7071311	51,0494049	2	20170201	100020816	http://maps.google.com/maps/api/staticmap?center=51.0494049,13.7071311&zoom=16&size=100x100&maptype=satellite&sensor=false&language=&markers:none|label:none|51.0494049,13.7071311	66
1461200000024950	1159	Dresden	Friedrichstadt	Altonaer Str.	24	13,7078373	51,0496287	1	20170201	100020820	http://maps.google.com/maps/api/staticmap?center=51.0496287,13.7078373&zoom=16&size=100x100&maptype=satellite&sensor=false&language=&markers:none|label:none|51.0496287,13.7078373	61
1461200000025000	1159	Dresden	Naußlitz	Am Tälchen	15	13,6944299	51,0317882	1	20170201	100020846	http://maps.google.com/maps/api/staticmap?center=51.0317882,13.6944299&zoom=16&size=100x100&maptype=satellite&sensor=false&language=&markers:none|label:none|51.0317882,13.6944299	36
1461200000025260	1159	Dresden	Naußlitz	Burgwartstr.	39	13,6863133	51,0308177	1	20170201	100021103	http://maps.google.com/maps/api/staticmap?center=51.0308177,13.6863133&zoom=16&size=100x100&maptype=satellite&sensor=false&language=&markers:none|label:none|51.0308177,13.6863133	17
1461200000025290	1159	Dresden	Löbtau-Süd	Bünaustr.	22	13,6988421	51,041087	1	20170201	100021128	http://maps.google.com/maps/api/staticmap?center=51.041087,13.6988421&zoom=16&size=100x100&maptype=satellite&sensor=false&language=&markers:none|label:none|51.041087,13.6988421	33
1461200000025600	1159	Dresden	Löbtau-Nord	Deubener Str.	26	13,6927045	51,0400045	1	20170201	100021408	http://maps.google.com/maps/api/staticmap?center=51.0400045,13.6927045&zoom=16&size=100x100&maptype=satellite&sensor=false&language=&markers:none|label:none|51.0400045,13.6927045	39
1461200000025700	1159	Dresden	Naußlitz	Düsseldorfer Str.	62	13,6812561	51,0359838	1	20170201	100021502	http://maps.google.com/maps/api/staticmap?center=51.0359838,13.6812561&zoom=16&size=100x100&maptype=satellite&sensor=false&language=&markers:none|label:none|51.0359838,13.6812561	20
1461200000025710	1159	Dresden	Löbtau-Nord	Ebertplatz	3	13,7062755	51,0433643	1	20170201	100021514	http://maps.google.com/maps/api/staticmap?center=51.0433643,13.7062755&zoom=16&size=100x100&maptype=satellite&sensor=false&language=&markers:none|label:none|51.0433643,13.7062755	95
1461200000025850	1159	Dresden	Löbtau-Süd	Frankenbergstr.	26	13,6999508	51,0365051	1	20170201	100021648	http://maps.google.com/maps/api/staticmap?center=51.0365051,13.6999508&zoom=16&size=100x100&maptype=satellite&sensor=false&language=&markers:none|label:none|51.0365051,13.6999508	31
1461200000025950	1159	Dresden	Friedrichstadt	Gambrinusstr.	6	13,7096031	51,0504706	2	20170201	100021740	http://maps.google.com/maps/api/staticmap?center=51.0504706,13.7096031&zoom=16&size=100x100&maptype=satellite&sensor=false&language=&markers:none|label:none|51.0504706,13.7096031	20
1461200000026050	1159	Dresden	Löbtau-Süd	Hainsberger Str.	18	13,7031434	51,0356404	1	20170201	100021830	http://maps.google.com/maps/api/staticmap?center=51.0356404,13.7031434&zoom=16&size=100x100&maptype=satellite&sensor=false&language=&markers:none|label:none|51.0356404,13.7031434	11
1461200000026150	1159	Dresden	Naußlitz	Kasseler Str.	5	13,691495	51,0330538	1	20170201	100021925	http://maps.google.com/maps/api/staticmap?center=51.0330538,13.691495&zoom=16&size=100x100&maptype=satellite&sensor=false&language=&markers:none|label:none|51.0330538,13.691495	85
1461200000026190	1159	Dresden	Naußlitz	Kesselsdorfer Str.	43	13,6909903	51,0425893	2	20170201	100021958	http://maps.google.com/maps/api/staticmap?center=51.0425893,13.6909903&zoom=16&size=100x100&maptype=satellite&sensor=false&language=&markers:none|label:none|51.0425893,13.6909903	50
1461200000026490	1159	Dresden	Löbtau-Nord	Oederaner Str.	5	13,7101742	51,0446089	1	20170201	100022222	http://maps.google.com/maps/api/staticmap?center=51.0446089,13.7101742&zoom=16&size=100x100&maptype=satellite&sensor=false&language=&markers:none|label:none|51.0446089,13.7101742	87
1461200000026520	1159	Dresden	Naußlitz	Oskar-Mai-Str.	30	13,6809649	51,0377128	1	20170201	100022246	http://maps.google.com/maps/api/staticmap?center=51.0377128,13.6809649&zoom=16&size=100x100&maptype=satellite&sensor=false&language=&markers:none|label:none|51.0377128,13.6809649	96
1461200000026550	1159	Dresden	Naußlitz	Pietzschstr.	15	13,6821276	51,038379	2	20170201	100022277	http://maps.google.com/maps/api/staticmap?center=51.038379,13.6821276&zoom=16&size=100x100&maptype=satellite&sensor=false&language=&markers:none|label:none|51.038379,13.6821276	56
1461200000026580	1159	Dresden	Löbtau-Süd	Poststr.	13	13,7001808	51,0422164	1	20170201	100022303	http://maps.google.com/maps/api/staticmap?center=51.0422164,13.7001808&zoom=16&size=100x100&maptype=satellite&sensor=false&language=&markers:none|label:none|51.0422164,13.7001808	62
1461200000026640	1159	Dresden	Löbtau-Süd	Rabenauer Str.	8	13,6901796	51,0407566	2	20170201	100022359	http://maps.google.com/maps/api/staticmap?center=51.0407566,13.6901796&zoom=16&size=100x100&maptype=satellite&sensor=false&language=&markers:none|label:none|51.0407566,13.6901796	34
1461200000026650	1159	Dresden	Löbtau-Süd	Reisewitzer Str.	23	13,7011311	51,0425222	2	20170201	100022369	http://maps.google.com/maps/api/staticmap?center=51.0425222,13.7011311&zoom=16&size=100x100&maptype=satellite&sensor=false&language=&markers:none|label:none|51.0425222,13.7011311	28
1461200000026650	1159	Dresden	Löbtau-Süd	Reisewitzer Str.	27	13,7011652	51,0422524	2	20170201	100022371	http://maps.google.com/maps/api/staticmap?center=51.0422524,13.7011652&zoom=16&size=100x100&maptype=satellite&sensor=false&language=&markers:none|label:none|51.0422524,13.7011652	67
1461200000026660	1159	Dresden	Löbtau-Süd	Reisewitzer Str.	30	13,7012064	51,0419364	2	20170201	100022376	http://maps.google.com/maps/api/staticmap?center=51.0419364,13.7012064&zoom=16&size=100x100&maptype=satellite&sensor=false&language=&markers:none|label:none|51.0419364,13.7012064	0
1461200000026680	1159	Dresden	Löbtau-Süd	Reisewitzer Str.	57	13,70184	51,0374538	2	20170201	100022401	http://maps.google.com/maps/api/staticmap?center=51.0374538,13.70184&zoom=16&size=100x100&maptype=satellite&sensor=false&language=&markers:none|label:none|51.0374538,13.70184	17
1461200000026710	1159	Dresden	Naußlitz	Rhönweg	14	13,6872995	51,0382476	1	20170201	100022423	http://maps.google.com/maps/api/staticmap?center=51.0382476,13.6872995&zoom=16&size=100x100&maptype=satellite&sensor=false&language=&markers:none|label:none|51.0382476,13.6872995	21
1461200000026800	1159	Dresden	Naußlitz	Saalhausener Str.	25	13,6876578	51,0400722	4	20170201	100022518	http://maps.google.com/maps/api/staticmap?center=51.0400722,13.6876578&zoom=16&size=100x100&maptype=satellite&sensor=false&language=&markers:none|label:none|51.0400722,13.6876578	7
1461200000027440	1169	Dresden	Gorbitz-Süd	Ebereschenstr.	25	13,6622386	51,0422626	1	20170201	100023083	http://maps.google.com/maps/api/staticmap?center=51.0422626,13.6622386&zoom=16&size=100x100&maptype=satellite&sensor=false&language=&markers:none|label:none|51.0422626,13.6622386	65
1461200000027460	1169	Dresden	Gorbitz-Süd	Ebereschenstr.	37	13,6615269	51,0431912	1	20170201	100023096	http://maps.google.com/maps/api/staticmap?center=51.0431912,13.6615269&zoom=16&size=100x100&maptype=satellite&sensor=false&language=&markers:none|label:none|51.0431912,13.6615269	29
1461200000027520	1169	Dresden	Naußlitz	Georginenweg	4	13,6503707	51,0384575	1	20170201	100023153	http://maps.google.com/maps/api/staticmap?center=51.0384575,13.6503707&zoom=16&size=100x100&maptype=satellite&sensor=false&language=&markers:none|label:none|51.0384575,13.6503707	25
1461200000027860	1169	Dresden	Naußlitz	Kesselsdorfer Str.	139	13,6722012	51,0401837	2	20170201	100023487	http://maps.google.com/maps/api/staticmap?center=51.0401837,13.6722012&zoom=16&size=100x100&maptype=satellite&sensor=false&language=&markers:none|label:none|51.0401837,13.6722012	43
1461200000028060	1169	Dresden	Gorbitz-Süd	Limbacher Weg	7	13,6728943	51,042154	1	20170201	100023674	http://maps.google.com/maps/api/staticmap?center=51.042154,13.6728943&zoom=16&size=100x100&maptype=satellite&sensor=false&language=&markers:none|label:none|51.042154,13.6728943	66
1461200000028120	1169	Dresden	Gorbitz-Süd	Nelkenweg	17	13,6603985	51,0448936	1	20170201	100023745	http://maps.google.com/maps/api/staticmap?center=51.0448936,13.6603985&zoom=16&size=100x100&maptype=satellite&sensor=false&language=&markers:none|label:none|51.0448936,13.6603985	71
1461200000028200	1169	Dresden	Naußlitz	Neunimptscher Str.	19	13,6742944	51,0351794	1	20170201	100023817	http://maps.google.com/maps/api/staticmap?center=51.0351794,13.6742944&zoom=16&size=100x100&maptype=satellite&sensor=false&language=&markers:none|label:none|51.0351794,13.6742944	52
1461200000028300	1169	Dresden	Gorbitz-Süd	Robinienstr.	21	13,6669065	51,0424233	1	20170201	100023911	http://maps.google.com/maps/api/staticmap?center=51.0424233,13.6669065&zoom=16&size=100x100&maptype=satellite&sensor=false&language=&markers:none|label:none|51.0424233,13.6669065	36
1461200000028470	1169	Dresden	Gorbitz-Süd	Tanneberger Weg	23	13,6750915	51,0436827	1	20170201	100024083	http://maps.google.com/maps/api/staticmap?center=51.0436827,13.6750915&zoom=16&size=100x100&maptype=satellite&sensor=false&language=&markers:none|label:none|51.0436827,13.6750915	91
1461200000028920	1187	Dresden	Naußlitz	Am Kirschberg	39A	13,6915801	51,0278771	1	20170201	100024483	http://maps.google.com/maps/api/staticmap?center=51.0278771,13.6915801&zoom=16&size=100x100&maptype=satellite&sensor=false&language=&markers:none|label:none|51.0278771,13.6915801	12
1461200000029190	1187	Dresden	Plauen	Bienertstr.	25	13,7090617	51,0303807	4	20170201	100024742	http://maps.google.com/maps/api/staticmap?center=51.0303807,13.7090617&zoom=16&size=100x100&maptype=satellite&sensor=false&language=&markers:none|label:none|51.0303807,13.7090617	1
1461200000029220	1187	Dresden	Plauen	Bienertstr.	49	13,714012	51,0281469	4	20170201	100024768	http://maps.google.com/maps/api/staticmap?center=51.0281469,13.714012&zoom=16&size=100x100&maptype=satellite&sensor=false&language=&markers:none|label:none|51.0281469,13.714012	35
1461200000029250	1187	Dresden	Südvorstadt-West	Chemnitzer Str.	71	13,7132661	51,0344997	2	20170201	100024799	http://maps.google.com/maps/api/staticmap?center=51.0344997,13.7132661&zoom=16&size=100x100&maptype=satellite&sensor=false&language=&markers:none|label:none|51.0344997,13.7132661	59
1461200000029410	1187	Dresden	Naußlitz	Grenzallee	33	13,6935442	51,0310722	1	20170201	100024936	http://maps.google.com/maps/api/staticmap?center=51.0310722,13.6935442&zoom=16&size=100x100&maptype=satellite&sensor=false&language=&markers:none|label:none|51.0310722,13.6935442	52
1461200000029490	1187	Dresden	Plauen	Hofmühlenstr.	51-53	13,703818	51,031555	0	20170201	100025012	http://maps.google.com/maps/api/staticmap?center=51.031555,13.703818&zoom=16&size=100x100&maptype=satellite&sensor=false&language=&markers:none|label:none|51.031555,13.703818	72
1461200000029600	1187	Dresden	Naußlitz	Hohendölzschener Str.	11	13,6958776	51,0277629	1	20170201	100025113	http://maps.google.com/maps/api/staticmap?center=51.0277629,13.6958776&zoom=16&size=100x100&maptype=satellite&sensor=false&language=&markers:none|label:none|51.0277629,13.6958776	65
1461200000029640	1187	Dresden	Naußlitz	Hohendölzschener Str.	43	13,6900331	51,0256746	1	20170201	100025149	http://maps.google.com/maps/api/staticmap?center=51.0256746,13.6900331&zoom=16&size=100x100&maptype=satellite&sensor=false&language=&markers:none|label:none|51.0256746,13.6900331	47
1461200000029650	1187	Dresden	Naußlitz	Hultschiner Str.	12	13,6884443	51,0288267	1	20170201	100025161	http://maps.google.com/maps/api/staticmap?center=51.0288267,13.6884443&zoom=16&size=100x100&maptype=satellite&sensor=false&language=&markers:none|label:none|51.0288267,13.6884443	19
1461200000029720	1187	Dresden	Südvorstadt-West	Kaitzer Str.	135	13,7082236	51,024243	2	20170201	100025226	http://maps.google.com/maps/api/staticmap?center=51.024243,13.7082236&zoom=16&size=100x100&maptype=satellite&sensor=false&language=&markers:none|label:none|51.024243,13.7082236	35
1461200000029780	1187	Dresden	Südvorstadt-West	Kaitzer Str.	97	13,7133768	51,0295481	4	20170201	100025280	http://maps.google.com/maps/api/staticmap?center=51.0295481,13.7133768&zoom=16&size=100x100&maptype=satellite&sensor=false&language=&markers:none|label:none|51.0295481,13.7133768	15
1461200000030000	1187	Dresden	Plauen	Münchner Str.	36	13,7189068	51,0292479	1	20170201	100025481	http://maps.google.com/maps/api/staticmap?center=51.0292479,13.7189068&zoom=16&size=100x100&maptype=satellite&sensor=false&language=&markers:none|label:none|51.0292479,13.7189068	11
1461200000030060	1187	Dresden	Plauen	Nöthnitzer Str.	4	13,708421	51,0288101	1	20170201	100025539	http://maps.google.com/maps/api/staticmap?center=51.0288101,13.708421&zoom=16&size=100x100&maptype=satellite&sensor=false&language=&markers:none|label:none|51.0288101,13.708421	22
1461200000030080	1187	Dresden	Plauen	Nöthnitzer Str.	7	13,7090764	51,0288431	1	20170201	100025552	http://maps.google.com/maps/api/staticmap?center=51.0288431,13.7090764&zoom=16&size=100x100&maptype=satellite&sensor=false&language=&markers:none|label:none|51.0288431,13.7090764	14
1461200000030160	1187	Dresden	Plauen	Plauenscher Ring	14	13,7097367	51,0266933	1	20170201	100025622	http://maps.google.com/maps/api/staticmap?center=51.0266933,13.7097367&zoom=16&size=100x100&maptype=satellite&sensor=false&language=&markers:none|label:none|51.0266933,13.7097367	58
1461200000030300	1187	Dresden	Naußlitz	Südwesthang	11	13,689525	51,028899	1	20170201	100025754	http://maps.google.com/maps/api/staticmap?center=51.028899,13.689525&zoom=16&size=100x100&maptype=satellite&sensor=false&language=&markers:none|label:none|51.028899,13.689525	88
1461200000030370	1187	Dresden	Löbtau-Süd	Tharandter Str.	77	13,7019093	51,0313285	4	20170201	100025809	http://maps.google.com/maps/api/staticmap?center=51.0313285,13.7019093&zoom=16&size=100x100&maptype=satellite&sensor=false&language=&markers:none|label:none|51.0313285,13.7019093	60
1461200000030420	1187	Dresden	Naußlitz	Wurgwitzer Str.	13	13,6816606	51,0231974	1	20170201	100025863	http://maps.google.com/maps/api/staticmap?center=51.0231974,13.6816606&zoom=16&size=100x100&maptype=satellite&sensor=false&language=&markers:none|label:none|51.0231974,13.6816606	92
1461200000030490	1187	Dresden	Löbtau-Süd	Würzburger Str.	5	13,7048202	51,0344125	1	20170201	100025918	http://maps.google.com/maps/api/staticmap?center=51.0344125,13.7048202&zoom=16&size=100x100&maptype=satellite&sensor=false&language=&markers:none|label:none|51.0344125,13.7048202	78
1461200000030550	1187	Dresden	Plauen	Zwickauer Str.	125	13,7050137	51,0304154	2	20170201	100025975	http://maps.google.com/maps/api/staticmap?center=51.0304154,13.7050137&zoom=16&size=100x100&maptype=satellite&sensor=false&language=&markers:none|label:none|51.0304154,13.7050137	68
1461200000031130	1189	Dresden	Kleinpestitz/Mockritz	Döbraer Str.	24	13,72372	51,0159094	1	20170201	100026433	http://maps.google.com/maps/api/staticmap?center=51.0159094,13.72372&zoom=16&size=100x100&maptype=satellite&sensor=false&language=&markers:none|label:none|51.0159094,13.72372	26
1461200000031180	1189	Dresden	Kleinpestitz/Mockritz	Dorfhainer Str.	26	13,7191139	51,016863	1	20170201	100026481	http://maps.google.com/maps/api/staticmap?center=51.016863,13.7191139&zoom=16&size=100x100&maptype=satellite&sensor=false&language=&markers:none|label:none|51.016863,13.7191139	78
1461200000031200	1189	Dresden	Coschütz/Gittersee	Emil-Rosenow-Str.	1	13,6942754	51,0127442	1	20170201	100026504	http://maps.google.com/maps/api/staticmap?center=51.0127442,13.6942754&zoom=16&size=100x100&maptype=satellite&sensor=false&language=&markers:none|label:none|51.0127442,13.6942754	26
1461200000031330	1189	Dresden	Coschütz/Gittersee	Grubenweg	7	13,687166	51,012481	1	20170201	100026628	http://maps.google.com/maps/api/staticmap?center=51.012481,13.687166&zoom=16&size=100x100&maptype=satellite&sensor=false&language=&markers:none|label:none|51.012481,13.687166	55
1461200000031350	1189	Dresden	Plauen	Hantzschstr.	2	13,7101894	51,0207697	1	20170201	100026647	http://maps.google.com/maps/api/staticmap?center=51.0207697,13.7101894&zoom=16&size=100x100&maptype=satellite&sensor=false&language=&markers:none|label:none|51.0207697,13.7101894	18
1461200000031540	1189	Dresden	Coschütz/Gittersee	Karlsruher Str.	27	13,7016833	51,0166493	1	20170201	100026814	http://maps.google.com/maps/api/staticmap?center=51.0166493,13.7016833&zoom=16&size=100x100&maptype=satellite&sensor=false&language=&markers:none|label:none|51.0166493,13.7016833	73
1461200000031610	1189	Dresden	Coschütz/Gittersee	Karlsruher Str.	91	13,6926164	51,0100498	1	20170201	100026881	http://maps.google.com/maps/api/staticmap?center=51.0100498,13.6926164&zoom=16&size=100x100&maptype=satellite&sensor=false&language=&markers:none|label:none|51.0100498,13.6926164	90
1461200000031610	1189	Dresden	Coschütz/Gittersee	Karlsruher Str.	96	13,692314	51,010054	2	20170201	100026886	http://maps.google.com/maps/api/staticmap?center=51.010054,13.692314&zoom=16&size=100x100&maptype=satellite&sensor=false&language=&markers:none|label:none|51.010054,13.692314	57
1461200000031720	1189	Dresden	Kleinpestitz/Mockritz	Lippersdorfer Weg	9	13,722305	51,0158196	1	20170201	100026986	http://maps.google.com/maps/api/staticmap?center=51.0158196,13.722305&zoom=16&size=100x100&maptype=satellite&sensor=false&language=&markers:none|label:none|51.0158196,13.722305	74
1461200000031780	1189	Dresden	Coschütz/Gittersee	Marienschachtweg	4	13,7042302	51,0163213	1	20170201	100027045	http://maps.google.com/maps/api/staticmap?center=51.0163213,13.7042302&zoom=16&size=100x100&maptype=satellite&sensor=false&language=&markers:none|label:none|51.0163213,13.7042302	20
1461200000032110	1189	Dresden	Coschütz/Gittersee	Ölsaer Weg	24	13,7027136	51,0154715	1	20170201	100027319	http://maps.google.com/maps/api/staticmap?center=51.0154715,13.7027136&zoom=16&size=100x100&maptype=satellite&sensor=false&language=&markers:none|label:none|51.0154715,13.7027136	83
1461200000032240	1189	Dresden	Coschütz/Gittersee	Schulstr.	6	13,6917284	51,0112385	1	20170201	100027443	http://maps.google.com/maps/api/staticmap?center=51.0112385,13.6917284&zoom=16&size=100x100&maptype=satellite&sensor=false&language=&markers:none|label:none|51.0112385,13.6917284	44
1461200000032300	1189	Dresden	Coschütz/Gittersee	Heidelberger Str.	20	13,6985785	51,0103096	1	20170201	100027494	http://maps.google.com/maps/api/staticmap?center=51.0103096,13.6985785&zoom=16&size=100x100&maptype=satellite&sensor=false&language=&markers:none|label:none|51.0103096,13.6985785	50
1461200000032310	1189	Dresden	Coschütz/Gittersee	Heilbronner Str.	17	13,7008828	51,010462	1	20170201	100027508	http://maps.google.com/maps/api/staticmap?center=51.010462,13.7008828&zoom=16&size=100x100&maptype=satellite&sensor=false&language=&markers:none|label:none|51.010462,13.7008828	49
1461200000032370	1217	Dresden	Südvorstadt-Ost	Ackermannstr.	8	13,747704	51,0314874	1	20170201	100027544	http://maps.google.com/maps/api/staticmap?center=51.0314874,13.747704&zoom=16&size=100x100&maptype=satellite&sensor=false&language=&markers:none|label:none|51.0314874,13.747704	84
1461200000032420	1217	Dresden	Kleinpestitz/Mockritz	Altmockritz	7	13,7417504	51,0148491	1	20170201	100027590	http://maps.google.com/maps/api/staticmap?center=51.0148491,13.7417504&zoom=16&size=100x100&maptype=satellite&sensor=false&language=&markers:none|label:none|51.0148491,13.7417504	68
1461200000032470	1217	Dresden	Räcknitz/Zschertnitz	Alträcknitz	12	13,7343936	51,0244654	1	20170201	100027628	http://maps.google.com/maps/api/staticmap?center=51.0244654,13.7343936&zoom=16&size=100x100&maptype=satellite&sensor=false&language=&markers:none|label:none|51.0244654,13.7343936	50
1461200000032660	1217	Dresden	Kleinpestitz/Mockritz	Boderitzer Str.	73	13,7364158	51,0132159	1	20170201	100027789	http://maps.google.com/maps/api/staticmap?center=51.0132159,13.7364158&zoom=16&size=100x100&maptype=satellite&sensor=false&language=&markers:none|label:none|51.0132159,13.7364158	96
1461200000032670	1217	Dresden	Kleinpestitz/Mockritz	Boderitzer Str.	84	13,7324195	51,0130369	2	20170201	100027801	http://maps.google.com/maps/api/staticmap?center=51.0130369,13.7324195&zoom=16&size=100x100&maptype=satellite&sensor=false&language=&markers:none|label:none|51.0130369,13.7324195	7
1461200000032700	1217	Dresden	Kleinpestitz/Mockritz	Bozener Weg	4	13,7384786	51,0135736	1	20170201	100027832	http://maps.google.com/maps/api/staticmap?center=51.0135736,13.7384786&zoom=16&size=100x100&maptype=satellite&sensor=false&language=&markers:none|label:none|51.0135736,13.7384786	86
1461200000032720	1217	Dresden	Strehlen	Buchnerstr.	16	13,7565248	51,0225132	1	20170201	100027845	http://maps.google.com/maps/api/staticmap?center=51.0225132,13.7565248&zoom=16&size=100x100&maptype=satellite&sensor=false&language=&markers:none|label:none|51.0225132,13.7565248	64
1461200000032730	1217	Dresden	Räcknitz/Zschertnitz	Bulgakowstr.	10	13,7367767	51,0216086	1	20170201	100027863	http://maps.google.com/maps/api/staticmap?center=51.0216086,13.7367767&zoom=16&size=100x100&maptype=satellite&sensor=false&language=&markers:none|label:none|51.0216086,13.7367767	34
1461200000032820	1217	Dresden	Räcknitz/Zschertnitz	Casp-Dav-Friedrich-Str	12	13,7543314	51,0252569	1	20170201	100027933	http://maps.google.com/maps/api/staticmap?center=51.0252569,13.7543314&zoom=16&size=100x100&maptype=satellite&sensor=false&language=&markers:none|label:none|51.0252569,13.7543314	22
1461200000033060	1217	Dresden	Südvorstadt-Ost	Geinitzstr.	4	13,7465588	51,0322911	1	20170201	100028146	http://maps.google.com/maps/api/staticmap?center=51.0322911,13.7465588&zoom=16&size=100x100&maptype=satellite&sensor=false&language=&markers:none|label:none|51.0322911,13.7465588	53
1461200000033130	1217	Dresden	Leubnitz-Neuostra	Gostritzer Str.	1	13,7602634	51,0229106	1	20170201	100028216	http://maps.google.com/maps/api/staticmap?center=51.0229106,13.7602634&zoom=16&size=100x100&maptype=satellite&sensor=false&language=&markers:none|label:none|51.0229106,13.7602634	24
1461200000033230	1217	Dresden	Kleinpestitz/Mockritz	Gostritzer Str.	89A	13,7482864	51,0104868	2	20170201	100028303	http://maps.google.com/maps/api/staticmap?center=51.0104868,13.7482864&zoom=16&size=100x100&maptype=satellite&sensor=false&language=&markers:none|label:none|51.0104868,13.7482864	89
1461200000033320	1217	Dresden	Kleinpestitz/Mockritz	Isfriedstr.	13	13,737398	51,0177923	1	20170201	100028386	http://maps.google.com/maps/api/staticmap?center=51.0177923,13.737398&zoom=16&size=100x100&maptype=satellite&sensor=false&language=&markers:none|label:none|51.0177923,13.737398	85
1461200000033420	1217	Dresden	Kleinpestitz/Mockritz	Kaitzer Weinberg	6	13,7331475	51,0167538	1	20170201	100028482	http://maps.google.com/maps/api/staticmap?center=51.0167538,13.7331475&zoom=16&size=100x100&maptype=satellite&sensor=false&language=&markers:none|label:none|51.0167538,13.7331475	17
1461200000033590	1217	Dresden	Räcknitz/Zschertnitz	Münzmeisterstr.	14C	13,7402635	51,021866	1	20170201	100028652	http://maps.google.com/maps/api/staticmap?center=51.021866,13.7402635&zoom=16&size=100x100&maptype=satellite&sensor=false&language=&markers:none|label:none|51.021866,13.7402635	51
1461200000033610	1217	Dresden	Räcknitz/Zschertnitz	Münzmeisterstr.	23	13,7415986	51,0178438	1	20170201	100028666	http://maps.google.com/maps/api/staticmap?center=51.0178438,13.7415986&zoom=16&size=100x100&maptype=satellite&sensor=false&language=&markers:none|label:none|51.0178438,13.7415986	30
1461200000033630	1217	Dresden	Räcknitz/Zschertnitz	Münzmeisterstr.	8A	13,7396516	51,0228515	1	20170201	100028691	http://maps.google.com/maps/api/staticmap?center=51.0228515,13.7396516&zoom=16&size=100x100&maptype=satellite&sensor=false&language=&markers:none|label:none|51.0228515,13.7396516	21
1461200000033690	1217	Dresden	Leubnitz-Neuostra	Otto-Pilz-Str.	22	13,7562532	51,0207085	1	20170201	100028738	http://maps.google.com/maps/api/staticmap?center=51.0207085,13.7562532&zoom=16&size=100x100&maptype=satellite&sensor=false&language=&markers:none|label:none|51.0207085,13.7562532	41
1461200000033870	1217	Dresden	Südvorstadt-Ost	Reichenbachstr.	66	13,7456761	51,0312314	1	20170201	100028900	http://maps.google.com/maps/api/staticmap?center=51.0312314,13.7456761&zoom=16&size=100x100&maptype=satellite&sensor=false&language=&markers:none|label:none|51.0312314,13.7456761	72
1461200000033880	1217	Dresden	Südvorstadt-Ost	Reichenbachstr.	79	13,7471769	51,0311026	1	20170201	100028907	http://maps.google.com/maps/api/staticmap?center=51.0311026,13.7471769&zoom=16&size=100x100&maptype=satellite&sensor=false&language=&markers:none|label:none|51.0311026,13.7471769	10
1461200000033890	1217	Dresden	Kleinpestitz/Mockritz	Rippiener Str.	16	13,7451142	51,0122652	1	20170201	100028917	http://maps.google.com/maps/api/staticmap?center=51.0122652,13.7451142&zoom=16&size=100x100&maptype=satellite&sensor=false&language=&markers:none|label:none|51.0122652,13.7451142	33
1461200000033950	1217	Dresden	Räcknitz/Zschertnitz	Rungestr.	39	13,7466897	51,0263543	1	20170201	100028978	http://maps.google.com/maps/api/staticmap?center=51.0263543,13.7466897&zoom=16&size=100x100&maptype=satellite&sensor=false&language=&markers:none|label:none|51.0263543,13.7466897	93
1461200000034080	1217	Dresden	Kleinpestitz/Mockritz	Südhöhe	15	13,7450134	51,0193096	2	20170201	100029103	http://maps.google.com/maps/api/staticmap?center=51.0193096,13.7450134&zoom=16&size=100x100&maptype=satellite&sensor=false&language=&markers:none|label:none|51.0193096,13.7450134	43
1461200000034130	1217	Dresden	Kleinpestitz/Mockritz	Südhang	2	13,729577	51,0160741	1	20170201	100029139	http://maps.google.com/maps/api/staticmap?center=51.0160741,13.729577&zoom=16&size=100x100&maptype=satellite&sensor=false&language=&markers:none|label:none|51.0160741,13.729577	38
1461200000034200	1217	Dresden	Kleinpestitz/Mockritz	Welschhufer Str.	13	13,7462652	51,0132947	1	20170201	100029212	http://maps.google.com/maps/api/staticmap?center=51.0132947,13.7462652&zoom=16&size=100x100&maptype=satellite&sensor=false&language=&markers:none|label:none|51.0132947,13.7462652	30
1461200000034240	1217	Dresden	Leubnitz-Neuostra	Wilhelm-Busch-Str.	8A	13,7590546	51,0178762	1	20170201	100029246	http://maps.google.com/maps/api/staticmap?center=51.0178762,13.7590546&zoom=16&size=100x100&maptype=satellite&sensor=false&language=&markers:none|label:none|51.0178762,13.7590546	35
1461200000034480	1217	Dresden	Kleinpestitz/Mockritz	Kitzbühler Str.	7A	13,7353861	51,0177103	1	20170201	100029474	http://maps.google.com/maps/api/staticmap?center=51.0177103,13.7353861&zoom=16&size=100x100&maptype=satellite&sensor=false&language=&markers:none|label:none|51.0177103,13.7353861	99
1461200000034580	1219	Dresden	Leubnitz-Neuostra	Altleubnitz	34	13,7667925	51,0119716	1	20170201	100029530	http://maps.google.com/maps/api/staticmap?center=51.0119716,13.7667925&zoom=16&size=100x100&maptype=satellite&sensor=false&language=&markers:none|label:none|51.0119716,13.7667925	41
1461200000034620	1219	Dresden	Leubnitz-Neuostra	Am Dachsberg	19	13,7599071	51,0105987	1	20170201	100029565	http://maps.google.com/maps/api/staticmap?center=51.0105987,13.7599071&zoom=16&size=100x100&maptype=satellite&sensor=false&language=&markers:none|label:none|51.0105987,13.7599071	55
1461200000034640	1219	Dresden	Leubnitz-Neuostra	Am Eigenheimweg	6	13,7697754	51,0112572	1	20170201	100029590	http://maps.google.com/maps/api/staticmap?center=51.0112572,13.7697754&zoom=16&size=100x100&maptype=satellite&sensor=false&language=&markers:none|label:none|51.0112572,13.7697754	81
1461200000034670	1219	Dresden	Leubnitz-Neuostra	Am Goldenen Stiefel	23	13,7770623	51,010538	1	20170201	100029615	http://maps.google.com/maps/api/staticmap?center=51.010538,13.7770623&zoom=16&size=100x100&maptype=satellite&sensor=false&language=&markers:none|label:none|51.010538,13.7770623	57
1461200000034690	1219	Dresden	Leubnitz-Neuostra	Am Querweg	6	13,768602	51,0117667	1	20170201	100029628	http://maps.google.com/maps/api/staticmap?center=51.0117667,13.768602&zoom=16&size=100x100&maptype=satellite&sensor=false&language=&markers:none|label:none|51.0117667,13.768602	15
1461200000034790	1219	Dresden	Leubnitz-Neuostra	Brunnenstr.	20	13,7616602	51,0108537	1	20170201	100029731	http://maps.google.com/maps/api/staticmap?center=51.0108537,13.7616602&zoom=16&size=100x100&maptype=satellite&sensor=false&language=&markers:none|label:none|51.0108537,13.7616602	6
1461200000034920	1219	Dresden	Strehlen	Conr-Felixmüller-Str	5	13,7762373	51,0170845	1	20170201	100029856	http://maps.google.com/maps/api/staticmap?center=51.0170845,13.7762373&zoom=16&size=100x100&maptype=satellite&sensor=false&language=&markers:none|label:none|51.0170845,13.7762373	2
1461200000035070	1219	Dresden	Leubnitz-Neuostra	Dohnaer Str.	75A	13,770049	51,0180742	4	20170201	100029996	http://maps.google.com/maps/api/staticmap?center=51.0180742,13.770049&zoom=16&size=100x100&maptype=satellite&sensor=false&language=&markers:none|label:none|51.0180742,13.770049	95
1461200000035280	1219	Dresden	Leubnitz-Neuostra	Golberoder Str.	12	13,7595245	51,006156	1	20170201	100030186	http://maps.google.com/maps/api/staticmap?center=51.006156,13.7595245&zoom=16&size=100x100&maptype=satellite&sensor=false&language=&markers:none|label:none|51.006156,13.7595245	36
1461200000035310	1219	Dresden	Leubnitz-Neuostra	Goppelner Str.	21	13,7659158	51,005061	1	20170201	100030220	http://maps.google.com/maps/api/staticmap?center=51.005061,13.7659158&zoom=16&size=100x100&maptype=satellite&sensor=false&language=&markers:none|label:none|51.005061,13.7659158	34
1461200000035370	1219	Dresden	Leubnitz-Neuostra	Hans-Otto-Weg	4	13,7778884	51,0122166	1	20170201	100030283	http://maps.google.com/maps/api/staticmap?center=51.0122166,13.7778884&zoom=16&size=100x100&maptype=satellite&sensor=false&language=&markers:none|label:none|51.0122166,13.7778884	53
1461200000035390	1219	Dresden	Leubnitz-Neuostra	Heiligenbornstr.	26	13,7621492	51,0107144	1	20170201	100030302	http://maps.google.com/maps/api/staticmap?center=51.0107144,13.7621492&zoom=16&size=100x100&maptype=satellite&sensor=false&language=&markers:none|label:none|51.0107144,13.7621492	59
1461200000035770	1219	Dresden	Strehlen	Lockwitzer Str.	33	13,7640409	51,0234508	1	20170201	100030656	http://maps.google.com/maps/api/staticmap?center=51.0234508,13.7640409&zoom=16&size=100x100&maptype=satellite&sensor=false&language=&markers:none|label:none|51.0234508,13.7640409	63
1461200000035840	1219	Dresden	Leubnitz-Neuostra	Neuostra	22	13,7648288	51,012452	1	20170201	100030725	http://maps.google.com/maps/api/staticmap?center=51.012452,13.7648288&zoom=16&size=100x100&maptype=satellite&sensor=false&language=&markers:none|label:none|51.012452,13.7648288	70
1461200000035850	1219	Dresden	Strehlen	Oskarstr.	10	13,7604123	51,0297427	1	20170201	100030731	http://maps.google.com/maps/api/staticmap?center=51.0297427,13.7604123&zoom=16&size=100x100&maptype=satellite&sensor=false&language=&markers:none|label:none|51.0297427,13.7604123	87
1461200000035950	1219	Dresden	Leubnitz-Neuostra	Otto-Reinhold-Weg	3	13,7753317	51,0125636	1	20170201	100030815	http://maps.google.com/maps/api/staticmap?center=51.0125636,13.7753317&zoom=16&size=100x100&maptype=satellite&sensor=false&language=&markers:none|label:none|51.0125636,13.7753317	77
1461200000036080	1219	Dresden	Leubnitz-Neuostra	Ricarda-Huch-Str.	12	13,7671713	51,0101387	1	20170201	100030931	http://maps.google.com/maps/api/staticmap?center=51.0101387,13.7671713&zoom=16&size=100x100&maptype=satellite&sensor=false&language=&markers:none|label:none|51.0101387,13.7671713	68
1461200000036130	1219	Dresden	Leubnitz-Neuostra	Robert-Sterl-Str.	1	13,763564	51,020673	1	20170201	100030974	http://maps.google.com/maps/api/staticmap?center=51.020673,13.763564&zoom=16&size=100x100&maptype=satellite&sensor=false&language=&markers:none|label:none|51.020673,13.763564	32
1461200000036250	1219	Dresden	Leubnitz-Neuostra	Spitzwegstr.	57	13,7647811	51,0160942	1	20170201	100031115	http://maps.google.com/maps/api/staticmap?center=51.0160942,13.7647811&zoom=16&size=100x100&maptype=satellite&sensor=false&language=&markers:none|label:none|51.0160942,13.7647811	49
1461200000036320	1219	Dresden	Strehlen	Teplitzer Str.	63	13,7599504	51,0237429	1	20170201	100031186	http://maps.google.com/maps/api/staticmap?center=51.0237429,13.7599504&zoom=16&size=100x100&maptype=satellite&sensor=false&language=&markers:none|label:none|51.0237429,13.7599504	99
1461200000036370	1219	Dresden	Leubnitz-Neuostra	Theodor-Storm-Str.	42	13,7723743	51,0093851	1	20170201	100031235	http://maps.google.com/maps/api/staticmap?center=51.0093851,13.7723743&zoom=16&size=100x100&maptype=satellite&sensor=false&language=&markers:none|label:none|51.0093851,13.7723743	87
1461200000036500	1219	Dresden	Leubnitz-Neuostra	Uhdestr.	17A	13,7663923	51,0179051	1	20170201	100031348	http://maps.google.com/maps/api/staticmap?center=51.0179051,13.7663923&zoom=16&size=100x100&maptype=satellite&sensor=false&language=&markers:none|label:none|51.0179051,13.7663923	80
1461200000036520	1219	Dresden	Leubnitz-Neuostra	Uhdestr.	40	13,7662539	51,0165408	1	20170201	100031373	http://maps.google.com/maps/api/staticmap?center=51.0165408,13.7662539&zoom=16&size=100x100&maptype=satellite&sensor=false&language=&markers:none|label:none|51.0165408,13.7662539	11
1461200000036540	1219	Dresden	Strehlen	Walter-Arnold-Str.	15	13,781008	51,0177383	2	20170201	100031384	http://maps.google.com/maps/api/staticmap?center=51.0177383,13.781008&zoom=16&size=100x100&maptype=satellite&sensor=false&language=&markers:none|label:none|51.0177383,13.781008	24
1461200000036720	1219	Dresden	Leubnitz-Neuostra	Wilhelm-Franke-Str.	54	13,7709738	51,0113662	1	20170201	100031537	http://maps.google.com/maps/api/staticmap?center=51.0113662,13.7709738&zoom=16&size=100x100&maptype=satellite&sensor=false&language=&markers:none|label:none|51.0113662,13.7709738	96
1461200000036810	1219	Dresden	Leubnitz-Neuostra	Wittenstr.	25	13,763057	51,0168886	1	20170201	100031624	http://maps.google.com/maps/api/staticmap?center=51.0168886,13.763057&zoom=16&size=100x100&maptype=satellite&sensor=false&language=&markers:none|label:none|51.0168886,13.763057	42
1461200000036840	1219	Dresden	Leubnitz-Neuostra	Zschertnitzer Str.	74	13,7637009	51,0159467	1	20170201	100031657	http://maps.google.com/maps/api/staticmap?center=51.0159467,13.7637009&zoom=16&size=100x100&maptype=satellite&sensor=false&language=&markers:none|label:none|51.0159467,13.7637009	60
1461200000037160	1237	Dresden	Reick	Am Lehmhaus	16	13,7877327	51,0128397	1	20170201	100031911	http://maps.google.com/maps/api/staticmap?center=51.0128397,13.7877327&zoom=16&size=100x100&maptype=satellite&sensor=false&language=&markers:none|label:none|51.0128397,13.7877327	28
1461200000037170	1237	Dresden	Reick	Am Lehmhaus	20	13,7875673	51,0127627	1	20170201	100031916	http://maps.google.com/maps/api/staticmap?center=51.0127627,13.7875673&zoom=16&size=100x100&maptype=satellite&sensor=false&language=&markers:none|label:none|51.0127627,13.7875673	88
1461200000037180	1237	Dresden	Reick	Am Lehmhaus	33	13,7872267	51,0123808	1	20170201	100031929	http://maps.google.com/maps/api/staticmap?center=51.0123808,13.7872267&zoom=16&size=100x100&maptype=satellite&sensor=false&language=&markers:none|label:none|51.0123808,13.7872267	42
1461200000037470	1237	Dresden	Seidnitz/Dobritz	Dobritzer Str.	67	13,8036739	51,0218704	1	20170201	100032164	http://maps.google.com/maps/api/staticmap?center=51.0218704,13.8036739&zoom=16&size=100x100&maptype=satellite&sensor=false&language=&markers:none|label:none|51.0218704,13.8036739	28
1461200000037550	1237	Dresden	Seidnitz/Dobritz	Gasanstaltstr.	43C	13,7914951	51,0234273	1	20170201	100032241	http://maps.google.com/maps/api/staticmap?center=51.0234273,13.7914951&zoom=16&size=100x100&maptype=satellite&sensor=false&language=&markers:none|label:none|51.0234273,13.7914951	58
1461200000037810	1237	Dresden	Seidnitz/Dobritz	Lassallestr.	6	13,8110153	51,0190304	1	20170201	100032493	http://maps.google.com/maps/api/staticmap?center=51.0190304,13.8110153&zoom=16&size=100x100&maptype=satellite&sensor=false&language=&markers:none|label:none|51.0190304,13.8110153	19
1461200000037970	1237	Dresden	Reick	Morgenleite	69	13,788922	51,0128231	1	20170201	100032635	http://maps.google.com/maps/api/staticmap?center=51.0128231,13.788922&zoom=16&size=100x100&maptype=satellite&sensor=false&language=&markers:none|label:none|51.0128231,13.788922	62
1461200000038020	1237	Dresden	Seidnitz/Dobritz	Oskar-Röder-Str.	1E	13,7961622	51,0213917	1	20170201	100032674	http://maps.google.com/maps/api/staticmap?center=51.0213917,13.7961622&zoom=16&size=100x100&maptype=satellite&sensor=false&language=&markers:none|label:none|51.0213917,13.7961622	20
1461200000038070	1237	Dresden	Reick	Perronstr.	46	13,7862608	51,0118326	1	20170201	100032716	http://maps.google.com/maps/api/staticmap?center=51.0118326,13.7862608&zoom=16&size=100x100&maptype=satellite&sensor=false&language=&markers:none|label:none|51.0118326,13.7862608	13
1461200000038160	1237	Dresden	Prohlis-Nord	Prohliser Str.	34	13,7934493	51,0080967	1	20170201	100032786	http://maps.google.com/maps/api/staticmap?center=51.0080967,13.7934493&zoom=16&size=100x100&maptype=satellite&sensor=false&language=&markers:none|label:none|51.0080967,13.7934493	93
1461200000038280	1237	Dresden	Seidnitz/Dobritz	Rennplatzstr.	43	13,7985085	51,0251268	1	20170201	100032894	http://maps.google.com/maps/api/staticmap?center=51.0251268,13.7985085&zoom=16&size=100x100&maptype=satellite&sensor=false&language=&markers:none|label:none|51.0251268,13.7985085	62
1461200000038300	1237	Dresden	Reick	Scheidemantelstr.	9	13,7844874	51,0161606	1	20170201	100032917	http://maps.google.com/maps/api/staticmap?center=51.0161606,13.7844874&zoom=16&size=100x100&maptype=satellite&sensor=false&language=&markers:none|label:none|51.0161606,13.7844874	29
1461200000038340	1237	Dresden	Seidnitz/Dobritz	Schilfweg	48	13,8026042	51,024254	1	20170201	100032953	http://maps.google.com/maps/api/staticmap?center=51.024254,13.8026042&zoom=16&size=100x100&maptype=satellite&sensor=false&language=&markers:none|label:none|51.024254,13.8026042	46
1461200000038760	1237	Dresden	Seidnitz/Dobritz	Winterbergstr.	78	13,7939988	51,0253607	1	20170201	100033367	http://maps.google.com/maps/api/staticmap?center=51.0253607,13.7939988&zoom=16&size=100x100&maptype=satellite&sensor=false&language=&markers:none|label:none|51.0253607,13.7939988	58
1461200000038770	1237	Dresden	Seidnitz/Dobritz	Winterbergstr.	84F	13,7946906	51,0251309	1	20170201	100033379	http://maps.google.com/maps/api/staticmap?center=51.0251309,13.7946906&zoom=16&size=100x100&maptype=satellite&sensor=false&language=&markers:none|label:none|51.0251309,13.7946906	63
1461200000038860	1237	Dresden	Reick	Schroeterstr.	28	13,7843383	51,0131938	1	20170201	100033467	http://maps.google.com/maps/api/staticmap?center=51.0131938,13.7843383&zoom=16&size=100x100&maptype=satellite&sensor=false&language=&markers:none|label:none|51.0131938,13.7843383	94
1461200000038890	1237	Dresden	Seidnitz/Dobritz	Neudobritzer Weg	8A	13,8137913	51,0178064	1	20170201	100033481	http://maps.google.com/maps/api/staticmap?center=51.0178064,13.8137913&zoom=16&size=100x100&maptype=satellite&sensor=false&language=&markers:none|label:none|51.0178064,13.8137913	41
1461200000038990	1239	Dresden	Lockwitz	Alnpeckstr.	6B	13,7908533	50,9987588	1	20170201	100033546	http://maps.google.com/maps/api/staticmap?center=50.9987588,13.7908533&zoom=16&size=100x100&maptype=satellite&sensor=false&language=&markers:none|label:none|50.9987588,13.7908533	86
1461200000039080	1239	Dresden	Leubnitz-Neuostra	Alttorna	50	13,7716943	51,0050979	1	20170201	100033593	http://maps.google.com/maps/api/staticmap?center=51.0050979,13.7716943&zoom=16&size=100x100&maptype=satellite&sensor=false&language=&markers:none|label:none|51.0050979,13.7716943	25
1461200000039110	1239	Dresden	Leubnitz-Neuostra	Am Dorngraben	21	13,782029	51,0072736	1	20170201	100033621	http://maps.google.com/maps/api/staticmap?center=51.0072736,13.782029&zoom=16&size=100x100&maptype=satellite&sensor=false&language=&markers:none|label:none|51.0072736,13.782029	75
1461200000039280	1239	Dresden	Prohlis-Süd	Elsterwerdaer Str.	12	13,7990487	51,0035999	1	20170201	100033785	http://maps.google.com/maps/api/staticmap?center=51.0035999,13.7990487&zoom=16&size=100x100&maptype=satellite&sensor=false&language=&markers:none|label:none|51.0035999,13.7990487	82
1461200000039310	1239	Dresden	Prohlis-Süd	Finsterwalder Str.	10	13,801738	51,005349	1	20170201	100033813	http://maps.google.com/maps/api/staticmap?center=51.005349,13.801738&zoom=16&size=100x100&maptype=satellite&sensor=false&language=&markers:none|label:none|51.005349,13.801738	13
1461200000039380	1239	Dresden	Lockwitz	Fritz-Meinhardt-Str.	18	13,790711	50,9979931	1	20170201	100033880	http://maps.google.com/maps/api/staticmap?center=50.9979931,13.790711&zoom=16&size=100x100&maptype=satellite&sensor=false&language=&markers:none|label:none|50.9979931,13.790711	97
1461200000039660	1239	Dresden	Lockwitz	Langobardenstr.	51	13,7850585	51,0006184	1	20170201	100034142	http://maps.google.com/maps/api/staticmap?center=51.0006184,13.7850585&zoom=16&size=100x100&maptype=satellite&sensor=false&language=&markers:none|label:none|51.0006184,13.7850585	10
1461200000039690	1239	Dresden	Lockwitz	Langobardenstr.	84	13,7865293	50,9984503	1	20170201	100034174	http://maps.google.com/maps/api/staticmap?center=50.9984503,13.7865293&zoom=16&size=100x100&maptype=satellite&sensor=false&language=&markers:none|label:none|50.9984503,13.7865293	95
1461200000039720	1239	Dresden	Lockwitz	Nickerner Str.	55	13,7942916	50,9927699	1	20170201	100034193	http://maps.google.com/maps/api/staticmap?center=50.9927699,13.7942916&zoom=16&size=100x100&maptype=satellite&sensor=false&language=&markers:none|label:none|50.9927699,13.7942916	40
1461200000039980	1239	Dresden	Prohlis-Nord	Trattendorfer Str.	6	13,7992296	51,0100202	1	20170201	100034434	http://maps.google.com/maps/api/staticmap?center=51.0100202,13.7992296&zoom=16&size=100x100&maptype=satellite&sensor=false&language=&markers:none|label:none|51.0100202,13.7992296	82
1461200000040170	1239	Dresden	Lockwitz	Heinz-Bongartz-Str.	22C	13,7934588	50,9905267	1	20170201	100034527	http://maps.google.com/maps/api/staticmap?center=50.9905267,13.7934588&zoom=16&size=100x100&maptype=satellite&sensor=false&language=&markers:none|label:none|50.9905267,13.7934588	53
1461200000040320	1239	Dresden	Lockwitz	Rudolf-Dittrich-Str.	6	13,7930205	50,9891138	1	20170201	100034596	http://maps.google.com/maps/api/staticmap?center=50.9891138,13.7930205&zoom=16&size=100x100&maptype=satellite&sensor=false&language=&markers:none|label:none|50.9891138,13.7930205	53
1461200000040360	1239	Dresden	Lockwitz	Büttigstr.	60C	13,7854533	50,9968251	1	20170201	100034612	http://maps.google.com/maps/api/staticmap?center=50.9968251,13.7854533&zoom=16&size=100x100&maptype=satellite&sensor=false&language=&markers:none|label:none|50.9968251,13.7854533	81
1461200000040450	1257	Dresden	Lockwitz	Altlockwitz	6D	13,8089731	50,9875624	1	20170201	100034678	http://maps.google.com/maps/api/staticmap?center=50.9875624,13.8089731&zoom=16&size=100x100&maptype=satellite&sensor=false&language=&markers:none|label:none|50.9875624,13.8089731	55
1461200000040790	1257	Dresden	Niedersedlitz	Bismarckstr.	57	13,817283	51,0053737	1	20170201	100034974	http://maps.google.com/maps/api/staticmap?center=51.0053737,13.817283&zoom=16&size=100x100&maptype=satellite&sensor=false&language=&markers:none|label:none|51.0053737,13.817283	55
1461200000040830	1257	Dresden	Leuben	Dieselstr.	10	13,8255259	51,0054627	1	20170201	100035016	http://maps.google.com/maps/api/staticmap?center=51.0054627,13.8255259&zoom=16&size=100x100&maptype=satellite&sensor=false&language=&markers:none|label:none|51.0054627,13.8255259	22
1461200000040870	1257	Dresden	Leuben	Dieselstr.	44	13,8280978	51,0087531	1	20170201	100035052	http://maps.google.com/maps/api/staticmap?center=51.0087531,13.8280978&zoom=16&size=100x100&maptype=satellite&sensor=false&language=&markers:none|label:none|51.0087531,13.8280978	0
1461200000040920	1257	Dresden	Niedersedlitz	Dorfstr.	11	13,8206528	50,9979068	2	20170201	100035094	http://maps.google.com/maps/api/staticmap?center=50.9979068,13.8206528&zoom=16&size=100x100&maptype=satellite&sensor=false&language=&markers:none|label:none|50.9979068,13.8206528	36
1461200000041110	1257	Dresden	Lockwitz	Gebergrundweg	22	13,7989319	50,9896412	1	20170201	100035265	http://maps.google.com/maps/api/staticmap?center=50.9896412,13.7989319&zoom=16&size=100x100&maptype=satellite&sensor=false&language=&markers:none|label:none|50.9896412,13.7989319	51
1461200000041160	1257	Dresden	Lockwitz	Gorknitzer Str.	19	13,8003784	50,9874039	1	20170201	100035315	http://maps.google.com/maps/api/staticmap?center=50.9874039,13.8003784&zoom=16&size=100x100&maptype=satellite&sensor=false&language=&markers:none|label:none|50.9874039,13.8003784	18
1461200000041350	1257	Dresden	Leuben	Hertzstr.	6	13,823137	51,0107729	1	20170201	100035499	http://maps.google.com/maps/api/staticmap?center=51.0107729,13.823137&zoom=16&size=100x100&maptype=satellite&sensor=false&language=&markers:none|label:none|51.0107729,13.823137	66
1461200000041490	1257	Dresden	Leuben	Kleinzschachwitzer Str	13	13,8407639	51,0075716	1	20170201	100035621	http://maps.google.com/maps/api/staticmap?center=51.0075716,13.8407639&zoom=16&size=100x100&maptype=satellite&sensor=false&language=&markers:none|label:none|51.0075716,13.8407639	84
1461200000041610	1257	Dresden	Lockwitz	Lockwitzgrund	3	13,8030124	50,9862725	1	20170201	100035720	http://maps.google.com/maps/api/staticmap?center=50.9862725,13.8030124&zoom=16&size=100x100&maptype=satellite&sensor=false&language=&markers:none|label:none|50.9862725,13.8030124	55
1461200000041720	1257	Dresden	Leuben	Mockethaler Str.	20D	13,8198027	51,0101677	1	20170201	100035819	http://maps.google.com/maps/api/staticmap?center=51.0101677,13.8198027&zoom=16&size=100x100&maptype=satellite&sensor=false&language=&markers:none|label:none|51.0101677,13.8198027	82
1461200000041730	1257	Dresden	Niedersedlitz	Mühlensteig	8	13,8100349	51,0004095	1	20170201	100035835	http://maps.google.com/maps/api/staticmap?center=51.0004095,13.8100349&zoom=16&size=100x100&maptype=satellite&sensor=false&language=&markers:none|label:none|51.0004095,13.8100349	95
1461200000041870	1257	Dresden	Leuben	Niederseidewitzer Weg	4	13,816126	51,0120261	1	20170201	100035966	http://maps.google.com/maps/api/staticmap?center=51.0120261,13.816126&zoom=16&size=100x100&maptype=satellite&sensor=false&language=&markers:none|label:none|51.0120261,13.816126	70
1461200000041940	1257	Dresden	Leuben	Pirnaer Landstr.	159	13,8306837	51,0101321	1	20170201	100036026	http://maps.google.com/maps/api/staticmap?center=51.0101321,13.8306837&zoom=16&size=100x100&maptype=satellite&sensor=false&language=&markers:none|label:none|51.0101321,13.8306837	45
1461200000041970	1257	Dresden	Lockwitz	Preußerstr.	1B	13,8064693	50,9877646	1	20170201	100036047	http://maps.google.com/maps/api/staticmap?center=50.9877646,13.8064693&zoom=16&size=100x100&maptype=satellite&sensor=false&language=&markers:none|label:none|50.9877646,13.8064693	25
1461200000042280	1257	Dresden	Niedersedlitz	Sosaer Str.	11	13,8234481	51,0000281	1	20170201	100036341	http://maps.google.com/maps/api/staticmap?center=51.0000281,13.8234481&zoom=16&size=100x100&maptype=satellite&sensor=false&language=&markers:none|label:none|51.0000281,13.8234481	66
1461200000042360	1257	Dresden	Leuben	Stephensonstr.	50	13,8306342	51,0093194	1	20170201	100036408	http://maps.google.com/maps/api/staticmap?center=51.0093194,13.8306342&zoom=16&size=100x100&maptype=satellite&sensor=false&language=&markers:none|label:none|51.0093194,13.8306342	51
1461200000042400	1257	Dresden	Niedersedlitz	Tannenweg	12	13,806382	51,0006863	1	20170201	100036450	http://maps.google.com/maps/api/staticmap?center=51.0006863,13.806382&zoom=16&size=100x100&maptype=satellite&sensor=false&language=&markers:none|label:none|51.0006863,13.806382	88
1461200000042470	1257	Dresden	Lockwitz	Wölkauer Str.	4	13,81192	50,9920865	1	20170201	100036522	http://maps.google.com/maps/api/staticmap?center=50.9920865,13.81192&zoom=16&size=100x100&maptype=satellite&sensor=false&language=&markers:none|label:none|50.9920865,13.81192	64
1461200000042600	1257	Dresden	Niedersedlitz	Windmühlenstr.	34	13,8122799	50,9980283	1	20170201	100036646	http://maps.google.com/maps/api/staticmap?center=50.9980283,13.8122799&zoom=16&size=100x100&maptype=satellite&sensor=false&language=&markers:none|label:none|50.9980283,13.8122799	22
1461200000042660	1257	Dresden	Leuben	Zamenhofstr.	37	13,8191095	51,010891	1	20170201	100036703	http://maps.google.com/maps/api/staticmap?center=51.010891,13.8191095&zoom=16&size=100x100&maptype=satellite&sensor=false&language=&markers:none|label:none|51.010891,13.8191095	94
1461200000042700	1257	Dresden	Leuben	Am Alten Elbarm	10	13,8384762	51,0103176	1	20170201	100036740	http://maps.google.com/maps/api/staticmap?center=51.0103176,13.8384762&zoom=16&size=100x100&maptype=satellite&sensor=false&language=&markers:none|label:none|51.0103176,13.8384762	53
1461200000042960	1259	Dresden	Kleinzschachwitz	Am Gärtchen	2	13,8531016	51,0045849	1	20170201	100036887	http://maps.google.com/maps/api/staticmap?center=51.0045849,13.8531016&zoom=16&size=100x100&maptype=satellite&sensor=false&language=&markers:none|label:none|51.0045849,13.8531016	25
1461200000043350	1259	Dresden	Kleinzschachwitz	Bernard-Shaw-Str.	23	13,857142	50,9986369	1	20170201	100037242	http://maps.google.com/maps/api/staticmap?center=50.9986369,13.857142&zoom=16&size=100x100&maptype=satellite&sensor=false&language=&markers:none|label:none|50.9986369,13.857142	82
1461200000043620	1259	Dresden	Großzschachwitz	Försterlingstr.	10	13,8365263	51,0049906	1	20170201	100037490	http://maps.google.com/maps/api/staticmap?center=51.0049906,13.8365263&zoom=16&size=100x100&maptype=satellite&sensor=false&language=&markers:none|label:none|51.0049906,13.8365263	2
1461200000046330	1259	Dresden	Niedersedlitz	Friedrich-Ebert-Str.	37	13,8312795	50,9933491	1	20170201	100037642	http://maps.google.com/maps/api/staticmap?center=50.9933491,13.8312795&zoom=16&size=100x100&maptype=satellite&sensor=false&language=&markers:none|label:none|50.9933491,13.8312795	28
1461200000043760	1259	Dresden	Großzschachwitz	Fritz-Schreiter-Str.	11	13,8499652	50,9919471	1	20170201	100037656	http://maps.google.com/maps/api/staticmap?center=50.9919471,13.8499652&zoom=16&size=100x100&maptype=satellite&sensor=false&language=&markers:none|label:none|50.9919471,13.8499652	12
1461200000043780	1259	Dresden	Großzschachwitz	Fritz-Schreiter-Str.	30	13,8469062	50,9901837	1	20170201	100037669	http://maps.google.com/maps/api/staticmap?center=50.9901837,13.8469062&zoom=16&size=100x100&maptype=satellite&sensor=false&language=&markers:none|label:none|50.9901837,13.8469062	35
1461200000043870	1259	Dresden	Großzschachwitz	Großzschachwitzer Str	15A	13,8412942	51,0052634	1	20170201	100037750	http://maps.google.com/maps/api/staticmap?center=51.0052634,13.8412942&zoom=16&size=100x100&maptype=satellite&sensor=false&language=&markers:none|label:none|51.0052634,13.8412942	49
1461200000043900	1259	Dresden	Kleinzschachwitz	Grüner Steig	3	13,8553374	50,9961629	1	20170201	100037782	http://maps.google.com/maps/api/staticmap?center=50.9961629,13.8553374&zoom=16&size=100x100&maptype=satellite&sensor=false&language=&markers:none|label:none|50.9961629,13.8553374	42
1461200000043940	1259	Dresden	Kleinzschachwitz	Hartungstr.	4	13,8495721	51,0052104	1	20170201	100037819	http://maps.google.com/maps/api/staticmap?center=51.0052104,13.8495721&zoom=16&size=100x100&maptype=satellite&sensor=false&language=&markers:none|label:none|51.0052104,13.8495721	15
1461200000043950	1259	Dresden	Niedersedlitz	Heidenauer Str.	23	13,8309705	50,9957827	2	20170201	100037833	http://maps.google.com/maps/api/staticmap?center=50.9957827,13.8309705&zoom=16&size=100x100&maptype=satellite&sensor=false&language=&markers:none|label:none|50.9957827,13.8309705	87
1461200000044050	1259	Dresden	Kleinzschachwitz	Heinrich-Bauer-Str.	29	13,8541398	51,0017417	1	20170201	100037929	http://maps.google.com/maps/api/staticmap?center=51.0017417,13.8541398&zoom=16&size=100x100&maptype=satellite&sensor=false&language=&markers:none|label:none|51.0017417,13.8541398	60
1461200000044150	1259	Dresden	Kleinzschachwitz	Inselblick	7	13,8628757	51,0026886	1	20170201	100038016	http://maps.google.com/maps/api/staticmap?center=51.0026886,13.8628757&zoom=16&size=100x100&maptype=satellite&sensor=false&language=&markers:none|label:none|51.0026886,13.8628757	66
1461200000044250	1259	Dresden	Großzschachwitz	Kameradenweg	1	13,8521873	50,9912559	1	20170201	100038118	http://maps.google.com/maps/api/staticmap?center=50.9912559,13.8521873&zoom=16&size=100x100&maptype=satellite&sensor=false&language=&markers:none|label:none|50.9912559,13.8521873	68
1461200000044280	1259	Dresden	Kleinzschachwitz	Keppgrundstr.	2	13,8487191	51,0105561	1	20170201	100038152	http://maps.google.com/maps/api/staticmap?center=51.0105561,13.8487191&zoom=16&size=100x100&maptype=satellite&sensor=false&language=&markers:none|label:none|51.0105561,13.8487191	69
1461200000044320	1259	Dresden	Kleinzschachwitz	Kleinzschachwitzer Uf	10	13,8463321	51,0171759	4	20170201	100038174	http://maps.google.com/maps/api/staticmap?center=51.0171759,13.8463321&zoom=16&size=100x100&maptype=satellite&sensor=false&language=&markers:none|label:none|51.0171759,13.8463321	66
1461200000044790	1259	Dresden	Niedersedlitz	Lungkwitzer Str.	8C	13,8260551	50,9977959	1	20170201	100038599	http://maps.google.com/maps/api/staticmap?center=50.9977959,13.8260551&zoom=16&size=100x100&maptype=satellite&sensor=false&language=&markers:none|label:none|50.9977959,13.8260551	40
1461200000044820	1259	Dresden	Kleinzschachwitz	Meußlitzer Str.	118A	13,8497076	51,0018374	1	20170201	100038624	http://maps.google.com/maps/api/staticmap?center=51.0018374,13.8497076&zoom=16&size=100x100&maptype=satellite&sensor=false&language=&markers:none|label:none|51.0018374,13.8497076	58
1461200000044830	1259	Dresden	Kleinzschachwitz	Meußlitzer Str.	129	13,8518423	50,999732	1	20170201	100038636	http://maps.google.com/maps/api/staticmap?center=50.999732,13.8518423&zoom=16&size=100x100&maptype=satellite&sensor=false&language=&markers:none|label:none|50.999732,13.8518423	28
1461200000044870	1259	Dresden	Kleinzschachwitz	Meußlitzer Str.	25	13,8483806	51,0130547	1	20170201	100038684	http://maps.google.com/maps/api/staticmap?center=51.0130547,13.8483806&zoom=16&size=100x100&maptype=satellite&sensor=false&language=&markers:none|label:none|51.0130547,13.8483806	34
1461200000044880	1259	Dresden	Kleinzschachwitz	Meußlitzer Str.	28B	13,8479012	51,0120762	1	20170201	100038688	http://maps.google.com/maps/api/staticmap?center=51.0120762,13.8479012&zoom=16&size=100x100&maptype=satellite&sensor=false&language=&markers:none|label:none|51.0120762,13.8479012	95
1461200000045000	1259	Dresden	Niedersedlitz	Meusegaster Str.	24	13,8297175	50,9949777	1	20170201	100038791	http://maps.google.com/maps/api/staticmap?center=50.9949777,13.8297175&zoom=16&size=100x100&maptype=satellite&sensor=false&language=&markers:none|label:none|50.9949777,13.8297175	54
1461200000045090	1259	Dresden	Kleinzschachwitz	Neue Siedlung	27	13,8502929	51,0031336	1	20170201	100038881	http://maps.google.com/maps/api/staticmap?center=51.0031336,13.8502929&zoom=16&size=100x100&maptype=satellite&sensor=false&language=&markers:none|label:none|51.0031336,13.8502929	78
1461200000045140	1259	Dresden	Kleinzschachwitz	Neue Str.	5	13,856195	51,0031898	1	20170201	100038934	http://maps.google.com/maps/api/staticmap?center=51.0031898,13.856195&zoom=16&size=100x100&maptype=satellite&sensor=false&language=&markers:none|label:none|51.0031898,13.856195	17
1461200000045240	1259	Dresden	Lockwitz	Peter-Vischer-Str.	3	13,8302641	50,986853	1	20170201	100039028	http://maps.google.com/maps/api/staticmap?center=50.986853,13.8302641&zoom=16&size=100x100&maptype=satellite&sensor=false&language=&markers:none|label:none|50.986853,13.8302641	65
1461200000045310	1259	Dresden	Niedersedlitz	Poetenweg	11	13,8274927	50,9945522	1	20170201	100039097	http://maps.google.com/maps/api/staticmap?center=50.9945522,13.8274927&zoom=16&size=100x100&maptype=satellite&sensor=false&language=&markers:none|label:none|50.9945522,13.8274927	20
1461200000045390	1259	Dresden	Großzschachwitz	Rathener Str.	20	13,8397942	51,0037903	1	20170201	100039172	http://maps.google.com/maps/api/staticmap?center=51.0037903,13.8397942&zoom=16&size=100x100&maptype=satellite&sensor=false&language=&markers:none|label:none|51.0037903,13.8397942	39
1461200000045470	1259	Dresden	Großzschachwitz	Rosenthaler Str.	23	13,8399158	50,9999185	1	20170201	100039246	http://maps.google.com/maps/api/staticmap?center=50.9999185,13.8399158&zoom=16&size=100x100&maptype=satellite&sensor=false&language=&markers:none|label:none|50.9999185,13.8399158	67
1461200000045640	1259	Dresden	Kleinzschachwitz	Siedlerstr.	25	13,8647653	50,9947688	1	20170201	100039413	http://maps.google.com/maps/api/staticmap?center=50.9947688,13.8647653&zoom=16&size=100x100&maptype=satellite&sensor=false&language=&markers:none|label:none|50.9947688,13.8647653	51
1461200000046270	1259	Dresden	Kleinzschachwitz	Zschierener Elbstr.	9	13,8755778	50,9921838	1	20170201	100039932	http://maps.google.com/maps/api/staticmap?center=50.9921838,13.8755778&zoom=16&size=100x100&maptype=satellite&sensor=false&language=&markers:none|label:none|50.9921838,13.8755778	75
1461200000046400	1277	Dresden	Tolkewitz/Seidnitz-Nord	Altenberger Platz	5	13,807806	51,0347881	1	20170201	100039946	http://maps.google.com/maps/api/staticmap?center=51.0347881,13.807806&zoom=16&size=100x100&maptype=satellite&sensor=false&language=&markers:none|label:none|51.0347881,13.807806	66
1461200000046410	1277	Dresden	Striesen-Ost	Altenberger Str.	14	13,8063985	51,0418991	2	20170201	100039956	http://maps.google.com/maps/api/staticmap?center=51.0418991,13.8063985&zoom=16&size=100x100&maptype=satellite&sensor=false&language=&markers:none|label:none|51.0418991,13.8063985	43
1461200000046630	1277	Dresden	Tolkewitz/Seidnitz-Nord	Aussiger Str.	2	13,8097552	51,0335333	1	20170201	100040152	http://maps.google.com/maps/api/staticmap?center=51.0335333,13.8097552&zoom=16&size=100x100&maptype=satellite&sensor=false&language=&markers:none|label:none|51.0335333,13.8097552	94
1461200000046630	1277	Dresden	Tolkewitz/Seidnitz-Nord	Aussiger Str.	4	13,8098621	51,0332722	1	20170201	100040154	http://maps.google.com/maps/api/staticmap?center=51.0332722,13.8098621&zoom=16&size=100x100&maptype=satellite&sensor=false&language=&markers:none|label:none|51.0332722,13.8098621	93
1461200000046750	1277	Dresden	Blasewitz	Berggartenstr.	15	13,8079811	51,0482549	1	20170201	100040265	http://maps.google.com/maps/api/staticmap?center=51.0482549,13.8079811&zoom=16&size=100x100&maptype=satellite&sensor=false&language=&markers:none|label:none|51.0482549,13.8079811	57
1461200000047000	1277	Dresden	Striesen-Ost	Bärensteiner Str.	20	13,8028162	51,0368178	1	20170201	100040474	http://maps.google.com/maps/api/staticmap?center=51.0368178,13.8028162&zoom=16&size=100x100&maptype=satellite&sensor=false&language=&markers:none|label:none|51.0368178,13.8028162	89
1461200000047000	1277	Dresden	Striesen-Ost	Bärensteiner Str.	24	13,8021982	51,036184	1	20170201	100040478	http://maps.google.com/maps/api/staticmap?center=51.036184,13.8021982&zoom=16&size=100x100&maptype=satellite&sensor=false&language=&markers:none|label:none|51.036184,13.8021982	56
1461200000047080	1277	Dresden	Striesen-Ost	Dornblüthstr.	31	13,7981027	51,0425504	1	20170201	100040543	http://maps.google.com/maps/api/staticmap?center=51.0425504,13.7981027&zoom=16&size=100x100&maptype=satellite&sensor=false&language=&markers:none|label:none|51.0425504,13.7981027	58
1461200000047130	1277	Dresden	Gruna	Eibenstocker Str.	66	13,7982736	51,0364729	4	20170201	100040572	http://maps.google.com/maps/api/staticmap?center=51.0364729,13.7982736&zoom=16&size=100x100&maptype=satellite&sensor=false&language=&markers:none|label:none|51.0364729,13.7982736	17
1461200000047170	1277	Dresden	Striesen-Ost	Eisenacher Str.	46	13,8049171	51,0446903	1	20170201	100040607	http://maps.google.com/maps/api/staticmap?center=51.0446903,13.8049171&zoom=16&size=100x100&maptype=satellite&sensor=false&language=&markers:none|label:none|51.0446903,13.8049171	37
1461200000047170	1277	Dresden	Tolkewitz/Seidnitz-Nord	Enderstr.	1	13,8072332	51,034485	1	20170201	100040609	http://maps.google.com/maps/api/staticmap?center=51.034485,13.8072332&zoom=16&size=100x100&maptype=satellite&sensor=false&language=&markers:none|label:none|51.034485,13.8072332	99
1461200000047190	1277	Dresden	Tolkewitz/Seidnitz-Nord	Enderstr.	21	13,805548	51,0328324	2	20170201	100040625	http://maps.google.com/maps/api/staticmap?center=51.0328324,13.805548&zoom=16&size=100x100&maptype=satellite&sensor=false&language=&markers:none|label:none|51.0328324,13.805548	43
1461200000047250	1277	Dresden	Striesen-Ost	Ermelstr.	27	13,7963091	51,0435624	1	20170201	100040677	http://maps.google.com/maps/api/staticmap?center=51.0435624,13.7963091&zoom=16&size=100x100&maptype=satellite&sensor=false&language=&markers:none|label:none|51.0435624,13.7963091	37
1461200000047260	1277	Dresden	Striesen-Ost	Ermelstr.	34	13,7953842	51,0430388	2	20170201	100040686	http://maps.google.com/maps/api/staticmap?center=51.0430388,13.7953842&zoom=16&size=100x100&maptype=satellite&sensor=false&language=&markers:none|label:none|51.0430388,13.7953842	27
1461200000047310	1277	Dresden	Gruna	Gartenheimallee	20	13,7917895	51,0338773	1	20170201	100040736	http://maps.google.com/maps/api/staticmap?center=51.0338773,13.7917895&zoom=16&size=100x100&maptype=satellite&sensor=false&language=&markers:none|label:none|51.0338773,13.7917895	51
1461200000047330	1277	Dresden	Gruna	Gerader Steg	6	13,7974375	51,0346894	1	20170201	100040759	http://maps.google.com/maps/api/staticmap?center=51.0346894,13.7974375&zoom=16&size=100x100&maptype=satellite&sensor=false&language=&markers:none|label:none|51.0346894,13.7974375	75
1461200000047370	1277	Dresden	Striesen-Ost	Glasewaldtstr.	41	13,801107	51,0430845	1	20170201	100040791	http://maps.google.com/maps/api/staticmap?center=51.0430845,13.801107&zoom=16&size=100x100&maptype=satellite&sensor=false&language=&markers:none|label:none|51.0430845,13.801107	80
1461200000047410	1277	Dresden	Gruna	Grabenwinkel	14	13,7935846	51,0342615	1	20170201	100040827	http://maps.google.com/maps/api/staticmap?center=51.0342615,13.7935846&zoom=16&size=100x100&maptype=satellite&sensor=false&language=&markers:none|label:none|51.0342615,13.7935846	51
1461200000047430	1277	Dresden	Gruna	Grunaer Weg	14	13,7760437	51,0274656	1	20170201	100040844	http://maps.google.com/maps/api/staticmap?center=51.0274656,13.7760437&zoom=16&size=100x100&maptype=satellite&sensor=false&language=&markers:none|label:none|51.0274656,13.7760437	55
1461200000047460	1277	Dresden	Blasewitz	Gustav-Freytag-Str.	15	13,8103979	51,0438548	1	20170201	100040865	http://maps.google.com/maps/api/staticmap?center=51.0438548,13.8103979&zoom=16&size=100x100&maptype=satellite&sensor=false&language=&markers:none|label:none|51.0438548,13.8103979	83
1461200000047520	1277	Dresden	Gruna	Hepkestr.	105	13,7993648	51,0348107	1	20170201	100040925	http://maps.google.com/maps/api/staticmap?center=51.0348107,13.7993648&zoom=16&size=100x100&maptype=satellite&sensor=false&language=&markers:none|label:none|51.0348107,13.7993648	88
1461200000047640	1277	Dresden	Seidnitz/Dobritz	Hirschbacher Weg	6	13,7942582	51,0304061	1	20170201	100041038	http://maps.google.com/maps/api/staticmap?center=51.0304061,13.7942582&zoom=16&size=100x100&maptype=satellite&sensor=false&language=&markers:none|label:none|51.0304061,13.7942582	62
1461200000047860	1277	Dresden	Striesen-Süd	Kipsdorfer Str.	80	13,7973881	51,0400724	2	20170201	100041255	http://maps.google.com/maps/api/staticmap?center=51.0400724,13.7973881&zoom=16&size=100x100&maptype=satellite&sensor=false&language=&markers:none|label:none|51.0400724,13.7973881	43
1461200000047890	1277	Dresden	Gruna	Kleinhausweg	3	13,796789	51,0354469	1	20170201	100041283	http://maps.google.com/maps/api/staticmap?center=51.0354469,13.796789&zoom=16&size=100x100&maptype=satellite&sensor=false&language=&markers:none|label:none|51.0354469,13.796789	36
1461200000048100	1277	Dresden	Blasewitz	Ludwig-Hartmann-Str.	33	13,8101768	51,0392386	1	20170201	100041481	http://maps.google.com/maps/api/staticmap?center=51.0392386,13.8101768&zoom=16&size=100x100&maptype=satellite&sensor=false&language=&markers:none|label:none|51.0392386,13.8101768	65
1461200000048120	1277	Dresden	Blasewitz	Maystr.	12	13,8092407	51,0421701	1	20170201	100041502	http://maps.google.com/maps/api/staticmap?center=51.0421701,13.8092407&zoom=16&size=100x100&maptype=satellite&sensor=false&language=&markers:none|label:none|51.0421701,13.8092407	93
1461200000048140	1277	Dresden	Blasewitz	Maystr.	34	13,8121718	51,0399427	1	20170201	100041521	http://maps.google.com/maps/api/staticmap?center=51.0399427,13.8121718&zoom=16&size=100x100&maptype=satellite&sensor=false&language=&markers:none|label:none|51.0399427,13.8121718	65
1461200000048320	1277	Dresden	Seidnitz/Dobritz	Prof.-Ricker-Str.	20A	13,8103058	51,0240217	1	20170201	100041686	http://maps.google.com/maps/api/staticmap?center=51.0240217,13.8103058&zoom=16&size=100x100&maptype=satellite&sensor=false&language=&markers:none|label:none|51.0240217,13.8103058	16
1461200000048340	1277	Dresden	Blasewitz	Reinhold-Becker-Str.	17	13,8074721	51,0482363	1	20170201	100041706	http://maps.google.com/maps/api/staticmap?center=51.0482363,13.8074721&zoom=16&size=100x100&maptype=satellite&sensor=false&language=&markers:none|label:none|51.0482363,13.8074721	94
1461200000048480	1277	Dresden	Blasewitz	Schaufußstr.	13	13,8128017	51,0400811	1	20170201	100041840	http://maps.google.com/maps/api/staticmap?center=51.0400811,13.8128017&zoom=16&size=100x100&maptype=satellite&sensor=false&language=&markers:none|label:none|51.0400811,13.8128017	95
1461200000048800	1277	Dresden	Blasewitz	Tolkewitzer Str.	77	13,8178713	51,0402622	1	20170201	100042154	http://maps.google.com/maps/api/staticmap?center=51.0402622,13.8178713&zoom=16&size=100x100&maptype=satellite&sensor=false&language=&markers:none|label:none|51.0402622,13.8178713	11
1461200000049000	1277	Dresden	Striesen-Ost	Wittenberger Str.	90	13,7981389	51,0438192	2	20170201	100042330	http://maps.google.com/maps/api/staticmap?center=51.0438192,13.7981389&zoom=16&size=100x100&maptype=satellite&sensor=false&language=&markers:none|label:none|51.0438192,13.7981389	32
1461200000049490	1279	Dresden	Laubegast	Großglocknerstr.	8A	13,8291819	51,0189571	1	20170201	100042749	http://maps.google.com/maps/api/staticmap?center=51.0189571,13.8291819&zoom=16&size=100x100&maptype=satellite&sensor=false&language=&markers:none|label:none|51.0189571,13.8291819	47
1461200000049550	1279	Dresden	Seidnitz/Dobritz	Hellendorfer Str.	22	13,8076226	51,0250823	1	20170201	100042814	http://maps.google.com/maps/api/staticmap?center=51.0250823,13.8076226&zoom=16&size=100x100&maptype=satellite&sensor=false&language=&markers:none|label:none|51.0250823,13.8076226	54
1461200000049570	1279	Dresden	Laubegast	Hermann-Seidel-Str.	11A	13,8338275	51,026949	1	20170201	100042829	http://maps.google.com/maps/api/staticmap?center=51.026949,13.8338275&zoom=16&size=100x100&maptype=satellite&sensor=false&language=&markers:none|label:none|51.026949,13.8338275	1
1461200000049830	1279	Dresden	Tolkewitz/Seidnitz-Nord	Knappestr.	30	13,816418	51,0271892	1	20170201	100043075	http://maps.google.com/maps/api/staticmap?center=51.0271892,13.816418&zoom=16&size=100x100&maptype=satellite&sensor=false&language=&markers:none|label:none|51.0271892,13.816418	22
1461200000050070	1279	Dresden	Tolkewitz/Seidnitz-Nord	Lewickistr.	35	13,8206452	51,0296922	1	20170201	100043319	http://maps.google.com/maps/api/staticmap?center=51.0296922,13.8206452&zoom=16&size=100x100&maptype=satellite&sensor=false&language=&markers:none|label:none|51.0296922,13.8206452	11
1461200000050270	1279	Dresden	Tolkewitz/Seidnitz-Nord	Nagelstr.	18	13,8174281	51,0284647	1	20170201	100043510	http://maps.google.com/maps/api/staticmap?center=51.0284647,13.8174281&zoom=16&size=100x100&maptype=satellite&sensor=false&language=&markers:none|label:none|51.0284647,13.8174281	61
1461200000050320	1279	Dresden	Tolkewitz/Seidnitz-Nord	Reichenauer Weg	16	13,8133855	51,0298731	1	20170201	100043556	http://maps.google.com/maps/api/staticmap?center=51.0298731,13.8133855&zoom=16&size=100x100&maptype=satellite&sensor=false&language=&markers:none|label:none|51.0298731,13.8133855	24
1461200000050510	1279	Dresden	Laubegast	Salzburger Str.	33	13,8291698	51,0251649	1	20170201	100043706	http://maps.google.com/maps/api/staticmap?center=51.0251649,13.8291698&zoom=16&size=100x100&maptype=satellite&sensor=false&language=&markers:none|label:none|51.0251649,13.8291698	21
1461200000050900	1279	Dresden	Tolkewitz/Seidnitz-Nord	Wehlener Str.	34	13,8168825	51,0355445	1	20170201	100044091	http://maps.google.com/maps/api/staticmap?center=51.0355445,13.8168825&zoom=16&size=100x100&maptype=satellite&sensor=false&language=&markers:none|label:none|51.0355445,13.8168825	52
1461200000050960	1279	Dresden	Laubegast	Zur Bleiche	11	13,8371047	51,0279578	1	20170201	100044140	http://maps.google.com/maps/api/staticmap?center=51.0279578,13.8371047&zoom=16&size=100x100&maptype=satellite&sensor=false&language=&markers:none|label:none|51.0279578,13.8371047	91
1461200000050970	1279	Dresden	Laubegast	Zur Bleiche	15	13,8377808	51,0282599	1	20170201	100044144	http://maps.google.com/maps/api/staticmap?center=51.0282599,13.8377808&zoom=16&size=100x100&maptype=satellite&sensor=false&language=&markers:none|label:none|51.0282599,13.8377808	82
1461200000051150	1279	Dresden	Laubegast	Marie-Hankel-Str.	7D	13,8318822	51,0183706	1	20170201	100044293	http://maps.google.com/maps/api/staticmap?center=51.0183706,13.8318822&zoom=16&size=100x100&maptype=satellite&sensor=false&language=&markers:none|label:none|51.0183706,13.8318822	78
1461200000051320	1307	Dresden	Johannstadt-Nord	Bundschuhstr.	7	13,762835	51,0566515	1	20170201	100044411	http://maps.google.com/maps/api/staticmap?center=51.0566515,13.762835&zoom=16&size=100x100&maptype=satellite&sensor=false&language=&markers:none|label:none|51.0566515,13.762835	37
1461200000051400	1307	Dresden	Johannstadt-Süd	Dinglingerstr.	5	13,76111	51,0482345	1	20170201	100044494	http://maps.google.com/maps/api/staticmap?center=51.0482345,13.76111&zoom=16&size=100x100&maptype=satellite&sensor=false&language=&markers:none|label:none|51.0482345,13.76111	87
1461200000051830	1307	Dresden	Johannstadt-Süd	Nicolaistr.	11	13,7686319	51,047223	1	20170201	100044886	http://maps.google.com/maps/api/staticmap?center=51.047223,13.7686319&zoom=16&size=100x100&maptype=satellite&sensor=false&language=&markers:none|label:none|51.047223,13.7686319	35
1461200000052110	1307	Dresden	Johannstadt-Süd	Stübelallee	15A	13,7637778	51,0432902	1	20170201	100045139	http://maps.google.com/maps/api/staticmap?center=51.0432902,13.7637778&zoom=16&size=100x100&maptype=satellite&sensor=false&language=&markers:none|label:none|51.0432902,13.7637778	3
1461200000052150	1307	Dresden	Johannstadt-Süd	Wallotstr.	14	13,7691478	51,0448989	1	20170201	100045172	http://maps.google.com/maps/api/staticmap?center=51.0448989,13.7691478&zoom=16&size=100x100&maptype=satellite&sensor=false&language=&markers:none|label:none|51.0448989,13.7691478	9
1461200000052330	1309	Dresden	Striesen-Ost	Augsburger Str.	54A	13,7933987	51,0471848	2	20170201	100045342	http://maps.google.com/maps/api/staticmap?center=51.0471848,13.7933987&zoom=16&size=100x100&maptype=satellite&sensor=false&language=&markers:none|label:none|51.0471848,13.7933987	64
1461200000052420	1309	Dresden	Striesen-Süd	Bergmannstr.	57	13,7888324	51,0408785	1	20170201	100045427	http://maps.google.com/maps/api/staticmap?center=51.0408785,13.7888324&zoom=16&size=100x100&maptype=satellite&sensor=false&language=&markers:none|label:none|51.0408785,13.7888324	35
1461200000052470	1309	Dresden	Gruna	Bertolt-Brecht-Platz	1	13,7795394	51,0379981	1	20170201	100045462	http://maps.google.com/maps/api/staticmap?center=51.0379981,13.7795394&zoom=16&size=100x100&maptype=satellite&sensor=false&language=&markers:none|label:none|51.0379981,13.7795394	24
1461200000052780	1309	Dresden	Striesen-West	Geisingstr.	13	13,7833242	51,0436915	2	20170201	100045767	http://maps.google.com/maps/api/staticmap?center=51.0436915,13.7833242&zoom=16&size=100x100&maptype=satellite&sensor=false&language=&markers:none|label:none|51.0436915,13.7833242	5
1461200000052930	1309	Dresden	Striesen-Süd	Haenel-Clauß-Str.	22	13,7857245	51,0392892	1	20170201	100045885	http://maps.google.com/maps/api/staticmap?center=51.0392892,13.7857245&zoom=16&size=100x100&maptype=satellite&sensor=false&language=&markers:none|label:none|51.0392892,13.7857245	62
1461200000053180	1309	Dresden	Blasewitz	Händelallee	38	13,7861702	51,0549384	1	20170201	100046117	http://maps.google.com/maps/api/staticmap?center=51.0549384,13.7861702&zoom=16&size=100x100&maptype=satellite&sensor=false&language=&markers:none|label:none|51.0549384,13.7861702	76
1461200000054000	1309	Dresden	Striesen-Süd	Schandauer Str.	22	13,7871457	51,0432344	2	20170201	100046862	http://maps.google.com/maps/api/staticmap?center=51.0432344,13.7871457&zoom=16&size=100x100&maptype=satellite&sensor=false&language=&markers:none|label:none|51.0432344,13.7871457	96
1461200000054090	1309	Dresden	Striesen-West	Spenerstr.	25	13,7840855	51,0470398	1	20170201	100046946	http://maps.google.com/maps/api/staticmap?center=51.0470398,13.7840855&zoom=16&size=100x100&maptype=satellite&sensor=false&language=&markers:none|label:none|51.0470398,13.7840855	7
1461200000054100	1309	Dresden	Striesen-West	Spenerstr.	7	13,7870161	51,0495895	1	20170201	100046960	http://maps.google.com/maps/api/staticmap?center=51.0495895,13.7870161&zoom=16&size=100x100&maptype=satellite&sensor=false&language=&markers:none|label:none|51.0495895,13.7870161	15
1461200000054350	1309	Dresden	Striesen-West	Wartburgstr.	38B	13,7850777	51,047892	1	20170201	100047172	http://maps.google.com/maps/api/staticmap?center=51.047892,13.7850777&zoom=16&size=100x100&maptype=satellite&sensor=false&language=&markers:none|label:none|51.047892,13.7850777	1
1461200000054510	1309	Dresden	Striesen-West	Wormser Str.	66	13,7881635	51,0456892	2	20170201	100047315	http://maps.google.com/maps/api/staticmap?center=51.0456892,13.7881635&zoom=16&size=100x100&maptype=satellite&sensor=false&language=&markers:none|label:none|51.0456892,13.7881635	58
1461200000054510	1309	Dresden	Striesen-West	Wormser Str.	68	13,7884837	51,0455818	2	20170201	100047317	http://maps.google.com/maps/api/staticmap?center=51.0455818,13.7884837&zoom=16&size=100x100&maptype=satellite&sensor=false&language=&markers:none|label:none|51.0455818,13.7884837	43
1461200000054690	1324	Dresden	Bühlau/Weißer Hirsch	Bautzner Landstr.	138	13,8506159	51,0615088	1	20170201	100047485	http://maps.google.com/maps/api/staticmap?center=51.0615088,13.8506159&zoom=16&size=100x100&maptype=satellite&sensor=false&language=&markers:none|label:none|51.0615088,13.8506159	79
1461200000054910	1324	Dresden	Bühlau/Weißer Hirsch	Cunewalder Str.	42A	13,8502521	51,0566707	1	20170201	100047689	http://maps.google.com/maps/api/staticmap?center=51.0566707,13.8502521&zoom=16&size=100x100&maptype=satellite&sensor=false&language=&markers:none|label:none|51.0566707,13.8502521	30
1461200000055330	1324	Dresden	Bühlau/Weißer Hirsch	Kurparkstr.	12	13,8284378	51,063592	1	20170201	100048084	http://maps.google.com/maps/api/staticmap?center=51.063592,13.8284378&zoom=16&size=100x100&maptype=satellite&sensor=false&language=&markers:none|label:none|51.063592,13.8284378	7
1461200000055370	1324	Dresden	Bühlau/Weißer Hirsch	Lahmannring	18A	13,8224345	51,0619629	1	20170201	100048117	http://maps.google.com/maps/api/staticmap?center=51.0619629,13.8224345&zoom=16&size=100x100&maptype=satellite&sensor=false&language=&markers:none|label:none|51.0619629,13.8224345	75
1461200000055370	1324	Dresden	Bühlau/Weißer Hirsch	Lahmannring	19	13,8210754	51,0632336	2	20170201	100048118	http://maps.google.com/maps/api/staticmap?center=51.0632336,13.8210754&zoom=16&size=100x100&maptype=satellite&sensor=false&language=&markers:none|label:none|51.0632336,13.8210754	4
1461200000055380	1324	Dresden	Bühlau/Weißer Hirsch	Lahmannring	3	13,8150973	51,0633762	1	20170201	100048127	http://maps.google.com/maps/api/staticmap?center=51.0633762,13.8150973&zoom=16&size=100x100&maptype=satellite&sensor=false&language=&markers:none|label:none|51.0633762,13.8150973	30
1461200000055580	1324	Dresden	Bühlau/Weißer Hirsch	Neubühlauer Str.	25	13,8440207	51,0657102	1	20170201	100048316	http://maps.google.com/maps/api/staticmap?center=51.0657102,13.8440207&zoom=16&size=100x100&maptype=satellite&sensor=false&language=&markers:none|label:none|51.0657102,13.8440207	8
1461200000055610	1324	Dresden	Bühlau/Weißer Hirsch	Neugersdorfer Str.	18C	13,8359003	51,0605202	2	20170201	100048343	http://maps.google.com/maps/api/staticmap?center=51.0605202,13.8359003&zoom=16&size=100x100&maptype=satellite&sensor=false&language=&markers:none|label:none|51.0605202,13.8359003	3
1461200000055660	1324	Dresden	Bühlau/Weißer Hirsch	Neukircher Str.	46	13,8526336	51,0579368	1	20170201	100048386	http://maps.google.com/maps/api/staticmap?center=51.0579368,13.8526336&zoom=16&size=100x100&maptype=satellite&sensor=false&language=&markers:none|label:none|51.0579368,13.8526336	44
1461200000055760	1324	Dresden	Bühlau/Weißer Hirsch	Plattleite	26	13,8177863	51,0600534	1	20170201	100048489	http://maps.google.com/maps/api/staticmap?center=51.0600534,13.8177863&zoom=16&size=100x100&maptype=satellite&sensor=false&language=&markers:none|label:none|51.0600534,13.8177863	64
1461200000055930	1324	Dresden	Bühlau/Weißer Hirsch	Reitzendorfer Str.	54	13,8675366	51,0529064	1	20170201	100048630	http://maps.google.com/maps/api/staticmap?center=51.0529064,13.8675366&zoom=16&size=100x100&maptype=satellite&sensor=false&language=&markers:none|label:none|51.0529064,13.8675366	43
1461200000056010	1324	Dresden	Bühlau/Weißer Hirsch	Rißweg	60	13,8231803	51,0615423	1	20170201	100048704	http://maps.google.com/maps/api/staticmap?center=51.0615423,13.8231803&zoom=16&size=100x100&maptype=satellite&sensor=false&language=&markers:none|label:none|51.0615423,13.8231803	32
1461200000056220	1324	Dresden	Bühlau/Weißer Hirsch	Ullersdorfer Str.	52	13,8654956	51,0663381	1	20170201	100048906	http://maps.google.com/maps/api/staticmap?center=51.0663381,13.8654956&zoom=16&size=100x100&maptype=satellite&sensor=false&language=&markers:none|label:none|51.0663381,13.8654956	53
1461200000056280	1324	Dresden	Bühlau/Weißer Hirsch	Weißenberger Str.	28	13,8438468	51,0645827	1	20170201	100048960	http://maps.google.com/maps/api/staticmap?center=51.0645827,13.8438468&zoom=16&size=100x100&maptype=satellite&sensor=false&language=&markers:none|label:none|51.0645827,13.8438468	53
1461200000056290	1324	Dresden	Bühlau/Weißer Hirsch	Weißenberger Str.	6	13,8471474	51,0625301	1	20170201	100048970	http://maps.google.com/maps/api/staticmap?center=51.0625301,13.8471474&zoom=16&size=100x100&maptype=satellite&sensor=false&language=&markers:none|label:none|51.0625301,13.8471474	90
1461200000056470	1326	Dresden	Bühlau/Weißer Hirsch	Altrochwitz	3A	13,8453261	51,0505054	1	20170201	100049090	http://maps.google.com/maps/api/staticmap?center=51.0505054,13.8453261&zoom=16&size=100x100&maptype=satellite&sensor=false&language=&markers:none|label:none|51.0505054,13.8453261	9
1461200000056550	1326	Dresden	Loschwitz/Wachwitz	Am Steinberg	19	13,8316789	51,0377143	1	20170201	100049153	http://maps.google.com/maps/api/staticmap?center=51.0377143,13.8316789&zoom=16&size=100x100&maptype=satellite&sensor=false&language=&markers:none|label:none|51.0377143,13.8316789	15
1461200000056630	1326	Dresden	Hosterwitz/Pillnitz	An der Rysselkuppe	7	13,896122	51,0050208	1	20170201	100049227	http://maps.google.com/maps/api/staticmap?center=51.0050208,13.896122&zoom=16&size=100x100&maptype=satellite&sensor=false&language=&markers:none|label:none|51.0050208,13.896122	29
1461200000056710	1326	Dresden	Hosterwitz/Pillnitz	Bergweg	31	13,8878002	51,0065999	1	20170201	100049292	http://maps.google.com/maps/api/staticmap?center=51.0065999,13.8878002&zoom=16&size=100x100&maptype=satellite&sensor=false&language=&markers:none|label:none|51.0065999,13.8878002	47
1461200000056750	1326	Dresden	Loschwitz/Wachwitz	Calberlastr.	3	13,8222419	51,0489462	1	20170201	100049332	http://maps.google.com/maps/api/staticmap?center=51.0489462,13.8222419&zoom=16&size=100x100&maptype=satellite&sensor=false&language=&markers:none|label:none|51.0489462,13.8222419	61
1461200000057160	1326	Dresden	Loschwitz/Wachwitz	Grundstr.	83	13,823833	51,057844	1	20170201	100049719	http://maps.google.com/maps/api/staticmap?center=51.057844,13.823833&zoom=16&size=100x100&maptype=satellite&sensor=false&language=&markers:none|label:none|51.057844,13.823833	5
1461200000057200	1326	Dresden	Hosterwitz/Pillnitz	Herbert-Barthel-Str.	3	13,8605622	51,0203379	1	20170201	100049750	http://maps.google.com/maps/api/staticmap?center=51.0203379,13.8605622&zoom=16&size=100x100&maptype=satellite&sensor=false&language=&markers:none|label:none|51.0203379,13.8605622	35
1461200000057300	1326	Dresden	Bühlau/Weißer Hirsch	Hutbergstr.	16	13,8504801	51,0538503	1	20170201	100049846	http://maps.google.com/maps/api/staticmap?center=51.0538503,13.8504801&zoom=16&size=100x100&maptype=satellite&sensor=false&language=&markers:none|label:none|51.0538503,13.8504801	49
1461200000057380	1326	Dresden	Loschwitz/Wachwitz	Königsweg	1	13,8380015	51,0360105	1	20170201	100049923	http://maps.google.com/maps/api/staticmap?center=51.0360105,13.8380015&zoom=16&size=100x100&maptype=satellite&sensor=false&language=&markers:none|label:none|51.0360105,13.8380015	12
1461200000057420	1326	Dresden	Loschwitz/Wachwitz	Körnerweg	22	13,7934077	51,063703	1	20170201	100049954	http://maps.google.com/maps/api/staticmap?center=51.063703,13.7934077&zoom=16&size=100x100&maptype=satellite&sensor=false&language=&markers:none|label:none|51.063703,13.7934077	91
1461200000057430	1326	Dresden	Loschwitz/Wachwitz	Körnerweg	9	13,7991258	51,0627714	1	20170201	100049964	http://maps.google.com/maps/api/staticmap?center=51.0627714,13.7991258&zoom=16&size=100x100&maptype=satellite&sensor=false&language=&markers:none|label:none|51.0627714,13.7991258	0
1461200000057540	1326	Dresden	Loschwitz/Wachwitz	Klengelstr.	6	13,8093498	51,0619698	1	20170201	100050042	http://maps.google.com/maps/api/staticmap?center=51.0619698,13.8093498&zoom=16&size=100x100&maptype=satellite&sensor=false&language=&markers:none|label:none|51.0619698,13.8093498	7
1461200000057610	1326	Dresden	Bühlau/Weißer Hirsch	Krieschendorfer Str.	46	13,8454787	51,0451791	1	20170201	100050113	http://maps.google.com/maps/api/staticmap?center=51.0451791,13.8454787&zoom=16&size=100x100&maptype=satellite&sensor=false&language=&markers:none|label:none|51.0451791,13.8454787	50
1461200000057630	1326	Dresden	Bühlau/Weißer Hirsch	Krieschendorfer Str.	72	13,8479422	51,045433	1	20170201	100050126	http://maps.google.com/maps/api/staticmap?center=51.045433,13.8479422&zoom=16&size=100x100&maptype=satellite&sensor=false&language=&markers:none|label:none|51.045433,13.8479422	37
1461200000057660	1326	Dresden	Loschwitz/Wachwitz	Krügerstr.	38	13,8304383	51,0513261	1	20170201	100050158	http://maps.google.com/maps/api/staticmap?center=51.0513261,13.8304383&zoom=16&size=100x100&maptype=satellite&sensor=false&language=&markers:none|label:none|51.0513261,13.8304383	97
1461200000057740	1326	Dresden	Hosterwitz/Pillnitz	Leonardo-da-Vinci-Str.	1E	13,866249	51,0138976	1	20170201	100050234	http://maps.google.com/maps/api/staticmap?center=51.0138976,13.866249&zoom=16&size=100x100&maptype=satellite&sensor=false&language=&markers:none|label:none|51.0138976,13.866249	65
1461200000058000	1326	Dresden	Hosterwitz/Pillnitz	Orangeriestr.	26	13,8685729	51,0132075	1	20170201	100050458	http://maps.google.com/maps/api/staticmap?center=51.0132075,13.8685729&zoom=16&size=100x100&maptype=satellite&sensor=false&language=&markers:none|label:none|51.0132075,13.8685729	38
1461200000058020	1326	Dresden	Bühlau/Weißer Hirsch	Pabststr.	3	13,8313481	51,0572976	1	20170201	100050478	http://maps.google.com/maps/api/staticmap?center=51.0572976,13.8313481&zoom=16&size=100x100&maptype=satellite&sensor=false&language=&markers:none|label:none|51.0572976,13.8313481	14
1461200000058040	1326	Dresden	Bühlau/Weißer Hirsch	Pappritzer Str.	3	13,847732	51,0490653	1	20170201	100050498	http://maps.google.com/maps/api/staticmap?center=51.0490653,13.847732&zoom=16&size=100x100&maptype=satellite&sensor=false&language=&markers:none|label:none|51.0490653,13.847732	76
1461200000058130	1326	Dresden	Hosterwitz/Pillnitz	Pillnitzer Landstr.	176	13,8406359	51,0321058	4	20170201	100050583	http://maps.google.com/maps/api/staticmap?center=51.0321058,13.8406359&zoom=16&size=100x100&maptype=satellite&sensor=false&language=&markers:none|label:none|51.0321058,13.8406359	97
1461200000058200	1326	Dresden	Hosterwitz/Pillnitz	Pillnitzer Landstr.	237	13,8468802	51,0287325	4	20170201	100050642	http://maps.google.com/maps/api/staticmap?center=51.0287325,13.8468802&zoom=16&size=100x100&maptype=satellite&sensor=false&language=&markers:none|label:none|51.0287325,13.8468802	76
1461200000058300	1326	Dresden	Loschwitz/Wachwitz	Pillnitzer Landstr.	66A	13,8213573	51,0479006	1	20170201	100050731	http://maps.google.com/maps/api/staticmap?center=51.0479006,13.8213573&zoom=16&size=100x100&maptype=satellite&sensor=false&language=&markers:none|label:none|51.0479006,13.8213573	57
1461200000058390	1326	Dresden	Loschwitz/Wachwitz	Robert-Diez-Str.	2A	13,8236822	51,0501183	1	20170201	100050809	http://maps.google.com/maps/api/staticmap?center=51.0501183,13.8236822&zoom=16&size=100x100&maptype=satellite&sensor=false&language=&markers:none|label:none|51.0501183,13.8236822	8
1461200000058460	1326	Dresden	Hosterwitz/Pillnitz	Söbrigener Str.	34	13,8797093	50,997072	1	20170201	100050874	http://maps.google.com/maps/api/staticmap?center=50.997072,13.8797093&zoom=16&size=100x100&maptype=satellite&sensor=false&language=&markers:none|label:none|50.997072,13.8797093	52
1461200000058650	1326	Dresden	Loschwitz/Wachwitz	Schillerstr.	25	13,8127249	51,0590716	1	20170201	100051021	http://maps.google.com/maps/api/staticmap?center=51.0590716,13.8127249&zoom=16&size=100x100&maptype=satellite&sensor=false&language=&markers:none|label:none|51.0590716,13.8127249	27
1461200000058660	1326	Dresden	Loschwitz/Wachwitz	Schillerstr.	2B	13,8140802	51,0556608	1	20170201	100051026	http://maps.google.com/maps/api/staticmap?center=51.0556608,13.8140802&zoom=16&size=100x100&maptype=satellite&sensor=false&language=&markers:none|label:none|51.0556608,13.8140802	97
1461200000058740	1326	Dresden	Loschwitz/Wachwitz	Sierksstr.	3	13,8202021	51,0545786	1	20170201	100051104	http://maps.google.com/maps/api/staticmap?center=51.0545786,13.8202021&zoom=16&size=100x100&maptype=satellite&sensor=false&language=&markers:none|label:none|51.0545786,13.8202021	62
1461200000058760	1326	Dresden	Hosterwitz/Pillnitz	Staffelsteinstr.	33	13,8491382	51,0303426	1	20170201	100051126	http://maps.google.com/maps/api/staticmap?center=51.0303426,13.8491382&zoom=16&size=100x100&maptype=satellite&sensor=false&language=&markers:none|label:none|51.0303426,13.8491382	33
1461200000058840	1326	Dresden	Loschwitz/Wachwitz	Ulrichstr.	19	13,8272603	51,0553347	2	20170201	100051191	http://maps.google.com/maps/api/staticmap?center=51.0553347,13.8272603&zoom=16&size=100x100&maptype=satellite&sensor=false&language=&markers:none|label:none|51.0553347,13.8272603	33
1461200000059210	1326	Dresden	Loschwitz/Wachwitz	Weinleite	4	13,8171562	51,0575627	1	20170201	100051538	http://maps.google.com/maps/api/staticmap?center=51.0575627,13.8171562&zoom=16&size=100x100&maptype=satellite&sensor=false&language=&markers:none|label:none|51.0575627,13.8171562	70
1461200000059290	1326	Dresden	Hosterwitz/Pillnitz	Wohnweg	3	13,8473843	51,0297742	1	20170201	100051608	http://maps.google.com/maps/api/staticmap?center=51.0297742,13.8473843&zoom=16&size=100x100&maptype=satellite&sensor=false&language=&markers:none|label:none|51.0297742,13.8473843	72
1461200000059390	1326	Dresden	Rockau	An der Kucksche	18	13,8552999	51,0279213	1	20170201	100051689	http://maps.google.com/maps/api/staticmap?center=51.0279213,13.8552999&zoom=16&size=100x100&maptype=satellite&sensor=false&language=&markers:none|label:none|51.0279213,13.8552999	48
1461200000059450	1328	Dresden	Gönnsdorf	Alte Dorfstr.	11	13,8675404	51,0482513	1	20170201	100051719	http://maps.google.com/maps/api/staticmap?center=51.0482513,13.8675404&zoom=16&size=100x100&maptype=satellite&sensor=false&language=&markers:none|label:none|51.0482513,13.8675404	57
1461200000059600	1328	Dresden	Weißig	Am Lindenberg	3	13,894646	51,0586344	1	20170201	100051845	http://maps.google.com/maps/api/staticmap?center=51.0586344,13.894646&zoom=16&size=100x100&maptype=satellite&sensor=false&language=&markers:none|label:none|51.0586344,13.894646	7
1461200000059730	1328	Dresden	Schönfeld	Am Sägewerk	6	13,8969793	51,0331842	1	20170201	100051954	http://maps.google.com/maps/api/staticmap?center=51.0331842,13.8969793&zoom=16&size=100x100&maptype=satellite&sensor=false&language=&markers:none|label:none|51.0331842,13.8969793	78
1461200000059810	1328	Dresden	Weißig	Baudenweg	1	13,8688761	51,0660623	1	20170201	100052025	http://maps.google.com/maps/api/staticmap?center=51.0660623,13.8688761&zoom=16&size=100x100&maptype=satellite&sensor=false&language=&markers:none|label:none|51.0660623,13.8688761	90
1461200000060030	1328	Dresden	Schullwitz	Bühlauer Str.	4	13,9251007	51,0399597	1	20170201	100052209	http://maps.google.com/maps/api/staticmap?center=51.0399597,13.9251007&zoom=16&size=100x100&maptype=satellite&sensor=false&language=&markers:none|label:none|51.0399597,13.9251007	78
1461200000060090	1328	Dresden	Schönfeld	Cunnersdorfer Str.	28B	13,8902413	51,0345394	1	20170201	100052256	http://maps.google.com/maps/api/staticmap?center=51.0345394,13.8902413&zoom=16&size=100x100&maptype=satellite&sensor=false&language=&markers:none|label:none|51.0345394,13.8902413	36
1461200000060260	1328	Dresden	Weißig	Forststr.	30	13,8807623	51,0679404	1	20170201	100052444	http://maps.google.com/maps/api/staticmap?center=51.0679404,13.8807623&zoom=16&size=100x100&maptype=satellite&sensor=false&language=&markers:none|label:none|51.0679404,13.8807623	33
1461200000060580	1328	Dresden	Weißig	Heinrich-Lange-Str.	9	13,8774543	51,0610298	1	20170201	100052729	http://maps.google.com/maps/api/staticmap?center=51.0610298,13.8774543&zoom=16&size=100x100&maptype=satellite&sensor=false&language=&markers:none|label:none|51.0610298,13.8774543	91
1461200000060770	1328	Dresden	Reitzendorf	Meixstr.	44	13,9022758	51,0245646	1	20170201	100052883	http://maps.google.com/maps/api/staticmap?center=51.0245646,13.9022758&zoom=16&size=100x100&maptype=satellite&sensor=false&language=&markers:none|label:none|51.0245646,13.9022758	11
1461200000060830	1328	Dresden	Rockau	Mittelweg	13	13,8647115	51,0272588	1	20170201	100052939	http://maps.google.com/maps/api/staticmap?center=51.0272588,13.8647115&zoom=16&size=100x100&maptype=satellite&sensor=false&language=&markers:none|label:none|51.0272588,13.8647115	64
1461200000060900	1328	Dresden	Weißig	Pillnitzer Str.	10	13,8939284	51,0554589	1	20170201	100052997	http://maps.google.com/maps/api/staticmap?center=51.0554589,13.8939284&zoom=16&size=100x100&maptype=satellite&sensor=false&language=&markers:none|label:none|51.0554589,13.8939284	39
1461200000060920	1328	Dresden	Weißig	Pillnitzer Str.	21C	13,8969827	51,0544557	2	20170201	100053017	http://maps.google.com/maps/api/staticmap?center=51.0544557,13.8969827&zoom=16&size=100x100&maptype=satellite&sensor=false&language=&markers:none|label:none|51.0544557,13.8969827	86
1461200000061040	1328	Dresden	Eschdorf	Pirnaer Str.	82	13,9501185	51,0364053	1	20170201	100053129	http://maps.google.com/maps/api/staticmap?center=51.0364053,13.9501185&zoom=16&size=100x100&maptype=satellite&sensor=false&language=&markers:none|label:none|51.0364053,13.9501185	2
1461200000061090	1328	Dresden	Weißig	Radeberger Str.	18B	13,8865431	51,0641469	1	20170201	100053167	http://maps.google.com/maps/api/staticmap?center=51.0641469,13.8865431&zoom=16&size=100x100&maptype=satellite&sensor=false&language=&markers:none|label:none|51.0641469,13.8865431	72
1461200000061090	1328	Dresden	Weißig	Radeberger Str.	20C	13,8867803	51,0636584	1	20170201	100053174	http://maps.google.com/maps/api/staticmap?center=51.0636584,13.8867803&zoom=16&size=100x100&maptype=satellite&sensor=false&language=&markers:none|label:none|51.0636584,13.8867803	63
1461200000061220	1328	Dresden	Gönnsdorf	Siedlungsstr.	13	13,8705598	51,0463117	1	20170201	100053285	http://maps.google.com/maps/api/staticmap?center=51.0463117,13.8705598&zoom=16&size=100x100&maptype=satellite&sensor=false&language=&markers:none|label:none|51.0463117,13.8705598	99
1461200000061300	1328	Dresden	Pappritz	Straße des Friedens	24	13,8519828	51,0339409	1	20170201	100053354	http://maps.google.com/maps/api/staticmap?center=51.0339409,13.8519828&zoom=16&size=100x100&maptype=satellite&sensor=false&language=&markers:none|label:none|51.0339409,13.8519828	17
1461200000061350	1328	Dresden	Pappritz	Straße des Friedens	56	13,8558399	51,0398116	1	20170201	100053394	http://maps.google.com/maps/api/staticmap?center=51.0398116,13.8558399&zoom=16&size=100x100&maptype=satellite&sensor=false&language=&markers:none|label:none|51.0398116,13.8558399	6
1461200000061400	1328	Dresden	Zaschendorf	Talblick	4	13,910555	51,0178069	1	20170201	100053444	http://maps.google.com/maps/api/staticmap?center=51.0178069,13.910555&zoom=16&size=100x100&maptype=satellite&sensor=false&language=&markers:none|label:none|51.0178069,13.910555	12
1461200000061440	1328	Dresden	Weißig	Wiesenstr.	12D	13,8785595	51,0625318	1	20170201	100053482	http://maps.google.com/maps/api/staticmap?center=51.0625318,13.8785595&zoom=16&size=100x100&maptype=satellite&sensor=false&language=&markers:none|label:none|51.0625318,13.8785595	6
1461200000061460	1328	Dresden	Weißig	Wiesenstr.	14D	13,8784743	51,0629852	1	20170201	100053499	http://maps.google.com/maps/api/staticmap?center=51.0629852,13.8784743&zoom=16&size=100x100&maptype=satellite&sensor=false&language=&markers:none|label:none|51.0629852,13.8784743	57
1461200000061550	1328	Dresden	Weißig	Am Alten Bahndamm	31F	13,885007	51,0567514	1	20170201	100053592	http://maps.google.com/maps/api/staticmap?center=51.0567514,13.885007&zoom=16&size=100x100&maptype=satellite&sensor=false&language=&markers:none|label:none|51.0567514,13.885007	92
1461200000061740	1328	Dresden	Schullwitz	Am Triebenberg	7	13,918547	51,0392627	1	20170201	100053767	http://maps.google.com/maps/api/staticmap?center=51.0392627,13.918547&zoom=16&size=100x100&maptype=satellite&sensor=false&language=&markers:none|label:none|51.0392627,13.918547	10
1461200000061780	1328	Dresden	Weißig	Am Weißiger Bach	135C	13,883483	51,0688133	1	20170201	100053802	http://maps.google.com/maps/api/staticmap?center=51.0688133,13.883483&zoom=16&size=100x100&maptype=satellite&sensor=false&language=&markers:none|label:none|51.0688133,13.883483	62
1461200000061860	1328	Dresden	Weißig	Am Weißiger Bach	5	13,884256	51,0628922	1	20170201	100053869	http://maps.google.com/maps/api/staticmap?center=51.0628922,13.884256&zoom=16&size=100x100&maptype=satellite&sensor=false&language=&markers:none|label:none|51.0628922,13.884256	26
1461200000061860	1328	Dresden	Weißig	Am Weißiger Bach	55	13,8838225	51,0657378	1	20170201	100053872	http://maps.google.com/maps/api/staticmap?center=51.0657378,13.8838225&zoom=16&size=100x100&maptype=satellite&sensor=false&language=&markers:none|label:none|51.0657378,13.8838225	91
1461200000061890	1328	Dresden	Rockau	An der Försterei	2	13,8637693	51,0326409	1	20170201	100053904	http://maps.google.com/maps/api/staticmap?center=51.0326409,13.8637693&zoom=16&size=100x100&maptype=satellite&sensor=false&language=&markers:none|label:none|51.0326409,13.8637693	35
1461200000061950	1328	Dresden	Eichbusch	Eichbuscher Ring	14	13,8775839	51,03372	2	20170201	100053944	http://maps.google.com/maps/api/staticmap?center=51.03372,13.8775839&zoom=16&size=100x100&maptype=satellite&sensor=false&language=&markers:none|label:none|51.03372,13.8775839	97
1461200000061970	1328	Dresden	Pappritz	Eigenheimring	17	13,8498962	51,0390289	1	20170201	100053959	http://maps.google.com/maps/api/staticmap?center=51.0390289,13.8498962&zoom=16&size=100x100&maptype=satellite&sensor=false&language=&markers:none|label:none|51.0390289,13.8498962	95
1461200000062020	1328	Dresden	Borsberg	Hörnchenweg	13	13,8992289	51,010822	1	20170201	100054007	http://maps.google.com/maps/api/staticmap?center=51.010822,13.8992289&zoom=16&size=100x100&maptype=satellite&sensor=false&language=&markers:none|label:none|51.010822,13.8992289	82
1461200000062230	1328	Dresden	Weißig	Zum Dorfblick	3	13,8917695	51,0582135	1	20170201	100054186	http://maps.google.com/maps/api/staticmap?center=51.0582135,13.8917695&zoom=16&size=100x100&maptype=satellite&sensor=false&language=&markers:none|label:none|51.0582135,13.8917695	91
1461200000062530	1328	Dresden	Eichbusch	Eichbuscher Str.	1	13,8708235	51,0289289	1	20170201	100054452	http://maps.google.com/maps/api/staticmap?center=51.0289289,13.8708235&zoom=16&size=100x100&maptype=satellite&sensor=false&language=&markers:none|label:none|51.0289289,13.8708235	62
1461200000062910	1328	Dresden	Gönnsdorf	Zachengrundring	98	13,8613731	51,0460542	1	20170201	100054748	http://maps.google.com/maps/api/staticmap?center=51.0460542,13.8613731&zoom=16&size=100x100&maptype=satellite&sensor=false&language=&markers:none|label:none|51.0460542,13.8613731	35
1461200000062930	1328	Dresden	Rockau	Rockauer Ring	24	13,8654484	51,0268046	1	20170201	100054763	http://maps.google.com/maps/api/staticmap?center=51.0268046,13.8654484&zoom=16&size=100x100&maptype=satellite&sensor=false&language=&markers:none|label:none|51.0268046,13.8654484	96
1461200000062990	1328	Dresden	Pappritz	Narzissenhang	2	13,849712	51,0366713	1	20170201	100054811	http://maps.google.com/maps/api/staticmap?center=51.0366713,13.849712&zoom=16&size=100x100&maptype=satellite&sensor=false&language=&markers:none|label:none|51.0366713,13.849712	87
1461200000021120	1156	Dresden	Cossebaude	Schulstr.	3	13,6310028	51,0869719	1	20170201	100069086	http://maps.google.com/maps/api/staticmap?center=51.0869719,13.6310028&zoom=16&size=100x100&maptype=satellite&sensor=false&language=&markers:none|label:none|51.0869719,13.6310028	40
1461200000021190	1156	Dresden	Cossebaude	Weinbergstr.	55	13,6155802	51,0828133	1	20170201	100069216	http://maps.google.com/maps/api/staticmap?center=51.0828133,13.6155802&zoom=16&size=100x100&maptype=satellite&sensor=false&language=&markers:none|label:none|51.0828133,13.6155802	14
1461200000021260	1156	Dresden	Cossebaude	Am Hegereiter	16	13,6213146	51,0851487	1	20170201	100069288	http://maps.google.com/maps/api/staticmap?center=51.0851487,13.6213146&zoom=16&size=100x100&maptype=satellite&sensor=false&language=&markers:none|label:none|51.0851487,13.6213146	89
1461200000021340	1156	Dresden	Cossebaude	Obere Bergstr.	18	13,6320757	51,0827835	1	20170201	100069359	http://maps.google.com/maps/api/staticmap?center=51.0827835,13.6320757&zoom=16&size=100x100&maptype=satellite&sensor=false&language=&markers:none|label:none|51.0827835,13.6320757	67
1461200000020710	1156	Dresden	Gohlis	Grüner Weg	22	13,646208	51,0875265	1	20170201	100069556	http://maps.google.com/maps/api/staticmap?center=51.0875265,13.646208&zoom=16&size=100x100&maptype=satellite&sensor=false&language=&markers:none|label:none|51.0875265,13.646208	16
1461200000020760	1156	Dresden	Gohlis	Schillerstr.	21	13,6351557	51,0892089	1	20170201	100069594	http://maps.google.com/maps/api/staticmap?center=51.0892089,13.6351557&zoom=16&size=100x100&maptype=satellite&sensor=false&language=&markers:none|label:none|51.0892089,13.6351557	4
1461200000063210	1465	Langebrück		Bergerstr.	10	13,8441647	51,1247336	1	20170201	100069857	http://maps.google.com/maps/api/staticmap?center=51.1247336,13.8441647&zoom=16&size=100x100&maptype=satellite&sensor=false&language=&markers:none|label:none|51.1247336,13.8441647	84
1461200000063280	1465	Langebrück		Dresdner Str.	19	13,8387541	51,1259356	2	20170201	100069923	http://maps.google.com/maps/api/staticmap?center=51.1259356,13.8387541&zoom=16&size=100x100&maptype=satellite&sensor=false&language=&markers:none|label:none|51.1259356,13.8387541	57
1461200000063310	1465	Langebrück		Dresdner Str.	36	13,8359922	51,1256594	2	20170201	100069942	http://maps.google.com/maps/api/staticmap?center=51.1256594,13.8359922&zoom=16&size=100x100&maptype=satellite&sensor=false&language=&markers:none|label:none|51.1256594,13.8359922	80
1461200000063640	1465	Langebrück		Lessingstr.	2B	13,8384446	51,1280961	1	20170201	100070238	http://maps.google.com/maps/api/staticmap?center=51.1280961,13.8384446&zoom=16&size=100x100&maptype=satellite&sensor=false&language=&markers:none|label:none|51.1280961,13.8384446	80
1461200000063810	1465	Langebrück		Albert-Richter-Str.	11	13,8381189	51,1216666	1	20170201	100070402	http://maps.google.com/maps/api/staticmap?center=51.1216666,13.8381189&zoom=16&size=100x100&maptype=satellite&sensor=false&language=&markers:none|label:none|51.1216666,13.8381189	32
1461200000063850	1465	Langebrück		Bruhmstr.	2	13,8399668	51,1258015	1	20170201	100070430	http://maps.google.com/maps/api/staticmap?center=51.1258015,13.8399668&zoom=16&size=100x100&maptype=satellite&sensor=false&language=&markers:none|label:none|51.1258015,13.8399668	7
1461200000063860	1465	Langebrück		Am Gänsefuß	1	13,8404456	51,1215059	1	20170201	100070448	http://maps.google.com/maps/api/staticmap?center=51.1215059,13.8404456&zoom=16&size=100x100&maptype=satellite&sensor=false&language=&markers:none|label:none|51.1215059,13.8404456	69
1461200000063940	1465	Langebrück		Stiehlerstr.	4	13,8481921	51,1261325	1	20170201	100070519	http://maps.google.com/maps/api/staticmap?center=51.1261325,13.8481921&zoom=16&size=100x100&maptype=satellite&sensor=false&language=&markers:none|label:none|51.1261325,13.8481921	61
1461200000064150	1465	Schönborn		Grünberger Str.	1	13,8652632	51,1475223	1	20170201	100071284	http://maps.google.com/maps/api/staticmap?center=51.1475223,13.8652632&zoom=16&size=100x100&maptype=satellite&sensor=false&language=&markers:none|label:none|51.1475223,13.8652632	73
1461200000064170	1465	Schönborn		Langebrücker Str.	21	13,8620164	51,1452002	1	20170201	100071308	http://maps.google.com/maps/api/staticmap?center=51.1452002,13.8620164&zoom=16&size=100x100&maptype=satellite&sensor=false&language=&markers:none|label:none|51.1452002,13.8620164	12
1461200000019070	1156	Dresden	Gompitz	Altnossener Str.	28A	13,6343626	51,0431037	1	20170201	101423709	http://maps.google.com/maps/api/staticmap?center=51.0431037,13.6343626&zoom=16&size=100x100&maptype=satellite&sensor=false&language=&markers:none|label:none|51.0431037,13.6343626	54
1461200000026430	1159	Dresden	Löbtau-Süd	Mohorner Str.	14C	13,6999128	51,0349598	4	20170201	101423741	http://maps.google.com/maps/api/staticmap?center=51.0349598,13.6999128&zoom=16&size=100x100&maptype=satellite&sensor=false&language=&markers:none|label:none|51.0349598,13.6999128	37
1461200000032310	1189	Dresden	Coschütz/Gittersee	Heilbronner Str.	18	13,7007374	51,0103074	1	20170201	101423775	http://maps.google.com/maps/api/staticmap?center=51.0103074,13.7007374&zoom=16&size=100x100&maptype=satellite&sensor=false&language=&markers:none|label:none|51.0103074,13.7007374	23
1461200000057190	1326	Dresden	Helfenberg	Helfenberger Grund	8A	13,8510354	51,0303793	1	20170201	101423930	http://maps.google.com/maps/api/staticmap?center=51.0303793,13.8510354&zoom=16&size=100x100&maptype=satellite&sensor=false&language=&markers:none|label:none|51.0303793,13.8510354	43
1461200000007640	1108	Dresden	Weixdorf	Radeburger Landstr.	11	13,7951339	51,1508235	1	20170201	101438783	http://maps.google.com/maps/api/staticmap?center=51.1508235,13.7951339&zoom=16&size=100x100&maptype=satellite&sensor=false&language=&markers:none|label:none|51.1508235,13.7951339	26
1461200000040070	1239	Dresden	Lockwitz	Arno-Schellenberg-Str.	24	13,787662415	50,990894395	4	20170201	101443879	http://maps.google.com/maps/api/staticmap?center=50.990894395,13.787662415&zoom=16&size=100x100&maptype=satellite&sensor=false&language=&markers:none|label:none|50.990894395,13.787662415	43
1461200000044820	1259	Dresden	Kleinzschachwitz	Meußlitzer Str.	118C	13,8497076	51,0018374	1	20170201	101443910	http://maps.google.com/maps/api/staticmap?center=51.0018374,13.8497076&zoom=16&size=100x100&maptype=satellite&sensor=false&language=&markers:none|label:none|51.0018374,13.8497076	89
1461200000000480	1067	Dresden	Wilsdruffer Vorstadt/Seevorstadt-West	Könneritzstr.	2	13,724946792	51,055952808	4	20170201	101453211	http://maps.google.com/maps/api/staticmap?center=51.055952808,13.724946792&zoom=16&size=100x100&maptype=satellite&sensor=false&language=&markers:none|label:none|51.055952808,13.724946792	76
1461200000032820	1217	Dresden	Räcknitz/Zschertnitz	Casp-Dav-Friedrich-Str	10A	13,751334922	51,022813399	4	20170201	101464636	http://maps.google.com/maps/api/staticmap?center=51.022813399,13.751334922&zoom=16&size=100x100&maptype=satellite&sensor=false&language=&markers:none|label:none|51.022813399,13.751334922	5
1461200000062820	1328	Dresden	Gönnsdorf	Bergahornweg	34	13,862469438	51,045418725	4	20170201	101464688	http://maps.google.com/maps/api/staticmap?center=51.045418725,13.862469438&zoom=16&size=100x100&maptype=satellite&sensor=false&language=&markers:none|label:none|51.045418725,13.862469438	86
1461200000021220	1156	Dresden	Cossebaude	Weinbergstr.	78A	13,6130174	51,0825181	1	20170201	101464713	http://maps.google.com/maps/api/staticmap?center=51.0825181,13.6130174&zoom=16&size=100x100&maptype=satellite&sensor=false&language=&markers:none|label:none|51.0825181,13.6130174	35
1461200000022880	1157	Dresden	Cotta	Klipphausener Str.	7C	13,688514536	51,054626979	4	20170201	101467700	http://maps.google.com/maps/api/staticmap?center=51.054626979,13.688514536&zoom=16&size=100x100&maptype=satellite&sensor=false&language=&markers:none|label:none|51.054626979,13.688514536	5
1461200000056950	1326	Dresden	Loschwitz/Wachwitz	1.Steinweg	4	13,819482357	51,053824229	4	20170201	101467777	http://maps.google.com/maps/api/staticmap?center=51.053824229,13.819482357&zoom=16&size=100x100&maptype=satellite&sensor=false&language=&markers:none|label:none|51.053824229,13.819482357	90
1461200000008230	1108	Dresden	Weixdorf	Erich-Ockert-Weg	25	13,792649448	51,139054383	4	20170201	101471582	http://maps.google.com/maps/api/staticmap?center=51.139054383,13.792649448&zoom=16&size=100x100&maptype=satellite&sensor=false&language=&markers:none|label:none|51.139054383,13.792649448	48
1461200000040340	1239	Dresden	Lockwitz	Büttigstr.	56	13,784722933	50,996083089	4	20170201	101471788	http://maps.google.com/maps/api/staticmap?center=50.996083089,13.784722933&zoom=16&size=100x100&maptype=satellite&sensor=false&language=&markers:none|label:none|50.996083089,13.784722933	0
1461200000046190	1259	Dresden	Kleinzschachwitz	Gondelweg	8A	13,854820744	51,005027133	4	20170201	101471824	http://maps.google.com/maps/api/staticmap?center=51.005027133,13.854820744&zoom=16&size=100x100&maptype=satellite&sensor=false&language=&markers:none|label:none|51.005027133,13.854820744	80
1461200000049200	1279	Dresden	Laubegast	Azaleenweg	10	13,82784377	51,02363631	4	20170201	101471846	http://maps.google.com/maps/api/staticmap?center=51.02363631,13.82784377&zoom=16&size=100x100&maptype=satellite&sensor=false&language=&markers:none|label:none|51.02363631,13.82784377	34
1461200000055820	1324	Dresden	Bühlau/Weißer Hirsch	Quohrener Str.	22	13,861264438	51,056696002	4	20170201	101471877	http://maps.google.com/maps/api/staticmap?center=51.056696002,13.861264438&zoom=16&size=100x100&maptype=satellite&sensor=false&language=&markers:none|label:none|51.056696002,13.861264438	96
1461200000034530	1217	Dresden	Kleinpestitz/Mockritz	Franz-Bänsch-Str.	16	13,7381493148	51,0190466299	99	20170201	101483592	http://maps.google.com/maps/api/staticmap?center=51.0190466299,13.7381493148&zoom=16&size=100x100&maptype=satellite&sensor=false&language=&markers:none|label:none|51.0190466299,13.7381493148	62
1461200000012630	1109	Dresden	Klotzsche	Maria-Reiche-Str.	3	13,7773556573	51,1279861016	99	20170201	101489719	http://maps.google.com/maps/api/staticmap?center=51.1279861016,13.7773556573&zoom=16&size=100x100&maptype=satellite&sensor=false&language=&markers:none|label:none|51.1279861016,13.7773556573	83
1461200000019640	1156	Dresden	Altfranken	Altfrankener Dorfstr.	28	13,644125883	51,03364345	0	20170201	101489730	http://maps.google.com/maps/api/staticmap?center=51.03364345,13.644125883&zoom=16&size=100x100&maptype=satellite&sensor=false&language=&markers:none|label:none|51.03364345,13.644125883	77
1461200000029250	1187	Dresden	Plauen	Chemnitzer Str.	76A	13,709169	51,031216	0	20170201	101489757	http://maps.google.com/maps/api/staticmap?center=51.031216,13.709169&zoom=16&size=100x100&maptype=satellite&sensor=false&language=&markers:none|label:none|51.031216,13.709169	56
1461200000034550	1217	Dresden	Kleinpestitz/Mockritz	Franz-Bänsch-Str.	8B	13,7381493148	51,0190466299	99	20170201	101489765	http://maps.google.com/maps/api/staticmap?center=51.0190466299,13.7381493148&zoom=16&size=100x100&maptype=satellite&sensor=false&language=&markers:none|label:none|51.0190466299,13.7381493148	62
1461200000008300	1108	Dresden	Weixdorf	Girlitzweg	17	13,8021695725	51,1458784298	99	20170201	101494520	http://maps.google.com/maps/api/staticmap?center=51.1458784298,13.8021695725&zoom=16&size=100x100&maptype=satellite&sensor=false&language=&markers:none|label:none|51.1458784298,13.8021695725	11
1461200000019650	1156	Dresden	Altfranken	Altfrankener Dorfstr.	6	13,6414599434	51,0330964574	0	20170201	101501826	http://maps.google.com/maps/api/staticmap?center=51.0330964574,13.6414599434&zoom=16&size=100x100&maptype=satellite&sensor=false&language=&markers:none|label:none|51.0330964574,13.6414599434	24
1461200000012650	1109	Dresden	Klotzsche	Traute-Richter-Str.	2A	13,7690061396	51,1125464487	99	20170201	101505474	http://maps.google.com/maps/api/staticmap?center=51.1125464487,13.7690061396&zoom=16&size=100x100&maptype=satellite&sensor=false&language=&markers:none|label:none|51.1125464487,13.7690061396	24
1461200000005990	1099	Dresden	Äußere Neustadt	Tannenstr.	10D	13,7625210017	51,0702920455	99	20170201	101517259	http://maps.google.com/maps/api/staticmap?center=51.0702920455,13.7625210017&zoom=16&size=100x100&maptype=satellite&sensor=false&language=&markers:none|label:none|51.0702920455,13.7625210017	80
1461200000000660	1067	Dresden	Innere Altstadt	Ringstr.	11	13,74295604	51,04870762	4	20170201	119685373	http://maps.google.com/maps/api/staticmap?center=51.04870762,13.74295604&zoom=16&size=100x100&maptype=satellite&sensor=false&language=&markers:none|label:none|51.04870762,13.74295604	38
1461200000026440	1159	Dresden	Löbtau-Süd	Mohorner Str.	22	13,699573142	51,034969295	4	20170201	119685712	http://maps.google.com/maps/api/staticmap?center=51.034969295,13.699573142&zoom=16&size=100x100&maptype=satellite&sensor=false&language=&markers:none|label:none|51.034969295,13.699573142	46
1461200000034600	1219	Dresden	Strehlen	Altstrehlen	5	13,762663827	51,027328827	4	20170201	119685882	http://maps.google.com/maps/api/staticmap?center=51.027328827,13.762663827&zoom=16&size=100x100&maptype=satellite&sensor=false&language=&markers:none|label:none|51.027328827,13.762663827	16
1461200000048240	1277	Dresden	Gruna	Papstdorfer Str.	41	13,785130646	51,033127821	4	20170201	119686015	http://maps.google.com/maps/api/staticmap?center=51.033127821,13.785130646&zoom=16&size=100x100&maptype=satellite&sensor=false&language=&markers:none|label:none|51.033127821,13.785130646	0
1461200000051610	1307	Dresden	Johannstadt-Süd	Gerokstr.	30	13,764727943	51,053009636	4	20170201	119686060	http://maps.google.com/maps/api/staticmap?center=51.053009636,13.764727943&zoom=16&size=100x100&maptype=satellite&sensor=false&language=&markers:none|label:none|51.053009636,13.764727943	90
1461200000017570	1139	Dresden	Mickten	Rethelstr.	47-49	13,698679	51,069916	5	20170201	120647924	http://maps.google.com/maps/api/staticmap?center=51.069916,13.698679&zoom=16&size=100x100&maptype=satellite&sensor=false&language=&markers:none|label:none|51.069916,13.698679	75
1461200000017940	1139	Dresden	Mickten	Tichatscheckstr.	33B	13,713355	51,083468	5	20170201	120647925	http://maps.google.com/maps/api/staticmap?center=51.083468,13.713355&zoom=16&size=100x100&maptype=satellite&sensor=false&language=&markers:none|label:none|51.083468,13.713355	82
1461200000001930	1069	Dresden	Südvorstadt-West	Liebigstr.	1	13,727123	51,03722	5	20170201	120760549	http://maps.google.com/maps/api/staticmap?center=51.03722,13.727123&zoom=16&size=100x100&maptype=satellite&sensor=false&language=&markers:none|label:none|51.03722,13.727123	59
1461200000062780	1328	Dresden	Rockau	Am Preßgrund	17A	13,863358	51,029784	5	20170201	120774620	http://maps.google.com/maps/api/staticmap?center=51.029784,13.863358&zoom=16&size=100x100&maptype=satellite&sensor=false&language=&markers:none|label:none|51.029784,13.863358	39
1461200000014470	1129	Dresden	Trachau	Dippelsdorfer Str.	5	13,72051	51,095701	5	20170201	120837028	http://maps.google.com/maps/api/staticmap?center=51.095701,13.72051&zoom=16&size=100x100&maptype=satellite&sensor=false&language=&markers:none|label:none|51.095701,13.72051	4
1461200000023440	1157	Dresden	Briesnitz	Ockerwitzer Str.	62	13,6794195184	51,0527398457	99	20170201	120837045	http://maps.google.com/maps/api/staticmap?center=51.0527398457,13.6794195184&zoom=16&size=100x100&maptype=satellite&sensor=false&language=&markers:none|label:none|51.0527398457,13.6794195184	69
1461200000023680	1157	Dresden	Cotta	Rudolf-Renner-Str.	18A	13,691659	51,050928	5	20170201	120854222	http://maps.google.com/maps/api/staticmap?center=51.050928,13.691659&zoom=16&size=100x100&maptype=satellite&sensor=false&language=&markers:none|label:none|51.050928,13.691659	52
1461200000037870	1237	Dresden	Seidnitz/Dobritz	Luchbergstr.	17F	13,800372	51,02565	5	20170201	120920379	http://maps.google.com/maps/api/staticmap?center=51.02565,13.800372&zoom=16&size=100x100&maptype=satellite&sensor=false&language=&markers:none|label:none|51.02565,13.800372	38
1461200000044750	1259	Dresden	Kleinzschachwitz	Lugbergblick	21	13,865064	50,991754	5	20170201	120920389	http://maps.google.com/maps/api/staticmap?center=50.991754,13.865064&zoom=16&size=100x100&maptype=satellite&sensor=false&language=&markers:none|label:none|50.991754,13.865064	92
1461200000048750	1277	Dresden	Blasewitz	Tolkewitzer Str.	12	13,808272	51,05074	5	20170201	120920400	http://maps.google.com/maps/api/staticmap?center=51.05074,13.808272&zoom=16&size=100x100&maptype=satellite&sensor=false&language=&markers:none|label:none|51.05074,13.808272	72
1461200000062990	1328	Dresden	Pappritz	Narzissenhang	13	13,8494448558	51,0363350615	99	20170201	120920410	http://maps.google.com/maps/api/staticmap?center=51.0363350615,13.8494448558&zoom=16&size=100x100&maptype=satellite&sensor=false&language=&markers:none|label:none|51.0363350615,13.8494448558	40
1461200000031500	1189	Dresden	Coschütz/Gittersee	Karlsruher Str.	134	13,6890436152	51,0113542875	99	20170201	121015410	http://maps.google.com/maps/api/staticmap?center=51.0113542875,13.6890436152&zoom=16&size=100x100&maptype=satellite&sensor=false&language=&markers:none|label:none|51.0113542875,13.6890436152	77
1461200000005860	1099	Dresden	Albertstadt	Stauffenbergallee	12A	13,7600144439	51,0849136343	99	20170201	121105491	http://maps.google.com/maps/api/staticmap?center=51.0849136343,13.7600144439&zoom=16&size=100x100&maptype=satellite&sensor=false&language=&markers:none|label:none|51.0849136343,13.7600144439	56
1461200000006010	1099	Dresden	Äußere Neustadt	Tannenstr.	26A	13,7625210017	51,0702920455	99	20170201	121121733	http://maps.google.com/maps/api/staticmap?center=51.0702920455,13.7625210017&zoom=16&size=100x100&maptype=satellite&sensor=false&language=&markers:none|label:none|51.0702920455,13.7625210017	9
1461200000056880	1326	Dresden	Hosterwitz/Pillnitz	Dresdner Str.	51	13,8570023	51,0221404	1	20170201	121136196	http://maps.google.com/maps/api/staticmap?center=51.0221404,13.8570023&zoom=16&size=100x100&maptype=satellite&sensor=false&language=&markers:none|label:none|51.0221404,13.8570023	100
1461200000042780	1257	Dresden	Lockwitz	Wittgensdorfer Str.	7	13,801926375	50,9903830916	99	20170201	121209299	http://maps.google.com/maps/api/staticmap?center=50.9903830916,13.801926375&zoom=16&size=100x100&maptype=satellite&sensor=false&language=&markers:none|label:none|50.9903830916,13.801926375	16
1461200000036570	1219	Dresden	Seevorstadt-Ost/Großer Garten	Wiener Str.	102A	13,7614577721	51,0316693984	99	20170201	121232306	http://maps.google.com/maps/api/staticmap?center=51.0316693984,13.7614577721&zoom=16&size=100x100&maptype=satellite&sensor=false&language=&markers:none|label:none|51.0316693984,13.7614577721	18
1461200000063080	1328	Dresden	Weißig	Max-Kosler-Str.	10	13,8800087383	51,0625064433	99	20170201	121263570	http://maps.google.com/maps/api/staticmap?center=51.0625064433,13.8800087383&zoom=16&size=100x100&maptype=satellite&sensor=false&language=&markers:none|label:none|51.0625064433,13.8800087383	79
1461200000064340	1465	Langebrück		Am Braugraben	5	13,8409362606	51,1293437953	99	20170201	121553287	http://maps.google.com/maps/api/staticmap?center=51.1293437953,13.8409362606&zoom=16&size=100x100&maptype=satellite&sensor=false&language=&markers:none|label:none|51.1293437953,13.8409362606	82
1461200000001110	1067	Dresden	Friedrichstadt	Am Bramschkontor	23a	13,7177387281	51,0586579617	99	20170201	121553747	http://maps.google.com/maps/api/staticmap?center=51.0586579617,13.7177387281&zoom=16&size=100x100&maptype=satellite&sensor=false&language=&markers:none|label:none|51.0586579617,13.7177387281	42
1461200000056720	1326	Dresden	Hosterwitz/Pillnitz	Bodemerweg	1b	13,869079	51,01358	5	20170201	121569916	http://maps.google.com/maps/api/staticmap?center=51.01358,13.869079&zoom=16&size=100x100&maptype=satellite&sensor=false&language=&markers:none|label:none|51.01358,13.869079	17
1461200000064340	1465	Langebrück		Am Braugraben	4	13,8409362606	51,1293437953	99	20170201	121604432	http://maps.google.com/maps/api/staticmap?center=51.1293437953,13.8409362606&zoom=16&size=100x100&maptype=satellite&sensor=false&language=&markers:none|label:none|51.1293437953,13.8409362606	62
1461200000064350	1465	Langebrück		Am Lärchenholz	4a	13,8409362606	51,1293437953	99	20170201	121633923	http://maps.google.com/maps/api/staticmap?center=51.1293437953,13.8409362606&zoom=16&size=100x100&maptype=satellite&sensor=false&language=&markers:none|label:none|51.1293437953,13.8409362606	74
1461200000064380	1465	Langebrück		Bertha-Dißmann-Str.	15	13,8409362606	51,1293437953	99	20170201	121635579	http://maps.google.com/maps/api/staticmap?center=51.1293437953,13.8409362606&zoom=16&size=100x100&maptype=satellite&sensor=false&language=&markers:none|label:none|51.1293437953,13.8409362606	68
1461200000001120	1067	Dresden	Friedrichstadt	Am Bramschkontor	5	13,7177387281	51,0586579617	99	20170201	121688895	http://maps.google.com/maps/api/staticmap?center=51.0586579617,13.7177387281&zoom=16&size=100x100&maptype=satellite&sensor=false&language=&markers:none|label:none|51.0586579617,13.7177387281	90
1461200000037680	1237	Dresden	Reick	Hülßestr.	13	13,791705	51,012583	5	20170201	121694630	http://maps.google.com/maps/api/staticmap?center=51.012583,13.791705&zoom=16&size=100x100&maptype=satellite&sensor=false&language=&markers:none|label:none|51.012583,13.791705	98
1461200000042310	1257	Dresden	Niedersedlitz	Sosaer Str.	39b	13,816494	51,004206	5	20170201	121696470	http://maps.google.com/maps/api/staticmap?center=51.004206,13.816494&zoom=16&size=100x100&maptype=satellite&sensor=false&language=&markers:none|label:none|51.004206,13.816494	84
1461200000060850	1328	Dresden	Pappritz	Mühlengrundweg	2	13,8635799993	51,041448245	99	20170201	121711525	http://maps.google.com/maps/api/staticmap?center=51.041448245,13.8635799993&zoom=16&size=100x100&maptype=satellite&sensor=false&language=&markers:none|label:none|51.041448245,13.8635799993	68
1461200000052350	1309	Dresden	Striesen-West	Augsburger Str.	7a	13,7825199869	51,0494104756	99	20170201	121724936	http://maps.google.com/maps/api/staticmap?center=51.0494104756,13.7825199869&zoom=16&size=100x100&maptype=satellite&sensor=false&language=&markers:none|label:none|51.0494104756,13.7825199869	77
1461200000000070	1067	Dresden	Wilsdruffer Vorstadt/Seevorstadt-West	Am Zwingerteich	4	13,7393398462	51,0509202998	99	20170201	121734178	http://maps.google.com/maps/api/staticmap?center=51.0509202998,13.7393398462&zoom=16&size=100x100&maptype=satellite&sensor=false&language=&markers:none|label:none|51.0509202998,13.7393398462	51
1461200000021420	1156	Dresden	Gompitz	Zur Pflaumenhohle	9	13,6288687321	51,0417429953	99	20170201	121734363	http://maps.google.com/maps/api/staticmap?center=51.0417429953,13.6288687321&zoom=16&size=100x100&maptype=satellite&sensor=false&language=&markers:none|label:none|51.0417429953,13.6288687321	30
1461200000056410	1324	Dresden	Bühlau/Weißer Hirsch	Hermann-Hesse-Str.	10	13,8334562596	51,0620794227	99	20170201	121735464	http://maps.google.com/maps/api/staticmap?center=51.0620794227,13.8334562596&zoom=16&size=100x100&maptype=satellite&sensor=false&language=&markers:none|label:none|51.0620794227,13.8334562596	1
1461200000000390	1067	Dresden	Wilsdruffer Vorstadt/Seevorstadt-West	Grüne Str.	14	13,727657	51,053668	5	20170201	121735466	http://maps.google.com/maps/api/staticmap?center=51.053668,13.727657&zoom=16&size=100x100&maptype=satellite&sensor=false&language=&markers:none|label:none|51.053668,13.727657	51
1461200000005880	1099	Dresden	Albertstadt	Stauffenbergallee	24	13,7600144439	51,0849136343	99	20170201	121736940	http://maps.google.com/maps/api/staticmap?center=51.0849136343,13.7600144439&zoom=16&size=100x100&maptype=satellite&sensor=false&language=&markers:none|label:none|51.0849136343,13.7600144439	94
1461200000027130	1159	Dresden	Naußlitz	Wiesbadener Str.	29c	13,6898338499	51,0335319184	99	20170201	121822425	http://maps.google.com/maps/api/staticmap?center=51.0335319184,13.6898338499&zoom=16&size=100x100&maptype=satellite&sensor=false&language=&markers:none|label:none|51.0335319184,13.6898338499	8
1461200000042280	1257	Dresden	Lockwitz	Sobrigauer Weg	9	13,7945995	50,9825216	1	20170201	121843717	http://maps.google.com/maps/api/staticmap?center=50.9825216,13.7945995&zoom=16&size=100x100&maptype=satellite&sensor=false&language=&markers:none|label:none|50.9825216,13.7945995	40
1461200000026270	1159	Dresden	Friedrichstadt	Löbtauer Str.	33	13,711567148	51,0489852482	99	20170201	121868923	http://maps.google.com/maps/api/staticmap?center=51.0489852482,13.711567148&zoom=16&size=100x100&maptype=satellite&sensor=false&language=&markers:none|label:none|51.0489852482,13.711567148	97
1461200000000500	1067	Dresden	Innere Altstadt	Landhausstr.	10	13,7393398462	51,0509202998	99	20170201	121869843	http://maps.google.com/maps/api/staticmap?center=51.0509202998,13.7393398462&zoom=16&size=100x100&maptype=satellite&sensor=false&language=&markers:none|label:none|51.0509202998,13.7393398462	39
1461200000054560	1309	Dresden	Striesen-Süd	El-Lohse-Wächtler-Str	1	13,7782443216	51,0418482194	99	20170201	121992000	http://maps.google.com/maps/api/staticmap?center=51.0418482194,13.7782443216&zoom=16&size=100x100&maptype=satellite&sensor=false&language=&markers:none|label:none|51.0418482194,13.7782443216	77
1461200000018770	1156	Dresden	Altfranken	Lindenweg	1	13,640082883	51,0382089253	99	20170201	121993932	http://maps.google.com/maps/api/staticmap?center=51.0382089253,13.640082883&zoom=16&size=100x100&maptype=satellite&sensor=false&language=&markers:none|label:none|51.0382089253,13.640082883	23
1461200000004840	1099	Dresden	Radeberger Vorstadt	Heideparkstr.	8l	13,7816097706	51,068391352	99	20170201	122047068	http://maps.google.com/maps/api/staticmap?center=51.068391352,13.7816097706&zoom=16&size=100x100&maptype=satellite&sensor=false&language=&markers:none|label:none|51.068391352,13.7816097706	55
